{"type":"FeatureCollection","features":[{"type":"Feature","properties":{"code":"BE001","name":"Luxembourg"},"geometry":{"type":"Polygon","coordinates":[[[6.0219,50.1824],[6.0032,50.1637],[5.7689,49.8452],[5.7564,49.8192],[5.7546,49.7914],[5.8146,49.553],[5.7847,49.5419],[5.5321,49.507],[5.4998,49.4954],[5.4761,49.5051],[5.4246,49.5868],[5.4036,49.6052],[5.3745,49.6212],[4.9396,49.7897],[5.0005,49.8258],[5.1395,49.9304],[5.3692,50.2569],[5.3833,50.2825],[5.401,50.3475],[5.3946,50.3828],[5.4192,50.3975],[5.4452,50.4215],[5.4797,50.4243],[5.5179,50.4192],[5.939,50.3441],[6.0166,50.3263],[6.0382,50.3047],[6.0409,50.2641],[6.0352,50.2206],[6.0219,50.1824]]]}},{"type":"Feature","properties":{"code":"BE002","name":"Antwerpen"},"geometry":{"type":"Polygon","coordinates":[[[5.2118,51.2705],[5.1964,51.2338],[5.0413,51.0495],[5.0224,51.0141],[4.9837,51.0235],[4.6094,51.0323],[4.2934,51.0388],[4.2613,51.0319],[4.2668,51.0683],[4.2409,51.3008],[4.2202,51.3473],[4.2719,51.3947],[4.3093,51.3915],[4.7302,51.4947],[4.7602,51.4966],[5.1741,51.2938],[5.2118,51.2705]]]}},{"type":"Feature","properties":{"code":"BE003","name":"Oost Vlaanderen"},"geometry":{"type":"Polygon","coordinates":[[[4.2613,51.0319],[3.9091,50.728],[3.8767,50.7294],[3.494,50.7768],[3.5137,50.807],[3.5039,50.8524],[3.4495,50.9627],[3.3693,51.0827],[3.3736,51.1217],[3.4172,51.2431],[3.4484,51.2632],[3.5244,51.2897],[3.5899,51.3064],[3.7646,51.2665],[3.7924,51.2488],[3.7914,51.2198],[3.8185,51.2109],[3.9025,51.2045],[4.0734,51.2512],[4.1789,51.3037],[4.205,51.3247],[4.2202,51.3473],[4.2409,51.3008],[4.2668,51.0683],[4.2613,51.0319]]]}},{"type":"Feature","properties":{"code":"BE004","name":"Brabant"},"geometry":{"type":"Polygon","coordinates":[[[5.0224,51.0141],[5.0852,50.7324],[5.0991,50.7039],[5.0195,50.6592],[4.9981,50.6358],[4.9631,50.6339],[4.6476,50.5582],[4.6096,50.5376],[4.5906,50.5553],[3.9091,50.728],[4.2613,51.0319],[4.2934,51.0388],[4.6094,51.0323],[4.9837,51.0235],[5.0224,51.0141]]]}},{"type":"Feature","properties":{"code":"BE005","name":"Hainaut"},"geometry":{"type":"Polygon","coordinates":[[[3.9091,50.728],[4.5906,50.5553],[4.6096,50.5376],[4.5861,50.4434],[4.5698,50.4231],[4.375,50.2447],[4.3554,50.2162],[4.4122,49.9724],[4.4247,49.9443],[4.2185,49.962],[4.1463,49.9847],[4.1611,50.0127],[4.1999,50.1427],[4.2185,50.2466],[4.2028,50.2746],[4.0237,50.3499],[3.9149,50.3304],[3.76,50.3449],[3.722,50.3541],[3.3267,50.5103],[3.2933,50.5264],[3.2747,50.5567],[3.2145,50.7122],[3.2082,50.7415],[3.2449,50.7498],[3.494,50.7768],[3.9091,50.728]]]}},{"type":"Feature","properties":{"code":"BE006","name":"Namur"},"geometry":{"type":"Polygon","coordinates":[[[5.3946,50.3828],[5.401,50.3475],[5.3833,50.2825],[5.3692,50.2569],[5.1395,49.9304],[5.0005,49.8258],[4.9396,49.7897],[4.4247,49.9443],[4.4122,49.9724],[4.3554,50.2162],[4.375,50.2447],[4.5698,50.4231],[4.5861,50.4434],[4.6096,50.5376],[4.6476,50.5582],[4.9631,50.6339],[4.9981,50.6358],[5.3946,50.3828]]]}},{"type":"Feature","properties":{"code":"BE007","name":"Limburg"},"geometry":{"type":"Polygon","coordinates":[[[5.5626,51.2439],[5.8205,51.168],[5.8469,51.1393],[5.8267,51.0987],[5.6761,50.8563],[5.667,50.8209],[5.0991,50.7039],[5.0852,50.7324],[5.0224,51.0141],[5.0413,51.0495],[5.1964,51.2338],[5.2118,51.2705],[5.432,51.2664],[5.5626,51.2439]]]}},{"type":"Feature","properties":{"code":"BE008","name":"Liege"},"geometry":{"type":"Polygon","coordinates":[[[6.0312,50.7445],[6.2698,50.4992],[6.3811,50.3777],[6.3416,50.349],[6.1636,50.1573],[6.145,50.1246],[6.0219,50.1824],[6.0352,50.2206],[6.0409,50.2641],[6.0382,50.3047],[6.0166,50.3263],[5.939,50.3441],[5.4797,50.4243],[5.4452,50.4215],[5.4192,50.3975],[5.3946,50.3828],[4.9981,50.6358],[5.0195,50.6592],[5.0991,50.7039],[5.667,50.8209],[5.9859,50.7621],[6.0312,50.7445]]]}},{"type":"Feature","properties":{"code":"BE009","name":"West Vlaanderen"},"geometry":{"type":"Polygon","coordinates":[[[3.4172,51.2431],[3.3736,51.1217],[3.3693,51.0827],[3.4495,50.9627],[3.5039,50.8524],[3.5137,50.807],[3.494,50.7768],[3.1739,50.7397],[2.9134,50.6936],[2.8224,50.7146],[2.7755,50.7351],[2.6437,50.8075],[2.6251,50.8306],[2.6038,50.8813],[2.5521,51.0686],[2.5356,51.0911],[2.5784,51.0997],[3.3576,51.363],[3.3824,51.3323],[3.4084,51.2741],[3.4172,51.2431]]]}},{"type":"Feature","properties":{"code":"BE801","name":"BE801"},"geometry":{"type":"Polygon","coordinates":[[[3.3576,51.363],[2.5784,51.0997],[2.5356,51.0911],[2.527,51.128],[2.4326,51.3165],[2.4283,51.3448],[2.924,51.651],[2.9445,51.6261],[3.3354,51.4509],[3.3482,51.428],[3.3572,51.3984],[3.3576,51.363]]]}}]}