{"type":"FeatureCollection","features":[{"type":"Feature","properties":{"code":"BG001","name":"Blagoevgrad"},"geometry":{"type":"Polygon","coordinates":[[[24.1076,41.7128],[24.0866,41.5498],[24.0689,41.5314],[24.0593,41.4921],[23.9618,41.4579],[23.2065,41.3288],[23.0893,41.3233],[22.9971,41.3365],[22.9577,41.3485],[22.9713,41.3812],[22.9773,41.4686],[22.9741,41.4986],[22.9821,41.5396],[22.9908,41.6651],[22.9832,41.7814],[22.8904,41.9407],[22.8439,41.9929],[22.8606,42.0264],[22.9136,42.0798],[22.9461,42.0869],[23.4289,42.0588],[23.4587,42.0692],[23.771,42.224],[23.7773,42.182],[23.7872,41.9158],[23.7989,41.8661],[24.0729,41.7192],[24.1076,41.7128]]]}},{"type":"Feature","properties":{"code":"BG002","name":"Burgas"},"geometry":{"type":"Polygon","coordinates":[[[27.8226,42.8123],[27.8152,42.7768],[27.6954,42.4279],[27.7084,42.4046],[28.0046,42.0494],[28.0237,42.019],[28.0299,41.9889],[27.87,42.0089],[27.7142,41.9856],[27.5983,41.9438],[27.5713,41.9518],[27.3818,42.0534],[27.3245,42.0887],[27.2852,42.1028],[27.2495,42.1067],[27.0885,42.0957],[27.012,42.0813],[26.9335,42.1538],[26.9173,42.1851],[26.7197,42.675],[26.6827,42.7502],[26.5749,42.9258],[26.6046,42.9225],[27.2551,42.9798],[27.2936,42.9734],[27.7864,42.833],[27.8226,42.8123]]]}},{"type":"Feature","properties":{"code":"BG003","name":"Varna"},"geometry":{"type":"Polygon","coordinates":[[[28.5649,43.7217],[28.5734,43.6089],[28.3712,43.4218],[28.1661,43.4086],[28.104,43.3786],[28.0643,43.3295],[28.0374,43.3464],[27.398,43.5734],[27.2169,43.6648],[27.186,43.6847],[27.2122,43.7055],[27.6089,43.9548],[27.6359,43.9495],[28.1649,43.7754],[28.4207,43.7229],[28.4904,43.7157],[28.5649,43.7217]]]}},{"type":"Feature","properties":{"code":"BG004","name":"Veliko Tarnovo"},"geometry":{"type":"Polygon","coordinates":[[[25.6267,42.7792],[25.022,42.7779],[24.9835,42.7814],[24.909,42.8699],[24.8919,42.9001],[24.9514,43.1511],[24.9658,43.1826],[24.9976,43.201],[25.0326,43.2114],[25.1072,43.154],[25.1348,43.144],[25.572,43.025],[25.5847,42.9999],[25.6284,42.8146],[25.6267,42.7792]]]}},{"type":"Feature","properties":{"code":"BG005","name":"Vidin"},"geometry":{"type":"Polygon","coordinates":[[[26.5744,41.9215],[26.5559,41.9019],[26.3805,41.8341],[26.3595,41.8074],[26.3428,41.7744],[26.3414,41.7426],[26.3473,41.7136],[26.285,41.7162],[26.2334,41.7408],[26.1595,41.7511],[26.0964,41.7277],[26.0686,41.7091],[26.074,41.6631],[26.0946,41.6416],[26.1174,41.6292],[26.1449,41.6226],[26.1641,41.5873],[26.1883,41.5182],[26.1972,41.4417],[26.1343,41.3679],[25.9917,41.326],[25.9306,41.3185],[25.9261,41.364],[25.8427,41.6009],[25.8271,41.6242],[25.2863,41.8833],[25.2619,41.9016],[25.3618,42.0953],[25.3786,42.1176],[25.5925,42.1774],[25.6255,42.1796],[26.0454,42.0091],[26.0642,42.0295],[26.1607,42.2157],[26.1828,42.2458],[26.234,42.2387],[26.4888,42.1623],[26.5223,42.1451],[26.5744,41.9215]]]}},{"type":"Feature","properties":{"code":"BG006","name":"Vratsa"},"geometry":{"type":"Polygon","coordinates":[[[25.9306,41.3185],[25.8868,41.3094],[25.2506,41.2922],[25.2058,41.3009],[25.1539,41.3299],[25.155,41.3596],[25.1068,41.8019],[25.096,41.8305],[25.2396,41.8883],[25.2619,41.9016],[25.2863,41.8833],[25.8271,41.6242],[25.8427,41.6009],[25.9261,41.364],[25.9306,41.3185]]]}},{"type":"Feature","properties":{"code":"BG007","name":"Gabrovo"},"geometry":{"type":"Polygon","coordinates":[[[23.2384,42.3689],[23.2654,42.343],[23.528,42.1361],[23.5467,42.1157],[23.4587,42.0692],[23.4289,42.0588],[22.9461,42.0869],[22.9136,42.0798],[22.8606,42.0264],[22.8439,41.9929],[22.7813,42.04],[22.6748,42.0776],[22.6032,42.1105],[22.5509,42.1413],[22.5278,42.1578],[22.3988,42.2924],[22.3663,42.314],[22.4275,42.3438],[22.5078,42.3936],[22.5358,42.4159],[22.5768,42.4863],[22.5488,42.5146],[22.4671,42.5635],[22.4826,42.6429],[22.5187,42.6216],[22.5845,42.6037],[22.6164,42.5895],[22.8285,42.3681],[22.8759,42.3582],[23.2384,42.3689]]]}},{"type":"Feature","properties":{"code":"BG008","name":"Dobrich"},"geometry":{"type":"Polygon","coordinates":[[[25.1116,43.2768],[25.0922,43.2556],[25.0607,43.2375],[25.0326,43.2114],[24.9976,43.201],[24.9658,43.1826],[24.9514,43.1511],[24.8919,42.9001],[24.909,42.8699],[24.9835,42.7814],[24.951,42.7778],[24.3476,42.7734],[24.1965,42.7942],[24.1666,42.8089],[23.9782,43.0472],[23.978,43.0744],[24.0205,43.2262],[24.0532,43.2184],[24.4851,43.2364],[25.0774,43.2821],[25.1116,43.2768]]]}},{"type":"Feature","properties":{"code":"BG009","name":"Kardzhali"},"geometry":{"type":"Polygon","coordinates":[[[23.6338,43.8052],[23.5988,43.6988],[23.4201,43.4016],[23.4093,43.3318],[23.4049,43.2208],[23.3915,43.163],[23.172,43.1177],[23.1347,43.1312],[22.9991,43.2006],[22.7898,43.3678],[22.7608,43.4004],[23.0513,43.8083],[23.1462,43.8164],[23.2807,43.856],[23.4261,43.8609],[23.6007,43.8254],[23.6338,43.8052]]]}},{"type":"Feature","properties":{"code":"BG010","name":"Kyustendil"},"geometry":{"type":"Polygon","coordinates":[[[25.096,41.8305],[25.1068,41.8019],[25.155,41.3596],[25.1539,41.3299],[25.0397,41.3755],[24.9376,41.4081],[24.9079,41.4127],[24.8246,41.3988],[24.7919,41.3757],[24.76,41.3995],[24.7385,41.4226],[24.5751,41.5399],[24.5491,41.5538],[24.4824,41.5635],[24.2607,41.5723],[24.1127,41.5571],[24.0866,41.5498],[24.1076,41.7128],[24.1302,41.7538],[24.4217,41.9199],[24.4481,41.9149],[24.8052,41.7182],[24.8384,41.726],[25.096,41.8305]]]}},{"type":"Feature","properties":{"code":"BG011","name":"Lovech"},"geometry":{"type":"Polygon","coordinates":[[[25.3786,42.1176],[25.3618,42.0953],[25.2619,41.9016],[25.2396,41.8883],[24.8384,41.726],[24.8052,41.7182],[24.4481,41.9149],[24.4217,41.9199],[24.4284,41.9633],[24.4038,42.5036],[24.4055,42.5447],[24.4622,42.5916],[24.4502,42.6221],[24.3621,42.7444],[24.3476,42.7734],[24.951,42.7778],[24.9835,42.7814],[24.9967,42.7434],[25.0652,42.2613],[25.0795,42.2234],[25.3442,42.1264],[25.3786,42.1176]]]}},{"type":"Feature","properties":{"code":"BG012","name":"Montana"},"geometry":{"type":"Polygon","coordinates":[[[24.4055,42.5447],[24.4038,42.5036],[24.4284,41.9633],[24.4217,41.9199],[24.1302,41.7538],[24.1076,41.7128],[24.0729,41.7192],[23.7989,41.8661],[23.7872,41.9158],[23.7773,42.182],[23.771,42.224],[23.9543,42.314],[23.9574,42.3474],[23.9229,42.5217],[23.9247,42.5529],[24.137,42.6112],[24.1673,42.6151],[24.3793,42.5493],[24.4055,42.5447]]]}},{"type":"Feature","properties":{"code":"BG013","name":"Pazardzhik"},"geometry":{"type":"Polygon","coordinates":[[[24.6426,43.7461],[24.6935,43.7092],[24.7302,43.6964],[25.1996,43.6466],[25.232,43.6317],[25.1558,43.3207],[25.1371,43.2844],[25.1116,43.2768],[25.0774,43.2821],[24.4851,43.2364],[24.0532,43.2184],[24.0205,43.2262],[24.0713,43.4347],[24.2253,43.6575],[24.2284,43.6901],[24.3259,43.7098],[24.4325,43.7483],[24.5252,43.7696],[24.5695,43.765],[24.6426,43.7461]]]}},{"type":"Feature","properties":{"code":"BG014","name":"Pernik"},"geometry":{"type":"Polygon","coordinates":[[[22.7494,42.8902],[22.7717,42.8695],[23.0097,42.7103],[23.29,42.4972],[23.2816,42.4713],[23.2498,42.4094],[23.2384,42.3689],[22.8759,42.3582],[22.8285,42.3681],[22.6164,42.5895],[22.5845,42.6037],[22.5187,42.6216],[22.4826,42.6429],[22.4881,42.7277],[22.4644,42.7781],[22.453,42.815],[22.4926,42.8442],[22.5878,42.8903],[22.7198,42.8869],[22.7494,42.8902]]]}},{"type":"Feature","properties":{"code":"BG015","name":"Pleven"},"geometry":{"type":"Polygon","coordinates":[[[26.1001,43.5648],[25.9619,43.3716],[25.9546,43.343],[25.9132,43.3492],[25.6493,43.3986],[25.6248,43.4095],[25.469,43.6354],[25.5785,43.6531],[25.6628,43.6914],[26.3159,44.0236],[26.3608,44.0414],[26.3653,44.0098],[26.2778,43.8284],[26.2678,43.7947],[26.2942,43.785],[26.5274,43.747],[26.528,43.7136],[26.5199,43.6816],[26.5048,43.6582],[26.1334,43.5772],[26.1001,43.5648]]]}},{"type":"Feature","properties":{"code":"BG016","name":"Plovdiv"},"geometry":{"type":"Polygon","coordinates":[[[26.3982,44.0341],[26.4251,44.0075],[26.9867,43.7141],[26.9792,43.6842],[26.7505,43.3495],[26.7149,43.3555],[26.6416,43.3385],[26.6058,43.335],[26.105,43.5072],[26.0758,43.5288],[26.1001,43.5648],[26.1334,43.5772],[26.5048,43.6582],[26.5199,43.6816],[26.528,43.7136],[26.5274,43.747],[26.2942,43.785],[26.2678,43.7947],[26.2778,43.8284],[26.3653,44.0098],[26.3608,44.0414],[26.3982,44.0341]]]}},{"type":"Feature","properties":{"code":"BG017","name":"Razgrad"},"geometry":{"type":"Polygon","coordinates":[[[23.29,42.4972],[23.0097,42.7103],[23.0317,42.7304],[23.2716,42.8891],[23.3019,42.8908],[23.594,42.8366],[23.6221,42.8212],[23.5367,42.6375],[23.5441,42.6112],[23.6262,42.4507],[23.6338,42.4223],[23.29,42.4972]]]}},{"type":"Feature","properties":{"code":"BG018","name":"Ruse"},"geometry":{"type":"Polygon","coordinates":[[[23.3915,43.163],[23.42,43.1501],[23.5812,43.0089],[23.6231,43.0087],[23.9486,43.0509],[23.9782,43.0472],[24.1666,42.8089],[24.1965,42.7942],[24.3476,42.7734],[24.3621,42.7444],[24.4502,42.6221],[24.4622,42.5916],[24.4055,42.5447],[24.3793,42.5493],[24.1673,42.6151],[24.137,42.6112],[23.9247,42.5529],[23.9229,42.5217],[23.9574,42.3474],[23.9543,42.314],[23.5467,42.1157],[23.528,42.1361],[23.2654,42.343],[23.2384,42.3689],[23.2498,42.4094],[23.2816,42.4713],[23.29,42.4972],[23.6338,42.4223],[23.6262,42.4507],[23.5441,42.6112],[23.5367,42.6375],[23.6221,42.8212],[23.594,42.8366],[23.3019,42.8908],[23.2716,42.8891],[23.0317,42.7304],[23.0097,42.7103],[22.7717,42.8695],[22.7494,42.8902],[22.787,42.9708],[22.8184,42.9984],[22.9655,43.0996],[22.9871,43.1188],[22.9987,43.1484],[22.9991,43.2006],[23.1347,43.1312],[23.172,43.1177],[23.3915,43.163]]]}},{"type":"Feature","properties":{"code":"BG019","name":"Silistra"},"geometry":{"type":"Polygon","coordinates":[[[27.186,43.6847],[27.2169,43.6648],[27.398,43.5734],[27.391,43.5425],[27.1505,42.9981],[27.1326,42.9694],[26.6046,42.9225],[26.5749,42.9258],[26.5684,42.9648],[26.57,42.9971],[26.5989,43.0289],[26.7505,43.3495],[26.9792,43.6842],[26.9867,43.7141],[27.186,43.6847]]]}},{"type":"Feature","properties":{"code":"BG020","name":"Sliven"},"geometry":{"type":"Polygon","coordinates":[[[26.5749,42.9258],[26.6827,42.7502],[26.7019,42.709],[26.665,42.6862],[26.4037,42.4544],[26.2091,42.28],[26.1828,42.2458],[26.1584,42.2612],[25.9476,42.3269],[25.9313,42.3628],[25.8201,42.794],[25.8535,42.8205],[26.1599,42.952],[26.57,42.9971],[26.5684,42.9648],[26.5749,42.9258]]]}},{"type":"Feature","properties":{"code":"BG021","name":"Smolyan"},"geometry":{"type":"Polygon","coordinates":[[[27.2573,44.1318],[27.3228,44.0762],[27.4037,44.0273],[27.5845,43.9666],[27.6089,43.9548],[27.2122,43.7055],[27.186,43.6847],[26.9867,43.7141],[26.4251,44.0075],[26.3982,44.0341],[26.4273,44.0438],[26.6221,44.0647],[26.7257,44.0819],[26.8018,44.1021],[26.8557,44.1254],[26.9168,44.1401],[27.0196,44.1523],[27.1064,44.1511],[27.1502,44.1448],[27.1762,44.1328],[27.2573,44.1318]]]}},{"type":"Feature","properties":{"code":"BG022","name":"Sofia (city)"},"geometry":{"type":"Polygon","coordinates":[[[25.8201,42.794],[25.9313,42.3628],[25.9476,42.3269],[26.1584,42.2612],[26.1828,42.2458],[26.1607,42.2157],[26.0642,42.0295],[26.0454,42.0091],[25.6255,42.1796],[25.5925,42.1774],[25.3786,42.1176],[25.3442,42.1264],[25.0795,42.2234],[25.0652,42.2613],[24.9967,42.7434],[24.9835,42.7814],[25.022,42.7779],[25.587,42.7763],[25.6707,42.7813],[25.7817,42.799],[25.8201,42.794]]]}},{"type":"Feature","properties":{"code":"BG023","name":"Sofia"},"geometry":{"type":"Polygon","coordinates":[[[26.7505,43.3495],[26.5989,43.0289],[26.57,42.9971],[26.1599,42.952],[26.1526,42.9935],[26.0286,43.3164],[25.9935,43.334],[25.9546,43.343],[25.9619,43.3716],[26.0758,43.5288],[26.105,43.5072],[26.6058,43.335],[26.6416,43.3385],[26.7149,43.3555],[26.7505,43.3495]]]}},{"type":"Feature","properties":{"code":"BG024","name":"Stara Zagora"},"geometry":{"type":"Polygon","coordinates":[[[22.9746,44.1075],[22.8686,43.9538],[22.8494,43.9102],[22.8534,43.8692],[22.8784,43.8484],[22.9053,43.8385],[22.9804,43.8199],[23.0513,43.8083],[22.7608,43.4004],[22.7125,43.3998],[22.68,43.4046],[22.5746,43.4595],[22.5438,43.4804],[22.4145,43.7106],[22.38,43.7945],[22.3746,43.8258],[22.4139,43.9502],[22.4357,43.9923],[22.6505,44.1901],[22.6842,44.2091],[22.7243,44.1983],[22.9439,44.1147],[22.9746,44.1075]]]}},{"type":"Feature","properties":{"code":"BG025","name":"Targovishte"},"geometry":{"type":"Polygon","coordinates":[[[23.6625,43.8114],[24.1932,43.689],[24.2284,43.6901],[24.2253,43.6575],[24.0713,43.4347],[24.0205,43.2262],[23.978,43.0744],[23.9782,43.0472],[23.9486,43.0509],[23.6231,43.0087],[23.5812,43.0089],[23.42,43.1501],[23.3915,43.163],[23.4049,43.2208],[23.4093,43.3318],[23.4201,43.4016],[23.5988,43.6988],[23.6338,43.8052],[23.6625,43.8114]]]}},{"type":"Feature","properties":{"code":"BG026","name":"Haskovo"},"geometry":{"type":"Polygon","coordinates":[[[28.0643,43.3295],[27.965,43.1908],[27.9465,43.1536],[27.8418,42.8537],[27.8226,42.8123],[27.7864,42.833],[27.2936,42.9734],[27.2551,42.9798],[27.1326,42.9694],[27.1505,42.9981],[27.391,43.5425],[27.398,43.5734],[28.0374,43.3464],[28.0643,43.3295]]]}},{"type":"Feature","properties":{"code":"BG027","name":"Shumen"},"geometry":{"type":"Polygon","coordinates":[[[25.469,43.6354],[25.6248,43.4095],[25.6493,43.3986],[25.9546,43.343],[25.9935,43.334],[26.0286,43.3164],[26.1526,42.9935],[26.1599,42.952],[25.8535,42.8205],[25.8201,42.794],[25.7817,42.799],[25.6707,42.7813],[25.6267,42.7792],[25.6284,42.8146],[25.5847,42.9999],[25.572,43.025],[25.1348,43.144],[25.1072,43.154],[25.0326,43.2114],[25.0607,43.2375],[25.0922,43.2556],[25.1116,43.2768],[25.1371,43.2844],[25.1558,43.3207],[25.232,43.6317],[25.2567,43.6405],[25.407,43.6273],[25.469,43.6354]]]}},{"type":"Feature","properties":{"code":"BG028","name":"Yambol"},"geometry":{"type":"Polygon","coordinates":[[[27.012,42.0813],[26.9704,42.0602],[26.6093,41.9225],[26.5744,41.9215],[26.5223,42.1451],[26.4888,42.1623],[26.234,42.2387],[26.1828,42.2458],[26.2091,42.28],[26.4037,42.4544],[26.665,42.6862],[26.7019,42.709],[26.7197,42.675],[26.9173,42.1851],[26.9335,42.1538],[27.012,42.0813]]]}}]}