{"type":"FeatureCollection","features":[{"type":"Feature","properties":{"code":"CY001","name":"Cyprus"},"geometry":{"type":"Polygon","coordinates":[[[33.0308,34.6534],[32.7253,34.6405],[32.6222,34.6661],[32.532,34.6987],[32.4475,34.7388],[32.4136,34.7638],[32.3354,34.9093],[32.3016,35.015],[32.3153,35.0524],[32.3342,35.0749],[32.5581,35.1764],[32.9458,35.3377],[33.0562,35.3562],[33.0951,35.3564],[33.4339,35.3366],[33.6555,35.3642],[33.9429,35.4411],[33.9905,35.4581],[34.2023,35.5697],[34.4424,35.6582],[34.5285,35.6852],[34.5692,35.6898],[34.5664,35.6497],[34.5338,35.6285],[33.9827,35.3326],[33.9656,35.3124],[33.9143,35.2244],[33.903,35.1926],[33.9174,35.1614],[33.9947,35.0748],[34.0222,35.0017],[34.0189,34.9759],[33.6178,34.8174],[33.3806,34.7327],[33.2804,34.7047],[33.0308,34.6534]]]}}]}