{"type":"FeatureCollection","features":[{"type":"Feature","properties":{"code":"CZ001","name":"Moravskoslezský"},"geometry":{"type":"Polygon","coordinates":[[[17.7423,50.2931],[17.7337,50.2561],[17.7592,50.2259],[17.7264,50.1971],[17.6435,50.1738],[17.6043,50.1575],[17.6339,50.1313],[17.8355,49.9967],[17.8686,49.9818],[17.9632,50.0056],[17.9928,50.0181],[18.0354,50.068],[18.1456,49.9869],[18.1762,49.9781],[18.2693,49.9639],[18.319,49.9247],[18.3273,49.9534],[18.4898,49.9061],[18.5232,49.8999],[18.5486,49.907],[18.5784,49.8884],[18.5711,49.8563],[18.5795,49.8248],[18.6319,49.7207],[18.6569,49.7071],[18.7431,49.6785],[18.8048,49.674],[18.8204,49.6442],[18.8524,49.5272],[18.8188,49.5059],[18.7767,49.4929],[18.7301,49.4932],[18.5854,49.5071],[18.555,49.4878],[18.4815,49.4059],[18.4541,49.3924],[18.4249,49.3855],[17.9085,49.5373],[17.8887,49.5594],[17.8249,49.6133],[17.729,49.6786],[17.5426,49.7347],[17.2321,49.8195],[17.2034,49.8308],[17.1568,49.8743],[17.1542,49.9137],[17.1739,50.0156],[17.2275,50.1139],[17.2553,50.148],[17.3251,50.1932],[17.4199,50.2452],[17.43,50.2794],[17.4715,50.2853],[17.512,50.2823],[17.707,50.2951],[17.7423,50.2931]]]}},{"type":"Feature","properties":{"code":"CZ002","name":"Karlovarský"},"geometry":{"type":"Polygon","coordinates":[[[12.9452,50.4065],[13.2612,50.1227],[13.2731,50.0967],[12.5488,49.8983],[12.5335,49.9196],[12.4546,49.9918],[12.3424,50.034],[12.3063,50.0542],[12.2682,50.0656],[12.2091,50.1127],[12.1563,50.1947],[12.1066,50.2541],[12.1054,50.3134],[12.2486,50.2722],[12.2846,50.2795],[12.4085,50.3273],[12.4941,50.3831],[12.5242,50.3986],[12.5747,50.4135],[12.6073,50.4142],[12.8228,50.4544],[12.8547,50.446],[12.9452,50.4065]]]}},{"type":"Feature","properties":{"code":"CZ003","name":"Plzeòský"},"geometry":{"type":"Polygon","coordinates":[[[13.3935,50.0899],[13.6496,50.0027],[13.7473,49.9608],[13.8097,49.9302],[13.825,49.9005],[13.8214,49.8566],[13.7611,49.5078],[13.5567,48.9969],[13.5493,48.9676],[13.417,48.9915],[13.363,49.0674],[13.3059,49.1066],[13.2804,49.1197],[13.1493,49.1495],[13.1375,49.1789],[13.0716,49.2526],[12.9735,49.3242],[12.9397,49.3421],[12.8285,49.3425],[12.7908,49.3483],[12.6985,49.4104],[12.6188,49.4765],[12.6052,49.5083],[12.428,49.7365],[12.4146,49.7669],[12.5488,49.8983],[12.5867,49.9111],[13.2731,50.0967],[13.3935,50.0899]]]}},{"type":"Feature","properties":{"code":"CZ004","name":"Jihoèeský"},"geometry":{"type":"Polygon","coordinates":[[[14.9255,49.5519],[14.9148,49.5266],[14.8957,49.4086],[14.8942,49.3655],[14.9153,49.3257],[14.972,49.2863],[15.0201,49.2645],[15.1503,49.2205],[15.4812,49.1229],[15.5523,49.0804],[15.5665,49.0511],[15.5807,48.9882],[15.5974,48.9518],[15.5705,48.9342],[15.5483,48.9108],[15.1706,48.9594],[14.7031,48.6228],[14.6738,48.5958],[14.0433,48.6802],[13.8867,48.7494],[13.8488,48.7615],[13.5493,48.9676],[13.5567,48.9969],[13.7611,49.5078],[13.801,49.5167],[14.8344,49.5834],[14.8973,49.5569],[14.9255,49.5519]]]}},{"type":"Feature","properties":{"code":"CZ005","name":"Ústecký"},"geometry":{"type":"Polygon","coordinates":[[[14.4928,51.0298],[14.5158,51.0129],[14.5906,50.9824],[14.6019,50.9568],[14.6198,50.8523],[14.4998,50.5479],[14.4914,50.5134],[14.3768,50.3665],[14.3445,50.3477],[14.2599,50.3317],[13.9908,50.3026],[13.6614,50.2316],[13.5061,50.1724],[13.4711,50.151],[13.3935,50.0899],[13.2731,50.0967],[13.2612,50.1227],[12.9452,50.4065],[12.9763,50.4156],[13.6449,50.7185],[13.7162,50.717],[13.8284,50.7254],[13.8613,50.7343],[13.9007,50.7842],[13.9718,50.8122],[14.0006,50.8183],[14.0841,50.8143],[14.222,50.8682],[14.257,50.8885],[14.2949,50.8992],[14.3658,50.8977],[14.3911,50.9158],[14.366,50.9393],[14.2713,50.9867],[14.2791,51.0244],[14.3044,51.0593],[14.3256,51.0416],[14.4296,51.0193],[14.465,51.0212],[14.4928,51.0298]]]}},{"type":"Feature","properties":{"code":"CZ006","name":"Liberecký"},"geometry":{"type":"Polygon","coordinates":[[[15.1659,51.0112],[15.1951,50.9845],[15.2395,50.9912],[15.2702,50.9697],[15.285,50.9476],[15.2722,50.9228],[15.3,50.8957],[15.3148,50.8597],[15.371,50.8379],[15.3762,50.8127],[15.393,50.7829],[15.429,50.8021],[15.4592,50.8003],[15.5331,50.7774],[15.5497,50.7525],[15.6278,50.5357],[15.6049,50.5187],[15.4053,50.4814],[15.2273,50.4981],[15.1488,50.5131],[15.1008,50.5499],[15.0663,50.5525],[14.4914,50.5134],[14.4998,50.5479],[14.6198,50.8523],[14.6852,50.8654],[14.7165,50.8631],[14.8166,50.8721],[14.9734,50.8637],[15.004,50.8779],[15.0094,50.9131],[15.0105,50.9446],[14.9799,51.0007],[15.0142,51.0209],[15.0604,51.0196],[15.0954,51.0041],[15.13,50.9996],[15.1659,51.0112]]]}},{"type":"Feature","properties":{"code":"CZ007","name":"Královéhradecký"},"geometry":{"type":"Polygon","coordinates":[[[15.5704,50.7782],[15.7286,50.7333],[15.8053,50.7518],[15.8359,50.7342],[15.8527,50.6922],[15.8928,50.6768],[15.9542,50.6917],[15.9803,50.6869],[15.9983,50.6637],[16.0039,50.6243],[16.0353,50.6063],[16.0632,50.6216],[16.113,50.6667],[16.1353,50.6498],[16.1658,50.6362],[16.1961,50.647],[16.2263,50.6661],[16.2609,50.6683],[16.315,50.6633],[16.3505,50.654],[16.3841,50.6336],[16.4311,50.5892],[16.4283,50.5604],[16.4076,50.5358],[16.3832,50.5213],[16.2298,50.4549],[16.2046,50.4389],[16.2795,50.3714],[16.3568,50.3663],[16.3843,50.3531],[16.5215,50.2481],[16.5508,50.2208],[16.592,50.1428],[16.362,50.1019],[15.7434,50.1359],[15.469,50.1126],[15.439,50.1152],[15.1488,50.5131],[15.2273,50.4981],[15.4053,50.4814],[15.6049,50.5187],[15.6278,50.5357],[15.5497,50.7525],[15.5331,50.7774],[15.5704,50.7782]]]}},{"type":"Feature","properties":{"code":"CZ008","name":"Pardubický"},"geometry":{"type":"Polygon","coordinates":[[[16.7496,49.5941],[16.7154,49.5976],[16.3903,49.5829],[16.3448,49.61],[16.1992,49.6715],[16.0291,49.7287],[16.0019,49.7352],[15.8583,49.7425],[15.6084,49.813],[15.5515,49.8351],[15.5024,49.8654],[15.439,50.1152],[15.469,50.1126],[15.7434,50.1359],[16.362,50.1019],[16.592,50.1428],[16.6179,50.1289],[16.6987,50.1009],[16.7373,50.1203],[16.8142,50.1713],[16.8206,50.1387],[16.8089,50.1136],[16.8039,50.0441],[16.7915,49.6647],[16.7852,49.5994],[16.7496,49.5941]]]}},{"type":"Feature","properties":{"code":"CZ009","name":"Støedoèeský"},"geometry":{"type":"Polygon","coordinates":[[[15.1488,50.5131],[15.439,50.1152],[15.5024,49.8654],[15.4763,49.8446],[14.9255,49.5519],[14.8973,49.5569],[14.8344,49.5834],[13.801,49.5167],[13.7611,49.5078],[13.8214,49.8566],[13.825,49.9005],[13.8097,49.9302],[13.6496,50.0027],[13.3935,50.0899],[13.4711,50.151],[13.5061,50.1724],[13.6614,50.2316],[13.9908,50.3026],[14.2599,50.3317],[14.3445,50.3477],[14.3768,50.3665],[14.4914,50.5134],[15.0663,50.5525],[15.1008,50.5499],[15.1488,50.5131]],[[14.4766,49.9775],[14.6446,49.9983],[14.6675,50.0165],[14.701,50.0834],[14.6772,50.1095],[14.652,50.1254],[14.5333,50.1768],[14.4819,50.172],[14.2536,50.1037],[14.2774,50.0842],[14.306,50.0487],[14.3536,49.9697],[14.4766,49.9775]]]}},{"type":"Feature","properties":{"code":"CZ010","name":"Vysoèina"},"geometry":{"type":"Polygon","coordinates":[[[16.3903,49.5829],[16.3848,49.5558],[16.2937,49.3283],[16.27,49.1399],[16.2576,49.1069],[16.223,49.0802],[16.1231,49.0401],[15.7361,48.9562],[15.6663,48.9481],[15.5974,48.9518],[15.5807,48.9882],[15.5665,49.0511],[15.5523,49.0804],[15.5169,49.1031],[15.4812,49.1229],[15.1503,49.2205],[15.0201,49.2645],[14.972,49.2863],[14.9153,49.3257],[14.8942,49.3655],[14.8957,49.4086],[14.9148,49.5266],[14.9255,49.5519],[15.4763,49.8446],[15.5024,49.8654],[15.5515,49.8351],[15.6084,49.813],[15.8583,49.7425],[16.0019,49.7352],[16.0291,49.7287],[16.1992,49.6715],[16.3448,49.61],[16.3903,49.5829]]]}},{"type":"Feature","properties":{"code":"CZ011","name":"Jihomoravský"},"geometry":{"type":"Polygon","coordinates":[[[16.7496,49.5941],[16.7415,49.5536],[16.7513,49.5225],[16.8111,49.4088],[16.8327,49.3953],[16.8672,49.3891],[16.8981,49.4096],[16.9111,49.4345],[16.8753,49.4769],[16.9009,49.4909],[16.9306,49.4917],[16.9839,49.4538],[17.1429,49.3105],[17.1565,49.2707],[17.1368,49.2476],[17.1451,49.1578],[17.1558,49.1205],[17.2164,49.0427],[17.2834,49.0183],[17.3467,49.0082],[17.4919,48.9674],[17.5467,48.9464],[17.5892,48.9148],[17.6577,48.8493],[17.6283,48.8364],[17.5856,48.8295],[17.4216,48.8174],[17.3822,48.8104],[17.2141,48.8668],[17.1834,48.8676],[17.0573,48.7741],[17.0317,48.7468],[16.9854,48.6761],[16.9429,48.6241],[16.862,48.7138],[16.6477,48.7862],[15.8207,48.8751],[15.5483,48.9108],[15.5705,48.9342],[15.5974,48.9518],[15.6663,48.9481],[15.7361,48.9562],[16.1231,49.0401],[16.223,49.0802],[16.2576,49.1069],[16.27,49.1399],[16.2937,49.3283],[16.3848,49.5558],[16.3903,49.5829],[16.7154,49.5976],[16.7496,49.5941]]]}},{"type":"Feature","properties":{"code":"CZ012","name":"Olomoucký"},"geometry":{"type":"Polygon","coordinates":[[[17.43,50.2794],[17.4199,50.2452],[17.3251,50.1932],[17.2553,50.148],[17.2275,50.1139],[17.1739,50.0156],[17.1542,49.9137],[17.1568,49.8743],[17.2034,49.8308],[17.2321,49.8195],[17.5426,49.7347],[17.729,49.6786],[17.8249,49.6133],[17.8887,49.5594],[17.9085,49.5373],[17.1565,49.2707],[17.1429,49.3105],[17.1145,49.34],[16.9839,49.4538],[16.9306,49.4917],[16.9009,49.4909],[16.8753,49.4769],[16.9111,49.4345],[16.8981,49.4096],[16.8672,49.3891],[16.8327,49.3953],[16.8111,49.4088],[16.7513,49.5225],[16.7415,49.5536],[16.7496,49.5941],[16.7852,49.5994],[16.7915,49.6647],[16.8039,50.0441],[16.8089,50.1136],[16.8206,50.1387],[16.8142,50.1713],[16.8472,50.1996],[16.8747,50.2102],[16.9728,50.2225],[17.0147,50.2325],[17.0103,50.2749],[16.9942,50.3078],[16.9247,50.3738],[16.9039,50.3899],[16.8714,50.4046],[16.8919,50.4328],[16.9187,50.449],[17.43,50.2794]]]}},{"type":"Feature","properties":{"code":"CZ013","name":"Zlínský"},"geometry":{"type":"Polygon","coordinates":[[[18.4249,49.3855],[18.3523,49.3218],[18.2839,49.3036],[18.2242,49.2817],[18.1545,49.2319],[18.1135,49.082],[18.0889,49.0426],[17.8696,48.9264],[17.8415,48.9042],[17.8098,48.902],[17.7168,48.8655],[17.6577,48.8493],[17.5892,48.9148],[17.5467,48.9464],[17.4919,48.9674],[17.3467,49.0082],[17.2834,49.0183],[17.2164,49.0427],[17.1558,49.1205],[17.1451,49.1578],[17.1368,49.2476],[17.1565,49.2707],[17.9085,49.5373],[18.4249,49.3855]]]}},{"type":"Feature","properties":{"code":"CZ014","name":"Hl.m. Praha"},"geometry":{"type":"Polygon","coordinates":[[[14.4766,49.9775],[14.3536,49.9697],[14.306,50.0487],[14.2774,50.0842],[14.2536,50.1037],[14.4819,50.172],[14.5333,50.1768],[14.652,50.1254],[14.6772,50.1095],[14.701,50.0834],[14.6675,50.0165],[14.6446,49.9983],[14.4766,49.9775]]]}}]}