{"type":"FeatureCollection","features":[{"type":"Feature","properties":{"code":"FR001","name":"Andorre"},"geometry":{"type":"Polygon","coordinates":[[[1.7615,42.5711],[1.7328,42.5046],[1.6979,42.4853],[1.4586,42.4389],[1.4441,42.4674],[1.4322,42.5277],[1.43,42.5683],[1.4498,42.6012],[1.7316,42.5797],[1.7615,42.5711]]]}},{"type":"Feature","properties":{"code":"FR002","name":"Meuse"},"geometry":{"type":"Polygon","coordinates":[[[5.4761,49.5051],[5.6586,49.4284],[5.6927,49.4078],[5.7115,49.375],[5.8459,49.0573],[5.8468,49.0255],[5.8227,48.9687],[5.8034,48.9501],[5.7682,48.7989],[5.743,48.6087],[5.7508,48.5161],[5.7462,48.4874],[5.4758,48.422],[5.4532,48.4085],[4.9924,48.6817],[4.9847,48.7539],[4.9728,49.1668],[4.9651,49.2367],[4.9913,49.253],[5.3772,49.578],[5.4036,49.6052],[5.4246,49.5868],[5.4761,49.5051]]]}},{"type":"Feature","properties":{"code":"FR003","name":"Hautes Pyrénées"},"geometry":{"type":"Polygon","coordinates":[[[0.6279,43.3013],[0.5606,43.24],[0.4665,43.139],[0.4558,43.0512],[0.459,42.8255],[0.4705,42.6977],[0.387,42.6916],[0.3267,42.6791],[0.2916,42.6812],[0.2642,42.71],[0.1866,42.7336],[0.1542,42.7297],[-0.007,42.6856],[-0.0382,42.6903],[-0.0677,42.6993],[-0.1687,42.7837],[-0.31,42.8403],[-0.2023,43.0557],[-0.0462,43.2295],[-0.0224,43.2589],[0.0179,43.3264],[0.0243,43.354],[-0.0047,43.4358],[-0.062,43.5408],[-0.1037,43.5834],[-0.0355,43.6001],[-0.0072,43.6],[0.1171,43.5071],[0.1539,43.4559],[0.1883,43.3835],[0.2252,43.3696],[0.3845,43.3379],[0.6279,43.3013]]]}},{"type":"Feature","properties":{"code":"FR004","name":"Landes"},"geometry":{"type":"Polygon","coordinates":[[[-0.1437,44.222],[-0.1136,44.2008],[0.0535,44.0273],[0.0709,43.9907],[0.0367,43.9849],[-0.0281,43.9839],[-0.1999,43.9148],[-0.2229,43.8812],[-0.2788,43.6345],[-0.2393,43.5797],[-0.2747,43.5704],[-0.4385,43.552],[-1.1773,43.4971],[-1.4161,43.4997],[-1.5058,43.5432],[-1.4507,43.6402],[-1.4396,43.674],[-1.3152,44.1343],[-1.2576,44.4403],[-1.2453,44.4782],[-1.0982,44.5008],[-0.645,44.4487],[-0.6227,44.4345],[-0.3844,44.2192],[-0.3502,44.2047],[-0.2687,44.197],[-0.1437,44.222]]]}},{"type":"Feature","properties":{"code":"FR005","name":"Gers"},"geometry":{"type":"Polygon","coordinates":[[[0.749,44.0528],[0.9266,43.8134],[0.9721,43.7657],[1.1103,43.643],[1.098,43.6155],[0.9334,43.4042],[0.8956,43.4019],[0.7974,43.4145],[0.7618,43.4096],[0.6279,43.3013],[0.3845,43.3379],[0.2252,43.3696],[0.1883,43.3835],[0.1539,43.4559],[0.1171,43.5071],[-0.0072,43.6],[-0.0355,43.6001],[-0.1037,43.5834],[-0.2064,43.5772],[-0.2393,43.5797],[-0.2788,43.6345],[-0.2229,43.8812],[-0.1999,43.9148],[-0.0644,43.9719],[-0.0281,43.9839],[0.0367,43.9849],[0.0709,43.9907],[0.1236,43.9895],[0.7203,44.0617],[0.749,44.0528]]]}},{"type":"Feature","properties":{"code":"FR006","name":"Pyrénées Orientales"},"geometry":{"type":"Polygon","coordinates":[[[3.0438,42.8414],[3.0727,42.7484],[3.0954,42.5593],[3.1214,42.4099],[3.0502,42.4607],[3.0234,42.4727],[2.9753,42.4624],[2.9452,42.4648],[2.8482,42.459],[2.8043,42.4226],[2.7488,42.4196],[2.7131,42.411],[2.6943,42.3763],[2.667,42.3455],[2.5777,42.3568],[2.5162,42.3461],[2.4703,42.3489],[2.4231,42.3848],[2.3849,42.4001],[2.286,42.4293],[2.2444,42.4357],[2.1367,42.4146],[2.0911,42.3697],[2.0672,42.3608],[2.0057,42.3563],[1.9617,42.3896],[1.951,42.4208],[1.9343,42.4471],[1.8308,42.4809],[1.7957,42.4897],[1.7587,42.4908],[1.7328,42.5046],[1.7615,42.5711],[1.7932,42.5842],[2.1295,42.6567],[2.1697,42.6736],[2.3307,42.8352],[2.3595,42.8441],[2.8279,42.9105],[2.9215,42.8902],[3.0142,42.8583],[3.0438,42.8414]]]}},{"type":"Feature","properties":{"code":"FR007","name":"Aude"},"geometry":{"type":"Polygon","coordinates":[[[3.237,43.2093],[3.0554,42.8782],[3.0438,42.8414],[3.0142,42.8583],[2.9215,42.8902],[2.8279,42.9105],[2.3595,42.8441],[2.3307,42.8352],[2.1697,42.6736],[2.1393,42.6972],[1.7109,43.2615],[1.7354,43.2836],[2.0215,43.4149],[2.5623,43.4242],[2.5564,43.388],[2.5616,43.3303],[2.6277,43.2841],[2.7419,43.2629],[2.7746,43.2631],[2.8161,43.3117],[2.8613,43.3496],[2.8927,43.3495],[3.195,43.25],[3.2176,43.2358],[3.237,43.2093]]]}},{"type":"Feature","properties":{"code":"FR008","name":"Ariège"},"geometry":{"type":"Polygon","coordinates":[[[1.7109,43.2615],[2.1393,42.6972],[2.1697,42.6736],[2.1295,42.6567],[1.7932,42.5842],[1.7615,42.5711],[1.7316,42.5797],[1.4498,42.6012],[1.4241,42.6246],[1.363,42.7125],[1.3345,42.7183],[1.2058,42.7097],[1.1591,42.7192],[1.1164,42.7625],[1.0817,42.7759],[0.9387,42.7912],[0.8741,42.8154],[0.8492,42.8383],[0.837,42.8821],[0.8319,42.9212],[0.9784,43.081],[1.0015,43.1024],[1.0305,43.1199],[1.0697,43.1389],[1.4325,43.2592],[1.6784,43.2686],[1.7109,43.2615]]]}},{"type":"Feature","properties":{"code":"FR009","name":"Haute Garonne"},"geometry":{"type":"Polygon","coordinates":[[[2.0215,43.4149],[1.7354,43.2836],[1.7109,43.2615],[1.6784,43.2686],[1.4325,43.2592],[1.0697,43.1389],[1.0015,43.1024],[0.8319,42.9212],[0.837,42.8821],[0.8492,42.8383],[0.8122,42.8362],[0.7198,42.8578],[0.6894,42.8514],[0.6647,42.8391],[0.6594,42.7552],[0.6641,42.6844],[0.638,42.6905],[0.5164,42.6921],[0.4705,42.6977],[0.459,42.8255],[0.4558,43.0512],[0.4665,43.139],[0.5964,43.2737],[0.7618,43.4096],[0.7974,43.4145],[0.8956,43.4019],[0.9334,43.4042],[1.098,43.6155],[1.1103,43.643],[0.9721,43.7657],[0.9508,43.7914],[1.5251,43.9124],[1.5614,43.9147],[2.0073,43.4453],[2.0215,43.4149]]]}},{"type":"Feature","properties":{"code":"FR010","name":"Tarn et Garonne"},"geometry":{"type":"Polygon","coordinates":[[[1.8881,44.3267],[1.9174,44.1953],[1.9152,44.1563],[1.5827,43.9374],[1.5614,43.9147],[1.5251,43.9124],[0.9508,43.7914],[0.9266,43.8134],[0.749,44.0528],[0.7563,44.0791],[1.0515,44.3587],[1.0814,44.3733],[1.1317,44.3118],[1.3296,44.2154],[1.3654,44.2079],[1.4292,44.2471],[1.464,44.2763],[1.4991,44.2875],[1.8579,44.3326],[1.8881,44.3267]]]}},{"type":"Feature","properties":{"code":"FR011","name":"Tarn"},"geometry":{"type":"Polygon","coordinates":[[[2.9354,43.6928],[2.9011,43.6624],[2.5974,43.4437],[2.5623,43.4242],[2.0215,43.4149],[2.0073,43.4453],[1.5614,43.9147],[1.5827,43.9374],[1.9152,44.1563],[1.9615,44.1692],[2.0755,44.1821],[2.1808,44.1783],[2.323,44.1265],[2.4497,44.056],[2.5286,43.9705],[2.84,43.7491],[2.9354,43.6928]]]}},{"type":"Feature","properties":{"code":"FR012","name":"Lot et Garonne"},"geometry":{"type":"Polygon","coordinates":[[[1.0627,44.5898],[1.0576,44.5381],[1.0814,44.3733],[1.0515,44.3587],[0.7563,44.0791],[0.749,44.0528],[0.7203,44.0617],[0.1236,43.9895],[0.0709,43.9907],[0.0535,44.0273],[-0.1136,44.2008],[-0.1437,44.222],[-0.0839,44.2427],[-0.0555,44.263],[-0.0149,44.3616],[-0.0138,44.4668],[0.0016,44.5239],[0.1084,44.6938],[0.1261,44.7148],[0.2264,44.7564],[0.2635,44.7637],[0.3003,44.7385],[0.3709,44.6604],[0.4041,44.6543],[0.457,44.6559],[0.6665,44.689],[0.8278,44.6934],[0.9861,44.6386],[1.0422,44.6106],[1.0627,44.5898]]]}},{"type":"Feature","properties":{"code":"FR013","name":"Lot"},"geometry":{"type":"Polygon","coordinates":[[[2.0639,44.9792],[2.0689,44.9537],[2.1729,44.6517],[2.1808,44.6119],[1.907,44.3579],[1.8881,44.3267],[1.8579,44.3326],[1.4991,44.2875],[1.464,44.2763],[1.4292,44.2471],[1.3654,44.2079],[1.3296,44.2154],[1.1317,44.3118],[1.0814,44.3733],[1.0576,44.5381],[1.0627,44.5898],[1.4394,45.0152],[1.4657,45.0178],[2.0324,44.9782],[2.0639,44.9792]]]}},{"type":"Feature","properties":{"code":"FR014","name":"Gironde"},"geometry":{"type":"Polygon","coordinates":[[[-0.7133,45.32],[-0.6886,45.3286],[-0.5799,45.3319],[-0.428,45.2773],[-0.4091,45.2474],[-0.403,45.2099],[-0.3888,45.1765],[-0.1999,45.1021],[-0.1715,45.0945],[-0.1417,45.0947],[0.0346,45.1122],[0.0561,45.0972],[0.0699,45.0755],[0.1874,44.8282],[0.2635,44.7637],[0.1999,44.748],[0.1261,44.7148],[0.1084,44.6938],[0.0016,44.5239],[-0.0138,44.4668],[-0.0149,44.3616],[-0.0555,44.263],[-0.0839,44.2427],[-0.1437,44.222],[-0.2687,44.197],[-0.3502,44.2047],[-0.3844,44.2192],[-0.6227,44.4345],[-0.645,44.4487],[-1.0982,44.5008],[-1.2453,44.4782],[-1.2378,44.5157],[-1.1865,44.6512],[-1.1902,44.6973],[-1.2232,44.8347],[-1.2216,44.8855],[-1.1565,45.4768],[-1.1402,45.5051],[-1.0885,45.5594],[-1.0606,45.5619],[-0.8204,45.3596],[-0.7984,45.335],[-0.7693,45.2894],[-0.7332,45.1786],[-0.6969,45.1028],[-0.6753,45.071],[-0.6561,45.0526],[-0.6304,45.0382],[-0.6357,45.0683],[-0.7133,45.32]]]}},{"type":"Feature","properties":{"code":"FR015","name":"Charente Maritime"},"geometry":{"type":"MultiPolygon","coordinates":[[[[-1.2038,45.8212],[-1.2293,45.8077],[-1.267,45.875],[-1.378,45.9468],[-1.3945,45.9825],[-1.4003,46.0206],[-1.361,46.0267],[-1.2981,45.9964],[-1.2441,45.9555],[-1.1972,45.8971],[-1.1914,45.8565],[-1.2038,45.8212]]],[[[-1.2722,46.1649],[-1.2884,46.1438],[-1.3228,46.1457],[-1.4527,46.1984],[-1.5237,46.2055],[-1.4815,46.2469],[-1.4209,46.2318],[-1.2992,46.1892],[-1.2722,46.1649]]],[[[-0.0028,45.2014],[-0.0285,45.1365],[-0.049,45.1048],[-0.1715,45.0945],[-0.238,45.1147],[-0.3888,45.1765],[-0.403,45.2099],[-0.4091,45.2474],[-0.428,45.2773],[-0.5799,45.3319],[-0.6886,45.3286],[-0.7133,45.32],[-0.741,45.3963],[-0.7708,45.4458],[-0.7904,45.4659],[-0.8468,45.5065],[-1.0297,45.6089],[-1.1457,45.6642],[-1.1543,45.7054],[-1.1344,46.2541],[-1.1303,46.2802],[-1.1148,46.306],[-0.7492,46.2952],[-0.1007,45.9601],[-0.4103,45.7739],[-0.4195,45.7337],[-0.397,45.6522],[-0.2858,45.3741],[-0.2619,45.3482],[-0.2069,45.3093],[-0.1196,45.2598],[-0.032,45.2235],[-0.0028,45.2014]]]]}},{"type":"Feature","properties":{"code":"FR016","name":"Charente"},"geometry":{"type":"Polygon","coordinates":[[[0.8166,46.1253],[0.6424,45.7335],[0.6384,45.6988],[0.6095,45.6807],[0.2556,45.2957],[0.2306,45.2772],[0.1424,45.2256],[0.0314,45.2118],[-0.0028,45.2014],[-0.032,45.2235],[-0.1196,45.2598],[-0.2069,45.3093],[-0.2619,45.3482],[-0.2858,45.3741],[-0.4111,45.6923],[-0.4195,45.7337],[-0.4103,45.7739],[-0.1007,45.9601],[0.2134,46.0889],[0.7746,46.1261],[0.8166,46.1253]]]}},{"type":"Feature","properties":{"code":"FR017","name":"Dordogne"},"geometry":{"type":"Polygon","coordinates":[[[1.2478,45.4583],[1.2646,45.4348],[1.4317,45.0532],[1.4394,45.0152],[1.0627,44.5898],[1.0422,44.6106],[0.9861,44.6386],[0.8278,44.6934],[0.6665,44.689],[0.457,44.6559],[0.4041,44.6543],[0.3709,44.6604],[0.3003,44.7385],[0.2635,44.7637],[0.1874,44.8282],[0.0844,45.0467],[0.0561,45.0972],[0.0346,45.1122],[-0.049,45.1048],[-0.0285,45.1365],[-0.0028,45.2014],[0.0314,45.2118],[0.1424,45.2256],[0.1799,45.2448],[0.2556,45.2957],[0.6095,45.6807],[0.6384,45.6988],[1.2478,45.4583]]]}},{"type":"Feature","properties":{"code":"FR018","name":"Corrèze"},"geometry":{"type":"Polygon","coordinates":[[[2.5146,45.4731],[2.4767,45.4433],[2.0639,44.9792],[2.0324,44.9782],[1.4657,45.0178],[1.4394,45.0152],[1.4317,45.0532],[1.2646,45.4348],[1.2478,45.4583],[1.2853,45.4665],[1.8815,45.692],[2.4668,45.7286],[2.4783,45.6977],[2.5041,45.5098],[2.5146,45.4731]]]}},{"type":"Feature","properties":{"code":"FR019","name":"Haute Vienne"},"geometry":{"type":"Polygon","coordinates":[[[1.4102,46.3527],[1.4426,46.2505],[1.4903,46.1424],[1.5674,45.9964],[1.5896,45.976],[1.7512,45.87],[1.872,45.7205],[1.8815,45.692],[1.2853,45.4665],[1.2478,45.4583],[0.6384,45.6988],[0.6424,45.7335],[0.8166,46.1253],[1.1818,46.3853],[1.2127,46.3848],[1.4102,46.3527]]]}},{"type":"Feature","properties":{"code":"FR020","name":"Hérault"},"geometry":{"type":"Polygon","coordinates":[[[4.0742,43.5563],[3.4194,43.2887],[3.237,43.2093],[3.2176,43.2358],[3.195,43.25],[2.8927,43.3495],[2.8613,43.3496],[2.8161,43.3117],[2.7746,43.2631],[2.7419,43.2629],[2.6277,43.2841],[2.5616,43.3303],[2.5564,43.388],[2.5623,43.4242],[2.5974,43.4437],[2.9011,43.6624],[2.9354,43.6928],[2.975,43.7091],[3.3535,43.9078],[3.3879,43.9089],[3.4857,43.8924],[3.5208,43.8955],[3.6196,43.9119],[3.6525,43.9236],[3.7073,43.9552],[3.7784,43.9647],[3.8034,43.9547],[4.1281,43.7441],[4.1515,43.7201],[4.1741,43.6868],[4.1874,43.6476],[4.1629,43.6084],[4.0742,43.5563]]]}},{"type":"Feature","properties":{"code":"FR021","name":"Aveyron"},"geometry":{"type":"Polygon","coordinates":[[[2.9647,44.6683],[3.0618,44.5754],[3.13,44.4517],[3.1223,44.3157],[3.1308,44.2565],[3.1986,44.1978],[3.3485,44.1681],[3.3579,44.1033],[3.3616,43.9764],[3.3535,43.9078],[2.975,43.7091],[2.9354,43.6928],[2.84,43.7491],[2.5286,43.9705],[2.4497,44.056],[2.323,44.1265],[2.1808,44.1783],[2.0755,44.1821],[1.9615,44.1692],[1.9152,44.1563],[1.9174,44.1953],[1.8881,44.3267],[1.907,44.3579],[2.1808,44.6119],[2.2287,44.6221],[2.4414,44.6406],[2.4808,44.6558],[2.5394,44.7181],[2.6073,44.8357],[2.6298,44.8629],[2.6728,44.8993],[2.7465,44.9289],[2.7738,44.9209],[2.8524,44.8668],[2.9647,44.6683]]]}},{"type":"Feature","properties":{"code":"FR022","name":"Gard"},"geometry":{"type":"Polygon","coordinates":[[[4.629,44.2819],[4.6474,44.2428],[4.7433,43.9604],[4.7469,43.9216],[4.2178,43.4724],[4.1885,43.4747],[4.1018,43.5404],[4.0742,43.5563],[4.1629,43.6084],[4.1874,43.6476],[4.1741,43.6868],[4.1515,43.7201],[4.1281,43.7441],[3.8034,43.9547],[3.7784,43.9647],[3.7073,43.9552],[3.6525,43.9236],[3.6196,43.9119],[3.5208,43.8955],[3.4857,43.8924],[3.3879,43.9089],[3.3535,43.9078],[3.3616,43.9764],[3.3579,44.1033],[3.3485,44.1681],[3.4268,44.136],[3.4625,44.1296],[3.5826,44.122],[3.8385,44.1383],[3.9036,44.1511],[3.928,44.1671],[3.9423,44.2029],[4.0017,44.4554],[4.0747,44.3812],[4.1357,44.3301],[4.2183,44.2836],[4.2562,44.2792],[4.2917,44.2948],[4.3361,44.3339],[4.3736,44.3421],[4.4086,44.3428],[4.495,44.3347],[4.629,44.2819]]]}},{"type":"Feature","properties":{"code":"FR023","name":"Lozère"},"geometry":{"type":"Polygon","coordinates":[[[3.843,44.7602],[3.8632,44.7297],[4.0017,44.4554],[3.9513,44.2358],[3.928,44.1671],[3.9036,44.1511],[3.8063,44.1355],[3.5826,44.122],[3.4625,44.1296],[3.4268,44.136],[3.3485,44.1681],[3.1986,44.1978],[3.1308,44.2565],[3.1223,44.3157],[3.13,44.4517],[3.0618,44.5754],[2.9852,44.645],[3.0063,44.6713],[3.3513,44.9497],[3.3849,44.9452],[3.843,44.7602]]]}},{"type":"Feature","properties":{"code":"FR024","name":"Cantal"},"geometry":{"type":"Polygon","coordinates":[[[3.0986,45.3456],[3.3412,44.9853],[3.3513,44.9497],[3.0063,44.6713],[2.9852,44.645],[2.9647,44.6683],[2.8524,44.8668],[2.7738,44.9209],[2.7465,44.9289],[2.6728,44.8993],[2.6298,44.8629],[2.6073,44.8357],[2.5394,44.7181],[2.4808,44.6558],[2.4414,44.6406],[2.2287,44.6221],[2.1808,44.6119],[2.1729,44.6517],[2.0689,44.9537],[2.0639,44.9792],[2.4767,45.4433],[2.5146,45.4731],[2.5543,45.4685],[3.0986,45.3456]]]}},{"type":"Feature","properties":{"code":"FR025","name":"Haute Loire"},"geometry":{"type":"Polygon","coordinates":[[[4.4738,45.2223],[4.4731,45.187],[4.409,45.097],[4.3186,44.9982],[4.1707,44.8845],[4.1325,44.8636],[3.9081,44.7663],[3.843,44.7602],[3.3849,44.9452],[3.3513,44.9497],[3.3412,44.9853],[3.0986,45.3456],[3.1314,45.3496],[3.9037,45.3589],[3.941,45.3465],[4.4454,45.2347],[4.4738,45.2223]]]}},{"type":"Feature","properties":{"code":"FR026","name":"Ardèche"},"geometry":{"type":"Polygon","coordinates":[[[4.8155,45.2945],[4.8113,45.2659],[4.8237,45.0905],[4.6487,44.317],[4.629,44.2819],[4.5251,44.3259],[4.495,44.3347],[4.4457,44.3405],[4.3736,44.3421],[4.3361,44.3339],[4.2917,44.2948],[4.2562,44.2792],[4.2183,44.2836],[4.1357,44.3301],[4.0747,44.3812],[4.0017,44.4554],[3.8632,44.7297],[3.843,44.7602],[3.9081,44.7663],[4.1325,44.8636],[4.1707,44.8845],[4.3186,44.9982],[4.4375,45.1324],[4.4731,45.187],[4.4738,45.2223],[4.4987,45.2415],[4.71,45.3444],[4.7483,45.3574],[4.8155,45.2945]]]}},{"type":"Feature","properties":{"code":"FR027","name":"Bouches du Rhône"},"geometry":{"type":"Polygon","coordinates":[[[5.749,43.7166],[5.6642,43.2113],[5.667,43.1817],[5.5857,43.1892],[5.4551,43.2107],[5.3476,43.2355],[4.8153,43.4248],[4.2431,43.4605],[4.2178,43.4724],[4.7469,43.9216],[4.7819,43.9149],[5.039,43.7941],[5.1784,43.7385],[5.4931,43.6676],[5.5543,43.6601],[5.6108,43.661],[5.7171,43.6946],[5.749,43.7166]]]}},{"type":"Feature","properties":{"code":"FR028","name":"Var"},"geometry":{"type":"Polygon","coordinates":[[[6.6439,43.7846],[6.9269,43.4852],[6.9076,43.4616],[6.6858,43.2856],[6.6157,43.1733],[6.5909,43.1632],[6.1787,43.1016],[5.9587,43.0804],[5.8296,43.0906],[5.7978,43.101],[5.667,43.1817],[5.6642,43.2113],[5.749,43.7166],[5.7867,43.726],[6.0075,43.7429],[6.6153,43.7871],[6.6439,43.7846]]]}},{"type":"Feature","properties":{"code":"FR029","name":"Alpes Maritimes"},"geometry":{"type":"Polygon","coordinates":[[[7.7048,44.1108],[7.5368,43.7974],[7.5104,43.7733],[6.9593,43.4946],[6.9269,43.4852],[6.6439,43.7846],[6.6548,43.8156],[6.6994,43.8867],[6.738,44.0281],[6.7397,44.0787],[6.7103,44.1346],[6.7017,44.1675],[6.7019,44.1978],[6.7312,44.256],[6.8182,44.3301],[6.8485,44.3475],[6.8906,44.3578],[6.9216,44.3377],[6.9996,44.2464],[7.0265,44.2286],[7.3497,44.1193],[7.3823,44.1154],[7.7048,44.1108]]]}},{"type":"Feature","properties":{"code":"FR030","name":"Vaucluse"},"geometry":{"type":"Polygon","coordinates":[[[5.5033,44.1116],[5.7403,43.7417],[5.749,43.7166],[5.7171,43.6946],[5.6108,43.661],[5.5543,43.6601],[5.4931,43.6676],[5.2049,43.7315],[5.039,43.7941],[4.7819,43.9149],[4.7469,43.9216],[4.7433,43.9604],[4.6474,44.2428],[4.629,44.2819],[4.6487,44.317],[4.6736,44.3281],[4.8749,44.3254],[5.1423,44.2832],[5.5033,44.1116]]]}},{"type":"Feature","properties":{"code":"FR031","name":"Drôme"},"geometry":{"type":"Polygon","coordinates":[[[5.7661,44.6918],[5.6914,44.6534],[5.6258,44.611],[5.4672,44.4872],[5.4508,44.4561],[5.4364,44.4206],[5.436,44.3793],[5.4596,44.352],[5.6723,44.1943],[5.5472,44.137],[5.5033,44.1116],[5.1423,44.2832],[4.8749,44.3254],[4.6736,44.3281],[4.6487,44.317],[4.8237,45.0905],[4.8113,45.2659],[4.8155,45.2945],[4.9686,45.3353],[5.1016,45.3052],[5.1384,45.2919],[5.46,45.0493],[5.4855,44.9966],[5.4833,44.9247],[5.464,44.8277],[5.4772,44.7964],[5.5016,44.7793],[5.7661,44.6918]]]}},{"type":"Feature","properties":{"code":"FR032","name":"Alpes de Haute Provence"},"geometry":{"type":"Polygon","coordinates":[[[6.8906,44.3578],[6.8485,44.3475],[6.7899,44.3079],[6.7312,44.256],[6.7019,44.1978],[6.7017,44.1675],[6.7103,44.1346],[6.7397,44.0787],[6.738,44.0281],[6.6994,43.8867],[6.6548,43.8156],[6.6439,43.7846],[6.6153,43.7871],[6.0075,43.7429],[5.7867,43.726],[5.749,43.7166],[5.7403,43.7417],[5.5033,44.1116],[5.5472,44.137],[5.6368,44.1749],[5.708,44.2146],[5.9604,44.3961],[6.0839,44.4722],[6.1203,44.4799],[6.7123,44.543],[6.9462,44.6486],[6.9064,44.3879],[6.8906,44.3578]]]}},{"type":"Feature","properties":{"code":"FR033","name":"Hautes Alpes"},"geometry":{"type":"Polygon","coordinates":[[[6.6194,45.1141],[6.7485,44.9114],[6.8274,44.8678],[6.8864,44.849],[6.9616,44.8534],[7.0063,44.8355],[7.0223,44.7886],[7.0262,44.7417],[7.0121,44.7149],[6.9462,44.6486],[6.7123,44.543],[6.1203,44.4799],[6.0839,44.4722],[5.9604,44.3961],[5.708,44.2146],[5.6723,44.1943],[5.4596,44.352],[5.436,44.3793],[5.4364,44.4206],[5.4672,44.4872],[5.6581,44.6339],[5.7661,44.6918],[5.8023,44.7028],[5.8317,44.7251],[6.2315,45.0994],[6.2516,45.1232],[6.6194,45.1141]]]}},{"type":"Feature","properties":{"code":"FR034","name":"Isère"},"geometry":{"type":"Polygon","coordinates":[[[5.6409,45.6269],[5.6507,45.5999],[5.7284,45.4595],[5.7517,45.4392],[6.1399,45.1685],[6.2243,45.1376],[6.2516,45.1232],[6.2315,45.0994],[5.8317,44.7251],[5.8023,44.7028],[5.7661,44.6918],[5.5016,44.7793],[5.4772,44.7964],[5.464,44.8277],[5.4833,44.9247],[5.4855,44.9966],[5.46,45.0493],[5.1384,45.2919],[5.1016,45.3052],[4.9686,45.3353],[4.8155,45.2945],[4.7483,45.3574],[4.778,45.4649],[5.0805,45.8059],[5.1072,45.806],[5.6128,45.6319],[5.6409,45.6269]]]}},{"type":"Feature","properties":{"code":"FR035","name":"Haute Savoie"},"geometry":{"type":"Polygon","coordinates":[[[6.7938,46.3754],[6.791,46.3411],[6.798,46.2898],[6.8139,46.2629],[6.805,46.2372],[6.815,46.1998],[6.8495,46.1424],[7.0405,45.9273],[7.0214,45.9095],[6.8402,45.7987],[6.8122,45.7709],[6.7793,45.7646],[6.696,45.7305],[6.2512,45.6862],[6.1826,45.6973],[5.999,45.7556],[5.9012,45.8158],[5.8817,45.833],[5.8412,45.9272],[5.8583,45.9642],[5.9598,46.1374],[5.9901,46.1326],[6.1237,46.1412],[6.1844,46.1638],[6.274,46.2136],[6.3026,46.2371],[6.2442,46.2686],[6.2256,46.2903],[6.2534,46.3208],[6.2797,46.3389],[6.6763,46.4052],[6.7091,46.407],[6.7727,46.394],[6.7938,46.3754]]]}},{"type":"Feature","properties":{"code":"FR036","name":"Savoie"},"geometry":{"type":"Polygon","coordinates":[[[6.8122,45.7709],[6.8354,45.7404],[7.0779,45.4783],[7.1088,45.4524],[7.17,45.4147],[7.1767,45.3824],[7.14,45.2886],[7.0802,45.2234],[7.0452,45.2022],[6.8462,45.1352],[6.6194,45.1141],[6.2516,45.1232],[6.2243,45.1376],[6.1676,45.1568],[6.1399,45.1685],[5.7517,45.4392],[5.7284,45.4595],[5.6507,45.5999],[5.6409,45.6269],[5.8116,45.8898],[5.8412,45.9272],[5.8817,45.833],[5.9012,45.8158],[5.968,45.7738],[5.999,45.7556],[6.0426,45.74],[6.1826,45.6973],[6.2512,45.6862],[6.696,45.7305],[6.7793,45.7646],[6.8122,45.7709]]]}},{"type":"Feature","properties":{"code":"FR037","name":"Loire"},"geometry":{"type":"Polygon","coordinates":[[[4.3989,46.2167],[4.3274,46.1356],[4.31,46.1077],[4.2846,46.0489],[4.2743,46.0039],[4.2808,45.965],[4.3626,45.7077],[4.4047,45.6404],[4.434,45.6185],[4.6469,45.5013],[4.6939,45.4806],[4.7462,45.4671],[4.778,45.4649],[4.7483,45.3574],[4.71,45.3444],[4.4987,45.2415],[4.4738,45.2223],[4.4454,45.2347],[3.941,45.3465],[3.9037,45.3589],[3.9198,45.3886],[3.9583,45.4401],[3.9695,45.4699],[3.9563,45.5119],[3.9418,45.5499],[3.9231,45.5761],[3.9,45.5996],[3.8305,45.6331],[3.7844,45.6874],[3.7335,45.7637],[3.7168,45.7938],[3.6988,45.9114],[3.6876,45.9562],[3.7157,45.9826],[3.8856,46.2597],[3.916,46.2608],[4.1092,46.2449],[4.3665,46.2231],[4.3989,46.2167]]]}},{"type":"Feature","properties":{"code":"FR038","name":"Rhône"},"geometry":{"type":"Polygon","coordinates":[[[4.7646,46.1812],[4.7769,46.1577],[5.0645,45.8402],[5.0805,45.8059],[4.778,45.4649],[4.7462,45.4671],[4.6939,45.4806],[4.6469,45.5013],[4.434,45.6185],[4.4047,45.6404],[4.3626,45.7077],[4.2808,45.965],[4.2743,46.0039],[4.2846,46.0489],[4.31,46.1077],[4.3274,46.1356],[4.3989,46.2167],[4.44,46.2155],[4.7392,46.1775],[4.7646,46.1812]]]}},{"type":"Feature","properties":{"code":"FR039","name":"Ain"},"geometry":{"type":"Polygon","coordinates":[[[5.3146,46.4575],[5.3125,46.4215],[5.327,46.3929],[5.3983,46.3232],[5.451,46.2819],[5.5291,46.2699],[5.8073,46.2634],[5.8752,46.2713],[6.0374,46.3836],[6.0684,46.3903],[6.0557,46.352],[5.9458,46.112],[5.8583,45.9642],[5.8412,45.9272],[5.8116,45.8898],[5.6409,45.6269],[5.6128,45.6319],[5.1072,45.806],[5.0805,45.8059],[5.0645,45.8402],[4.7769,46.1577],[4.7646,46.1812],[4.8963,46.4461],[4.9142,46.4764],[4.9383,46.5029],[4.97,46.5141],[5.1521,46.5052],[5.3146,46.4575]]]}},{"type":"Feature","properties":{"code":"FR040","name":"Puy de Dôme"},"geometry":{"type":"Polygon","coordinates":[[[3.6876,45.9562],[3.6988,45.9114],[3.7168,45.7938],[3.7335,45.7637],[3.7844,45.6874],[3.8305,45.6331],[3.9,45.5996],[3.9231,45.5761],[3.9418,45.5499],[3.9563,45.5119],[3.9695,45.4699],[3.9583,45.4401],[3.9198,45.3886],[3.9037,45.3589],[3.1314,45.3496],[3.0986,45.3456],[2.5543,45.4685],[2.5146,45.4731],[2.5041,45.5098],[2.4783,45.6977],[2.4668,45.7286],[2.4793,45.7546],[2.5538,46.1131],[2.5683,46.1423],[2.9123,46.1885],[2.9412,46.1842],[3.5668,46.0259],[3.6044,46.0134],[3.6876,45.9562]]]}},{"type":"Feature","properties":{"code":"FR041","name":"Creuse"},"geometry":{"type":"Polygon","coordinates":[[[2.283,46.4076],[2.5288,46.1689],[2.5683,46.1423],[2.5538,46.1131],[2.4793,45.7546],[2.4668,45.7286],[1.8815,45.692],[1.872,45.7205],[1.7512,45.87],[1.5896,45.976],[1.5674,45.9964],[1.4903,46.1424],[1.4426,46.2505],[1.4102,46.3527],[2.1335,46.4201],[2.2411,46.4165],[2.283,46.4076]]]}},{"type":"Feature","properties":{"code":"FR042","name":"Indre"},"geometry":{"type":"Polygon","coordinates":[[[1.8438,47.2125],[2.0499,47.084],[2.0968,47.0152],[2.1134,46.9651],[2.1789,46.6375],[2.1598,46.4477],[2.1682,46.4215],[1.4102,46.3527],[1.2127,46.3848],[1.1818,46.3853],[1.1675,46.4157],[0.8755,46.7437],[0.9004,46.7601],[1.3169,47.1865],[1.3471,47.1937],[1.7986,47.214],[1.8438,47.2125]]]}},{"type":"Feature","properties":{"code":"FR043","name":"Allier"},"geometry":{"type":"Polygon","coordinates":[[[3.0526,46.7687],[3.0921,46.7583],[3.5689,46.7637],[3.6112,46.7496],[3.6273,46.7092],[3.8688,46.302],[3.8856,46.2597],[3.7157,45.9826],[3.6876,45.9562],[3.6044,46.0134],[3.5668,46.0259],[2.9412,46.1842],[2.9123,46.1885],[2.5683,46.1423],[2.5288,46.1689],[2.283,46.4076],[2.2921,46.4352],[2.3089,46.4637],[2.3626,46.5142],[2.5609,46.6526],[2.603,46.6727],[2.7542,46.7338],[2.9208,46.7847],[2.9966,46.797],[3.0232,46.7964],[3.0526,46.7687]]]}},{"type":"Feature","properties":{"code":"FR044","name":"Vendée"},"geometry":{"type":"MultiPolygon","coordinates":[[[[-2.3045,46.7026],[-2.3388,46.6887],[-2.3712,46.6996],[-2.3963,46.7199],[-2.3708,46.7321],[-2.3288,46.7228],[-2.3045,46.7026]]],[[[-2.1412,46.9055],[-2.0459,46.9914],[-2.0203,47.0119],[-1.9892,47.0285],[-1.9595,47.0142],[-1.8785,46.9578],[-1.7446,46.8975],[-1.7048,46.8832],[-1.5798,46.8647],[-1.5422,46.8627],[-1.1656,47.0222],[-1.1406,47.0286],[-0.8886,46.9657],[-0.7436,46.8335],[-0.7235,46.8064],[-0.6187,46.6247],[-0.5749,46.4227],[-0.5714,46.3849],[-0.5874,46.3524],[-0.6682,46.3196],[-0.7492,46.2952],[-1.1148,46.306],[-1.2213,46.2809],[-1.4916,46.3725],[-1.6684,46.4379],[-1.8001,46.4955],[-2.1271,46.8063],[-2.1436,46.8298],[-2.1486,46.866],[-2.1412,46.9055]]],[[[-2.1412,46.9055],[-2.1696,46.9181],[-2.1925,46.9473],[-2.228,46.9662],[-2.2884,46.9849],[-2.2966,47.027],[-2.2655,47.0292],[-2.2316,47.0193],[-2.211,47.0036],[-2.1553,46.9442],[-2.1412,46.9055]]]]}},{"type":"Feature","properties":{"code":"FR045","name":"Vienne"},"geometry":{"type":"Polygon","coordinates":[[[0.7005,46.9415],[1.1675,46.4157],[1.1818,46.3853],[0.8166,46.1253],[0.7746,46.1261],[0.2134,46.0889],[0.1943,46.1208],[0.1496,46.1655],[0.04,46.3179],[-0.0042,46.382],[-0.0226,46.4168],[-0.0356,46.5009],[0.0243,46.6155],[-0.0278,46.96],[-0.0379,46.987],[-0.096,47.0588],[-0.0696,47.0866],[0.0484,47.1649],[0.077,47.1525],[0.2929,47.0256],[0.3186,47.0202],[0.5969,47.005],[0.6322,46.9954],[0.6557,46.9817],[0.7005,46.9415]]]}},{"type":"Feature","properties":{"code":"FR046","name":"Finistère"},"geometry":{"type":"MultiPolygon","coordinates":[[[[-5.1038,48.4325],[-5.1435,48.4193],[-5.1757,48.4292],[-5.1499,48.4473],[-5.1173,48.4587],[-5.0831,48.4499],[-5.1038,48.4325]]],[[[-3.5629,47.7746],[-3.5928,47.771],[-3.8037,47.7912],[-4.3597,47.8691],[-4.7239,48.0325],[-4.7365,48.0602],[-4.7867,48.381],[-4.7904,48.4275],[-4.7825,48.471],[-4.7669,48.5185],[-4.7446,48.5468],[-4.7156,48.5613],[-4.3497,48.6727],[-3.808,48.7121],[-3.7296,48.7061],[-3.6513,48.6807],[-3.6383,48.6446],[-3.5716,48.2162],[-3.5551,48.1841],[-3.6425,48.1599],[-3.715,48.1283],[-3.7231,48.0922],[-3.6653,48.0224],[-3.619,47.9891],[-3.5087,47.9662],[-3.471,47.9496],[-3.4843,47.9163],[-3.5629,47.7746]]]]}},{"type":"Feature","properties":{"code":"FR047","name":"Côtes d'Armor"},"geometry":{"type":"Polygon","coordinates":[[[-2.1156,48.606],[-1.9546,48.5428],[-1.9402,48.5157],[-1.9294,48.4829],[-1.9317,48.4478],[-1.9489,48.3554],[-1.9651,48.313],[-1.9983,48.286],[-2.0317,48.2671],[-2.3055,48.1256],[-2.6121,48.0474],[-2.6552,48.0405],[-3.3233,48.1561],[-3.5551,48.1841],[-3.5716,48.2162],[-3.6383,48.6446],[-3.6513,48.6807],[-3.6217,48.7016],[-3.5683,48.7644],[-3.4684,48.8348],[-3.2423,48.866],[-3.2054,48.866],[-3.1022,48.86],[-3.0663,48.8475],[-2.5223,48.6062],[-2.4793,48.6037],[-2.1617,48.6171],[-2.1156,48.606]]]}},{"type":"Feature","properties":{"code":"FR048","name":"Morbihan"},"geometry":{"type":"MultiPolygon","coordinates":[[[[-3.0892,47.2826],[-3.1301,47.2823],[-3.2048,47.291],[-3.2426,47.3077],[-3.258,47.3449],[-3.2551,47.3793],[-3.2263,47.381],[-3.1767,47.3632],[-3.1508,47.3434],[-3.075,47.3092],[-3.0892,47.2826]]],[[[-2.3055,48.1256],[-2.2794,48.092],[-2.0963,47.6475],[-2.0791,47.6245],[-2.4541,47.4552],[-2.4886,47.483],[-2.5141,47.5167],[-2.5569,47.5339],[-3.2902,47.6861],[-3.5394,47.7607],[-3.5629,47.7746],[-3.4843,47.9163],[-3.471,47.9496],[-3.5087,47.9662],[-3.619,47.9891],[-3.6653,48.0224],[-3.7231,48.0922],[-3.715,48.1283],[-3.6425,48.1599],[-3.5551,48.1841],[-3.3233,48.1561],[-2.6552,48.0405],[-2.6121,48.0474],[-2.3055,48.1256]]]]}},{"type":"Feature","properties":{"code":"FR049","name":"Loire Atlantique"},"geometry":{"type":"Polygon","coordinates":[[[-1.1406,47.0286],[-1.1656,47.0222],[-1.5422,46.8627],[-1.7048,46.8832],[-1.8785,46.9578],[-1.9595,47.0142],[-1.9892,47.0285],[-2.0098,47.0653],[-2.154,47.2426],[-2.1797,47.2662],[-2.2117,47.2708],[-2.3259,47.2715],[-2.4088,47.2617],[-2.4494,47.2619],[-2.5185,47.2834],[-2.5425,47.301],[-2.5219,47.3679],[-2.4541,47.4552],[-2.0791,47.6245],[-1.2514,47.7831],[-1.2346,47.764],[-1.1273,47.5762],[-1.1291,47.5388],[-1.1812,47.2519],[-1.1513,47.0565],[-1.1406,47.0286]]]}},{"type":"Feature","properties":{"code":"FR050","name":"Ille et Vilaine"},"geometry":{"type":"Polygon","coordinates":[[[-1.0684,48.5158],[-1.0967,48.2942],[-1.0973,48.2572],[-1.0804,48.1903],[-1.0761,48.1535],[-1.1536,47.9629],[-1.2203,47.8438],[-1.2253,47.8106],[-1.2514,47.7831],[-2.0791,47.6245],[-2.0963,47.6475],[-2.2794,48.092],[-2.3055,48.1256],[-2.0317,48.2671],[-1.9983,48.286],[-1.9651,48.313],[-1.9489,48.3554],[-1.9317,48.4478],[-1.9294,48.4829],[-1.9402,48.5157],[-1.9546,48.5428],[-2.1156,48.606],[-2.0887,48.6198],[-1.5923,48.6363],[-1.0684,48.5158]]]}},{"type":"Feature","properties":{"code":"FR051","name":"Manche"},"geometry":{"type":"Polygon","coordinates":[[[-1.1196,49.3639],[-1.0516,49.2305],[-1.046,49.0916],[-1.0594,48.9439],[-1.1375,48.8474],[-1.1264,48.8206],[-1.0988,48.8006],[-1.0724,48.7908],[-0.871,48.7582],[-0.8421,48.7577],[-0.8489,48.7229],[-0.8602,48.5325],[-0.853,48.4924],[-0.887,48.5025],[-1.0684,48.5158],[-1.5923,48.6363],[-1.5828,48.6662],[-1.5719,48.7555],[-1.5748,49.0088],[-1.6195,49.1835],[-1.6311,49.2155],[-1.6934,49.2994],[-1.7161,49.3257],[-1.7877,49.3788],[-1.8253,49.426],[-1.8711,49.6366],[-1.8695,49.6631],[-1.8335,49.6845],[-1.7953,49.6915],[-1.3706,49.707],[-1.2975,49.6953],[-1.2623,49.6788],[-1.2395,49.6473],[-1.2365,49.6125],[-1.2917,49.5859],[-1.3078,49.5561],[-1.2934,49.5209],[-1.1757,49.3633],[-1.1463,49.3579],[-1.1196,49.3639]]]}},{"type":"Feature","properties":{"code":"FR052","name":"Calvados"},"geometry":{"type":"Polygon","coordinates":[[[0.2527,49.4177],[0.3921,48.9991],[0.4098,48.9611],[-0.2999,48.8588],[-0.4249,48.8717],[-0.6956,48.8367],[-0.8421,48.7577],[-0.871,48.7582],[-1.0463,48.7844],[-1.0988,48.8006],[-1.1264,48.8206],[-1.1375,48.8474],[-1.0594,48.9439],[-1.046,49.0916],[-1.0516,49.2305],[-1.1196,49.3639],[-0.8328,49.3575],[-0.2314,49.2833],[-0.1958,49.2843],[-0.0867,49.3016],[0.0012,49.3263],[0.1911,49.4048],[0.2234,49.4294],[0.2527,49.4177]]]}},{"type":"Feature","properties":{"code":"FR053","name":"Mayenne"},"geometry":{"type":"Polygon","coordinates":[[[-0.853,48.4924],[-0.82,48.4618],[-0.7945,48.4502],[-0.7675,48.445],[-0.6446,48.457],[-0.382,48.4927],[-0.3443,48.4928],[-0.1177,48.404],[-0.0811,48.3823],[-0.1176,48.3565],[-0.146,48.3255],[-0.4123,47.91],[-0.4309,47.8675],[-0.4392,47.8276],[-0.3971,47.7741],[-0.4374,47.77],[-1.2253,47.8106],[-1.2203,47.8438],[-1.1536,47.9629],[-1.0761,48.1535],[-1.0804,48.1903],[-1.0973,48.2572],[-1.0967,48.2942],[-1.0684,48.5158],[-0.887,48.5025],[-0.853,48.4924]]]}},{"type":"Feature","properties":{"code":"FR054","name":"Orne"},"geometry":{"type":"Polygon","coordinates":[[[0.8177,48.6717],[0.8114,48.6094],[0.7995,48.2483],[0.8026,48.1779],[0.7743,48.186],[0.7402,48.1877],[0.6095,48.2333],[0.4246,48.3137],[0.3845,48.3592],[0.359,48.4445],[0.2979,48.4798],[0.2328,48.4738],[0.1977,48.4641],[-0.0449,48.3804],[-0.0811,48.3823],[-0.1177,48.404],[-0.3443,48.4928],[-0.382,48.4927],[-0.6446,48.457],[-0.7675,48.445],[-0.7945,48.4502],[-0.82,48.4618],[-0.853,48.4924],[-0.8602,48.5325],[-0.8489,48.7229],[-0.8421,48.7577],[-0.6956,48.8367],[-0.4249,48.8717],[-0.2999,48.8588],[0.3832,48.9597],[0.4098,48.9611],[0.7943,48.6833],[0.8177,48.6717]]]}},{"type":"Feature","properties":{"code":"FR055","name":"Seine Maritime"},"geometry":{"type":"Polygon","coordinates":[[[1.7545,49.7489],[1.6967,49.4507],[1.6846,49.42],[1.4913,49.4475],[0.9716,49.4504],[0.5593,49.4493],[0.3665,49.441],[0.2809,49.4322],[0.2527,49.4177],[0.1962,49.4465],[0.1079,49.4729],[0.0843,49.4897],[0.0669,49.5183],[0.1595,49.6784],[0.1826,49.6987],[0.2177,49.7165],[0.5669,49.8501],[0.965,49.9205],[1.0104,49.9166],[1.0799,49.9269],[1.2047,49.9738],[1.3837,50.0696],[1.4093,50.058],[1.7304,49.7822],[1.7545,49.7489]]]}},{"type":"Feature","properties":{"code":"FR056","name":"Eure"},"geometry":{"type":"Polygon","coordinates":[[[1.6846,49.42],[1.6918,49.3742],[1.6958,49.2344],[1.5962,49.0842],[1.506,48.9741],[1.4669,48.9143],[1.4497,48.8771],[1.3596,48.7839],[1.3041,48.7695],[1.2283,48.761],[1.1123,48.7665],[0.8955,48.7088],[0.8177,48.6717],[0.7943,48.6833],[0.4098,48.9611],[0.3921,48.9991],[0.2527,49.4177],[0.2809,49.4322],[0.3665,49.441],[0.5593,49.4493],[0.9716,49.4504],[1.4913,49.4475],[1.6846,49.42]]]}},{"type":"Feature","properties":{"code":"FR057","name":"Sarthe"},"geometry":{"type":"Polygon","coordinates":[[[0.8026,48.1779],[0.8302,48.1226],[0.8384,48.0857],[0.6239,47.693],[0.5817,47.681],[0.2685,47.6132],[0.2243,47.5973],[0.1844,47.6181],[-0.355,47.7596],[-0.3971,47.7741],[-0.4392,47.8276],[-0.4309,47.8675],[-0.3896,47.9482],[-0.146,48.3255],[-0.1176,48.3565],[-0.0811,48.3823],[-0.0449,48.3804],[0.1977,48.4641],[0.2328,48.4738],[0.2979,48.4798],[0.359,48.4445],[0.3845,48.3592],[0.4246,48.3137],[0.6095,48.2333],[0.7402,48.1877],[0.7743,48.186],[0.8026,48.1779]]]}},{"type":"Feature","properties":{"code":"FR058","name":"Loir et Cher"},"geometry":{"type":"Polygon","coordinates":[[[1.5009,47.9854],[1.521,47.964],[1.5787,47.8774],[1.8356,47.6891],[1.8714,47.6822],[2.1386,47.6713],[2.1995,47.6639],[2.2273,47.6429],[2.2107,47.6],[2.2161,47.5606],[2.2425,47.469],[2.242,47.4139],[2.1607,47.3062],[2.1368,47.2853],[2.1096,47.275],[1.9141,47.2213],[1.8438,47.2125],[1.7986,47.214],[1.3471,47.1937],[1.3169,47.1865],[1.3039,47.2115],[1.2114,47.3066],[1.1214,47.4208],[1.0668,47.5581],[1.0521,47.5797],[0.9257,47.6319],[0.7801,47.6819],[0.695,47.6943],[0.6239,47.693],[0.8384,48.0857],[0.8696,48.0898],[1.0987,48.062],[1.1244,48.045],[1.1942,47.981],[1.2968,47.957],[1.3622,47.9539],[1.5009,47.9854]]]}},{"type":"Feature","properties":{"code":"FR059","name":"Cher"},"geometry":{"type":"Polygon","coordinates":[[[2.8781,47.5217],[2.9268,47.4396],[3.0713,47.0383],[3.0669,46.8404],[3.0526,46.7687],[3.0232,46.7964],[2.9966,46.797],[2.9208,46.7847],[2.7221,46.7217],[2.5609,46.6526],[2.3979,46.54],[2.3626,46.5142],[2.3089,46.4637],[2.2921,46.4352],[2.283,46.4076],[2.2411,46.4165],[2.1682,46.4215],[2.1598,46.4477],[2.1789,46.6375],[2.1134,46.9651],[2.0968,47.0152],[2.0499,47.084],[1.8438,47.2125],[1.9141,47.2213],[2.1096,47.275],[2.1368,47.2853],[2.1607,47.3062],[2.242,47.4139],[2.2425,47.469],[2.2161,47.5606],[2.2107,47.6],[2.2539,47.6037],[2.8781,47.5217]]]}},{"type":"Feature","properties":{"code":"FR060","name":"Nièvre"},"geometry":{"type":"Polygon","coordinates":[[[4.1126,47.3455],[4.107,47.1863],[4.0989,47.1274],[4.0163,46.9858],[4.0193,46.9525],[4.0421,46.918],[4.076,46.8887],[4.0946,46.8552],[4.0646,46.7946],[4.0345,46.7723],[3.8316,46.7068],[3.6815,46.7336],[3.5689,46.7637],[3.0921,46.7583],[3.0526,46.7687],[3.0669,46.8404],[3.0713,47.0383],[2.9268,47.4396],[2.8781,47.5217],[2.9844,47.5634],[4.0842,47.3448],[4.1126,47.3455]]]}},{"type":"Feature","properties":{"code":"FR061","name":"Loiret"},"geometry":{"type":"Polygon","coordinates":[[[2.958,48.1647],[3.0172,48.1277],[3.1156,48.0157],[3.1245,47.9909],[3.1214,47.9625],[3.031,47.8274],[3.0166,47.7889],[2.9821,47.6011],[2.9844,47.5634],[2.8781,47.5217],[2.2539,47.6037],[2.2107,47.6],[2.2273,47.6429],[2.1995,47.6639],[2.1386,47.6713],[1.8714,47.6822],[1.8356,47.6891],[1.5787,47.8774],[1.521,47.964],[1.5009,47.9854],[1.9641,48.2543],[1.985,48.2724],[2.0123,48.2712],[2.3698,48.3222],[2.4052,48.3246],[2.958,48.1647]]]}},{"type":"Feature","properties":{"code":"FR062","name":"Yonne"},"geometry":{"type":"Polygon","coordinates":[[[4.2998,47.9259],[4.3061,47.8921],[4.3214,47.8486],[4.3206,47.7761],[4.1905,47.5877],[4.1126,47.3455],[4.0842,47.3448],[2.9844,47.5634],[2.9821,47.6011],[3.0166,47.7889],[3.031,47.8274],[3.1214,47.9625],[3.1245,47.9909],[3.1156,48.0157],[3.0172,48.1277],[2.958,48.1647],[3.379,48.3803],[3.4136,48.3911],[3.5038,48.3622],[3.6427,48.237],[3.7346,48.144],[3.8699,47.9933],[3.922,47.949],[3.9558,47.9333],[4.0309,47.9286],[4.2998,47.9259]]]}},{"type":"Feature","properties":{"code":"FR063","name":"Eure et Loir"},"geometry":{"type":"Polygon","coordinates":[[[1.9105,48.4582],[1.932,48.4205],[1.985,48.2724],[1.9641,48.2543],[1.5438,48.0077],[1.5009,47.9854],[1.4638,47.9757],[1.3622,47.9539],[1.2968,47.957],[1.1942,47.981],[1.1244,48.045],[1.0987,48.062],[0.8696,48.0898],[0.8384,48.0857],[0.8302,48.1226],[0.8026,48.1779],[0.7995,48.2483],[0.8114,48.6094],[0.8177,48.6717],[0.8955,48.7088],[1.1123,48.7665],[1.2283,48.761],[1.3041,48.7695],[1.3596,48.7839],[1.4497,48.8771],[1.4861,48.9433],[1.52,48.9281],[1.555,48.8976],[1.5773,48.8655],[1.5904,48.8354],[1.6202,48.7475],[1.5896,48.6951],[1.6044,48.6647],[1.7994,48.4722],[1.8317,48.454],[1.8733,48.4529],[1.9105,48.4582]]]}},{"type":"Feature","properties":{"code":"FR064","name":"Yvelines"},"geometry":{"type":"Polygon","coordinates":[[[2.2006,48.9087],[2.1594,48.841],[2.2266,48.7761],[2.0451,48.6709],[1.9222,48.4576],[1.822,48.4737],[1.617,48.6676],[1.5015,48.941],[1.4888,49.0399],[1.6088,49.0779],[2.0761,49.0116],[2.2006,48.9087]]]}},{"type":"Feature","properties":{"code":"FR065","name":"Val-d’Oise"},"geometry":{"type":"Polygon","coordinates":[[[2.5905,49.0797],[2.5531,49.0098],[2.291,48.951],[2.2006,48.9087],[2.0761,49.0116],[1.6088,49.0779],[1.7044,49.2322],[1.7884,49.178],[2.1164,49.1988],[2.5905,49.0797]]]}},{"type":"Feature","properties":{"code":"FR066","name":"Essonne"},"geometry":{"type":"Polygon","coordinates":[[[1.9222,48.4576],[2.0451,48.6709],[2.2266,48.7761],[2.3207,48.7488],[2.5716,48.692],[2.4979,48.4087],[2.4027,48.3207],[1.9941,48.2866],[1.9222,48.4576]]]}},{"type":"Feature","properties":{"code":"FR067","name":"Paris et Petite Ceinture"},"geometry":{"type":"Polygon","coordinates":[[[2.5777,48.6982],[2.5471,48.6983],[2.2473,48.7772],[2.2168,48.7744],[2.2235,48.8171],[2.2201,48.8852],[2.2108,48.9214],[2.2481,48.9285],[2.5374,49.0204],[2.5777,48.6982]]]}},{"type":"Feature","properties":{"code":"FR068","name":"Seine-et-Marne"},"geometry":{"type":"Polygon","coordinates":[[[3.4852,48.8519],[3.4313,48.7393],[3.5556,48.6203],[3.4278,48.4971],[3.4148,48.3903],[3.0847,48.3514],[2.9363,48.1634],[2.643,48.1262],[2.5142,48.1751],[2.4027,48.3207],[2.4979,48.4087],[2.5716,48.692],[2.5923,48.8074],[2.5531,49.0098],[2.5905,49.0797],[3.0719,49.1176],[3.4852,48.8519]]]}},{"type":"Feature","properties":{"code":"FR069","name":"Pas de Calais"},"geometry":{"type":"Polygon","coordinates":[[[2.1148,50.996],[2.1953,50.8568],[2.2468,50.7954],[2.4423,50.6585],[2.4729,50.6503],[2.6536,50.6234],[2.7185,50.6293],[2.957,50.5164],[3.0678,50.4431],[3.0772,50.3991],[3.0947,50.1231],[3.0903,50.0936],[3.0951,50.0585],[3.0621,50.0617],[2.8681,50.0445],[2.7362,50.0518],[2.5148,50.1294],[2.4877,50.1472],[2.4744,50.1855],[2.4569,50.2175],[2.4267,50.2291],[1.9316,50.3329],[1.5937,50.3844],[1.5535,50.3825],[1.5714,50.462],[1.575,50.5046],[1.5864,50.731],[1.5793,50.863],[1.6081,50.8829],[1.7335,50.9397],[1.7693,50.9514],[1.9523,50.9891],[2.0766,51.0013],[2.1148,50.996]]]}},{"type":"Feature","properties":{"code":"FR070","name":"Nord"},"geometry":{"type":"Polygon","coordinates":[[[3.2082,50.7415],[3.2145,50.7122],[3.2747,50.5567],[3.2933,50.5264],[3.3267,50.5103],[3.722,50.3541],[3.76,50.3449],[3.9149,50.3304],[4.0237,50.3499],[4.2028,50.2746],[4.2185,50.2466],[4.1999,50.1427],[4.1611,50.0127],[4.1463,49.9847],[3.1678,50.0138],[3.0951,50.0585],[3.0903,50.0936],[3.0947,50.1231],[3.0772,50.3991],[3.0678,50.4431],[2.957,50.5164],[2.7185,50.6293],[2.6536,50.6234],[2.4729,50.6503],[2.4423,50.6585],[2.2468,50.7954],[2.1953,50.8568],[2.1148,50.996],[2.1419,51.0109],[2.4985,51.0795],[2.5356,51.0911],[2.5521,51.0686],[2.6038,50.8813],[2.6251,50.8306],[2.6437,50.8075],[2.7755,50.7351],[2.8224,50.7146],[2.9134,50.6936],[3.1739,50.7397],[3.2082,50.7415]]]}},{"type":"Feature","properties":{"code":"FR071","name":"Somme"},"geometry":{"type":"Polygon","coordinates":[[[3.0951,50.0585],[3.1678,50.0138],[3.1673,49.9826],[3.1187,49.7147],[3.0801,49.6982],[2.5987,49.6091],[1.7836,49.7532],[1.7545,49.7489],[1.7304,49.7822],[1.4093,50.058],[1.3837,50.0696],[1.41,50.1074],[1.5535,50.3825],[1.5937,50.3844],[1.9316,50.3329],[2.4267,50.2291],[2.4569,50.2175],[2.4744,50.1855],[2.4877,50.1472],[2.5148,50.1294],[2.7362,50.0518],[2.8681,50.0445],[3.0621,50.0617],[3.0951,50.0585]]]}},{"type":"Feature","properties":{"code":"FR072","name":"Oise"},"geometry":{"type":"Polygon","coordinates":[[[3.1187,49.7147],[3.0823,49.15],[3.0849,49.1096],[3.0568,49.1114],[2.6276,49.0822],[2.5881,49.0746],[2.5712,49.0949],[2.5435,49.1165],[2.3302,49.1818],[2.0946,49.1914],[1.9233,49.1698],[1.7762,49.174],[1.7485,49.1801],[1.6958,49.2344],[1.6918,49.3742],[1.6846,49.42],[1.6967,49.4507],[1.7545,49.7489],[1.7836,49.7532],[2.5987,49.6091],[3.0801,49.6982],[3.1187,49.7147]]]}},{"type":"Feature","properties":{"code":"FR073","name":"Aisne"},"geometry":{"type":"Polygon","coordinates":[[[4.1463,49.9847],[4.2185,49.962],[4.2335,49.938],[4.2437,49.9094],[4.2498,49.8617],[4.2305,49.747],[4.1226,49.6465],[4.0843,49.584],[4.0705,49.5522],[4.0488,49.4547],[4.0608,49.4047],[3.9189,49.396],[3.8896,49.389],[3.697,49.3298],[3.6457,49.3034],[3.6346,49.2774],[3.5907,49.0672],[3.5006,48.8752],[3.4796,48.8565],[3.0849,49.1096],[3.0823,49.15],[3.1187,49.7147],[3.1673,49.9826],[3.1678,50.0138],[4.1463,49.9847]]]}},{"type":"Feature","properties":{"code":"FR074","name":"Ardennes"},"geometry":{"type":"Polygon","coordinates":[[[4.4247,49.9443],[4.9396,49.7897],[5.3745,49.6212],[5.4036,49.6052],[5.3772,49.578],[4.9913,49.253],[4.9651,49.2367],[4.0608,49.4047],[4.0488,49.4547],[4.0623,49.5274],[4.0843,49.584],[4.1226,49.6465],[4.2305,49.747],[4.2498,49.8617],[4.2437,49.9094],[4.2335,49.938],[4.2185,49.962],[4.4247,49.9443]]]}},{"type":"Feature","properties":{"code":"FR075","name":"Aube"},"geometry":{"type":"Polygon","coordinates":[[[4.6685,48.5381],[4.6771,48.5054],[4.7069,48.054],[4.7168,48.0203],[4.6895,48.0172],[4.2998,47.9259],[4.0309,47.9286],[3.9558,47.9333],[3.922,47.949],[3.8699,47.9933],[3.7346,48.144],[3.6427,48.237],[3.5038,48.3622],[3.4136,48.3911],[3.4188,48.427],[3.5139,48.6113],[3.5407,48.6078],[3.6256,48.5503],[3.6531,48.5434],[3.8061,48.5286],[4.3892,48.5543],[4.6685,48.5381]]]}},{"type":"Feature","properties":{"code":"FR076","name":"Marne"},"geometry":{"type":"Polygon","coordinates":[[[4.0608,49.4047],[4.9651,49.2367],[4.9728,49.1668],[4.9847,48.7539],[4.9924,48.6817],[4.9671,48.6759],[4.6685,48.5381],[4.3892,48.5543],[3.8061,48.5286],[3.6531,48.5434],[3.6256,48.5503],[3.5407,48.6078],[3.5139,48.6113],[3.5154,48.6504],[3.4909,48.8203],[3.4796,48.8565],[3.5006,48.8752],[3.5907,49.0672],[3.6346,49.2774],[3.6457,49.3034],[3.697,49.3298],[3.8896,49.389],[3.9189,49.396],[4.0608,49.4047]]]}},{"type":"Feature","properties":{"code":"FR077","name":"Saône et Loire"},"geometry":{"type":"Polygon","coordinates":[[[5.2559,46.9582],[5.4098,46.8317],[5.4182,46.7899],[5.4305,46.6393],[5.4229,46.5174],[5.4087,46.4761],[5.3807,46.4642],[5.3146,46.4575],[5.1521,46.5052],[4.97,46.5141],[4.9383,46.5029],[4.9142,46.4764],[4.8963,46.4461],[4.7646,46.1812],[4.7392,46.1775],[4.3665,46.2231],[3.916,46.2608],[3.8856,46.2597],[3.8688,46.302],[3.6273,46.7092],[3.6112,46.7496],[3.7938,46.7107],[3.8316,46.7068],[4.0345,46.7723],[4.0646,46.7946],[4.0946,46.8552],[4.076,46.8887],[4.0421,46.918],[4.0193,46.9525],[4.0163,46.9858],[4.0989,47.1274],[4.1359,47.1264],[4.4172,47.0434],[4.935,46.9662],[5.2559,46.9582]]]}},{"type":"Feature","properties":{"code":"FR078","name":"Côte d'Or"},"geometry":{"type":"Polygon","coordinates":[[[5.3879,47.6002],[5.4085,47.5682],[5.4914,47.3408],[5.5011,47.2894],[5.2674,46.9874],[5.2559,46.9582],[4.935,46.9662],[4.4172,47.0434],[4.1359,47.1264],[4.0989,47.1274],[4.107,47.1863],[4.1126,47.3455],[4.179,47.5586],[4.1905,47.5877],[4.3206,47.7761],[4.3214,47.8486],[4.3061,47.8921],[4.2998,47.9259],[4.6895,48.0172],[4.7168,48.0203],[4.7577,48.0127],[4.7958,47.9998],[4.9149,47.8983],[4.9573,47.8465],[4.9554,47.7897],[4.9656,47.7039],[5.1106,47.6533],[5.2366,47.6212],[5.3879,47.6002]]]}},{"type":"Feature","properties":{"code":"FR079","name":"Jura"},"geometry":{"type":"Polygon","coordinates":[[[5.7126,47.2439],[5.8116,47.1568],[6.1767,46.8003],[6.1991,46.7704],[6.1914,46.7367],[6.1311,46.618],[6.1063,46.5519],[6.09,46.4474],[6.0939,46.4118],[6.0684,46.3903],[6.0374,46.3836],[5.8752,46.2713],[5.8073,46.2634],[5.5652,46.2684],[5.4883,46.2739],[5.451,46.2819],[5.3983,46.3232],[5.327,46.3929],[5.3125,46.4215],[5.3146,46.4575],[5.3807,46.4642],[5.4087,46.4761],[5.4229,46.5174],[5.4305,46.6393],[5.4182,46.7899],[5.4098,46.8317],[5.2559,46.9582],[5.2674,46.9874],[5.5011,47.2894],[5.5328,47.2878],[5.7126,47.2439]]]}},{"type":"Feature","properties":{"code":"FR080","name":"Doubs"},"geometry":{"type":"Polygon","coordinates":[[[6.8042,47.557],[6.9361,47.4379],[6.986,47.3883],[7.0016,47.3638],[6.9316,47.2358],[6.8584,47.1575],[6.7188,47.0902],[6.6838,47.0618],[6.629,47.0046],[6.5955,46.9884],[6.5079,46.9721],[6.4404,46.9343],[6.4424,46.9022],[6.4565,46.8662],[6.4385,46.811],[6.4696,46.7939],[6.4447,46.7641],[6.1506,46.5994],[6.1177,46.5864],[6.1914,46.7367],[6.1991,46.7704],[6.1767,46.8003],[6.007,46.9668],[5.8116,47.1568],[5.7126,47.2439],[5.7366,47.2633],[5.8212,47.2983],[6.3552,47.5074],[6.4284,47.5215],[6.5945,47.5424],[6.775,47.558],[6.8042,47.557]]]}},{"type":"Feature","properties":{"code":"FR081","name":"Territoire de Belfort"},"geometry":{"type":"Polygon","coordinates":[[[7.1383,47.5006],[7.0999,47.4909],[6.97,47.4438],[6.9361,47.4379],[6.8042,47.557],[6.8034,47.5919],[6.8196,47.7824],[6.8296,47.8195],[6.8581,47.8087],[7.1383,47.5006]]]}},{"type":"Feature","properties":{"code":"FR082","name":"Haute Saône"},"geometry":{"type":"Polygon","coordinates":[[[6.8296,47.8195],[6.8196,47.7824],[6.8034,47.5919],[6.8042,47.557],[6.775,47.558],[6.5945,47.5424],[6.4284,47.5215],[6.3552,47.5074],[5.8212,47.2983],[5.7366,47.2633],[5.7126,47.2439],[5.5328,47.2878],[5.5011,47.2894],[5.4914,47.3408],[5.4085,47.5682],[5.3879,47.6002],[5.3789,47.6279],[5.3946,47.654],[5.4159,47.6764],[5.7142,47.7684],[5.8791,47.9159],[5.919,47.9637],[5.9522,47.9816],[6.1016,48.0175],[6.1415,48.0204],[6.6372,47.906],[6.7634,47.8555],[6.8296,47.8195]]]}},{"type":"Feature","properties":{"code":"FR083","name":"Haut Rhin"},"geometry":{"type":"Polygon","coordinates":[[[7.5737,48.1225],[7.5786,48.0742],[7.5846,47.7958],[7.5918,47.7512],[7.5873,47.67],[7.5963,47.5854],[7.5675,47.5784],[7.3167,47.4357],[7.2903,47.4403],[7.1383,47.5006],[6.8581,47.8087],[6.8296,47.8195],[6.8611,47.8462],[7.1747,48.2649],[7.2081,48.2955],[7.2441,48.2825],[7.5737,48.1225]]]}},{"type":"Feature","properties":{"code":"FR084","name":"Vosges"},"geometry":{"type":"Polygon","coordinates":[[[7.2081,48.2955],[7.1747,48.2649],[6.8611,47.8462],[6.8296,47.8195],[6.7634,47.8555],[6.6372,47.906],[6.1415,48.0204],[6.1016,48.0175],[5.9522,47.9816],[5.919,47.9637],[5.8965,47.9365],[5.4532,48.4085],[5.4758,48.422],[5.7462,48.4874],[6.1403,48.4096],[6.7758,48.3964],[6.9385,48.4462],[7.0342,48.4886],[7.0659,48.4918],[7.2081,48.2955]]]}},{"type":"Feature","properties":{"code":"FR085","name":"Haute Marne"},"geometry":{"type":"Polygon","coordinates":[[[5.4532,48.4085],[5.8965,47.9365],[5.8791,47.9159],[5.7142,47.7684],[5.4159,47.6764],[5.3946,47.654],[5.3789,47.6279],[5.3879,47.6002],[5.2366,47.6212],[5.1106,47.6533],[4.9656,47.7039],[4.9554,47.7897],[4.9573,47.8465],[4.9406,47.8697],[4.9149,47.8983],[4.7958,47.9998],[4.7168,48.0203],[4.7069,48.054],[4.6771,48.5054],[4.6685,48.5381],[4.9671,48.6759],[4.9924,48.6817],[5.4532,48.4085]]]}},{"type":"Feature","properties":{"code":"FR086","name":"Bas Rhin"},"geometry":{"type":"Polygon","coordinates":[[[7.9115,49.0123],[7.9441,49.0021],[8.1929,48.9581],[8.175,48.9307],[7.9969,48.7188],[7.9797,48.6918],[7.9537,48.6667],[7.7429,48.4099],[7.5917,48.1459],[7.5737,48.1225],[7.2441,48.2825],[7.2081,48.2955],[7.0659,48.4918],[7.077,48.5318],[7.1079,48.5519],[7.2541,48.6244],[7.2835,48.648],[7.4921,48.9193],[7.5234,48.9536],[7.6364,49.0483],[7.6708,49.0474],[7.8747,49.0137],[7.9115,49.0123]]]}},{"type":"Feature","properties":{"code":"FR087","name":"Moselle"},"geometry":{"type":"Polygon","coordinates":[[[6.3713,49.4675],[6.4333,49.4729],[6.5923,49.3994],[6.5938,49.332],[6.6384,49.2841],[6.7311,49.1691],[6.7913,49.1564],[6.8356,49.1622],[6.8834,49.2012],[6.9142,49.2043],[6.9729,49.1937],[7.0104,49.179],[7.0458,49.1173],[7.0743,49.1147],[7.2888,49.1226],[7.3169,49.1359],[7.3437,49.1672],[7.3996,49.173],[7.457,49.1702],[7.4928,49.1598],[7.5248,49.0974],[7.6086,49.0658],[7.6364,49.0483],[7.5234,48.9536],[7.4921,48.9193],[7.2835,48.648],[7.2541,48.6244],[7.1079,48.5519],[7.077,48.5318],[7.0457,48.548],[6.3849,48.7795],[6.3406,48.8029],[6.0682,48.9739],[5.9597,49.0564],[5.9478,49.1088],[5.935,49.381],[5.9424,49.459],[5.9384,49.4881],[6.3713,49.4675]]]}},{"type":"Feature","properties":{"code":"FR088","name":"Meurthe et Moselle"},"geometry":{"type":"Polygon","coordinates":[[[5.9384,49.4881],[5.9424,49.459],[5.935,49.381],[5.9478,49.1088],[5.9597,49.0564],[6.0682,48.9739],[6.3406,48.8029],[6.3849,48.7795],[7.0457,48.548],[7.077,48.5318],[7.0659,48.4918],[7.0342,48.4886],[6.9385,48.4462],[6.7758,48.3964],[6.1403,48.4096],[5.7462,48.4874],[5.7508,48.5161],[5.743,48.6087],[5.7682,48.7989],[5.8034,48.9501],[5.8227,48.9687],[5.8468,49.0255],[5.8459,49.0573],[5.7115,49.375],[5.6927,49.4078],[5.6586,49.4284],[5.4998,49.4954],[5.5321,49.507],[5.7847,49.5419],[5.8146,49.553],[5.8404,49.5347],[5.9384,49.4881]]]}},{"type":"Feature","properties":{"code":"FR089","name":"Haute Corse"},"geometry":{"type":"Polygon","coordinates":[[[9.3889,41.8681],[9.2224,42.0238],[9.0646,42.1631],[8.8967,42.2801],[8.8661,42.297],[8.7804,42.3285],[8.6748,42.3592],[8.5942,42.3732],[8.5998,42.3982],[8.7339,42.536],[9.3236,42.9817],[9.3552,43.0014],[9.3873,43.0056],[9.4303,43.0021],[9.4551,42.9808],[9.4651,42.9439],[9.4911,42.8174],[9.5348,42.5321],[9.5591,42.2723],[9.5555,42.1341],[9.5447,42.0958],[9.4119,41.8854],[9.3889,41.8681]]]}},{"type":"Feature","properties":{"code":"FR090","name":"Corse du Sud"},"geometry":{"type":"Polygon","coordinates":[[[9.3889,41.8681],[9.3893,41.8271],[9.3203,41.5457],[9.2632,41.4191],[9.2261,41.3721],[9.1897,41.3664],[9.1541,41.3802],[8.821,41.5446],[8.7902,41.5655],[8.7165,41.7385],[8.5776,42.1371],[8.5652,42.1802],[8.559,42.2258],[8.5541,42.329],[8.5575,42.3646],[8.5942,42.3732],[8.6748,42.3592],[8.7804,42.3285],[8.8661,42.297],[8.8967,42.2801],[9.0646,42.1631],[9.2224,42.0238],[9.3889,41.8681]]]}},{"type":"Feature","properties":{"code":"FR091","name":"Pyrénées Atlantiques"},"geometry":{"type":"Polygon","coordinates":[[[-0.31,42.8403],[-0.3635,42.8132],[-0.3993,42.801],[-0.4809,42.8214],[-0.5098,42.821],[-0.544,42.7991],[-0.5737,42.7887],[-0.6103,42.8353],[-0.7084,42.8848],[-0.7354,42.9086],[-0.818,42.9507],[-0.9197,42.9523],[-0.9529,42.9573],[-1.0158,42.9911],[-1.1404,43.0097],[-1.2262,43.0355],[-1.2537,43.0451],[-1.3355,43.0889],[-1.3654,43.0303],[-1.452,43.0552],[-1.464,43.0867],[-1.4436,43.1214],[-1.3909,43.1791],[-1.3918,43.2553],[-1.5142,43.2929],[-1.6372,43.3098],[-1.6794,43.3105],[-1.7228,43.2972],[-1.7468,43.3174],[-1.8001,43.3891],[-1.7644,43.3917],[-1.6078,43.4436],[-1.5839,43.4558],[-1.5265,43.5262],[-1.5058,43.5432],[-1.4161,43.4997],[-1.1773,43.4971],[-0.4385,43.552],[-0.2747,43.5704],[-0.2393,43.5797],[-0.2064,43.5772],[-0.1037,43.5834],[-0.062,43.5408],[-0.0047,43.4358],[0.0243,43.354],[0.0179,43.3264],[-0.0224,43.2589],[-0.0462,43.2295],[-0.2023,43.0557],[-0.31,42.8403]]]}},{"type":"Feature","properties":{"code":"FR092","name":"Maine et Loire"},"geometry":{"type":"Polygon","coordinates":[[[-0.3971,47.7741],[-0.355,47.7596],[0.1844,47.6181],[0.2243,47.5973],[0.2127,47.5573],[0.0676,47.2004],[0.0484,47.1649],[-0.0696,47.0866],[-0.096,47.0588],[-0.1415,47.06],[-0.4403,47.0249],[-0.8381,46.9768],[-0.8886,46.9657],[-1.1406,47.0286],[-1.1513,47.0565],[-1.1812,47.2519],[-1.1291,47.5388],[-1.1273,47.5762],[-1.2346,47.764],[-1.2514,47.7831],[-1.2253,47.8106],[-0.4374,47.77],[-0.3971,47.7741]]]}},{"type":"Feature","properties":{"code":"FR093","name":"Indre et Loire"},"geometry":{"type":"Polygon","coordinates":[[[1.3169,47.1865],[0.9004,46.7601],[0.8755,46.7437],[0.7005,46.9415],[0.6557,46.9817],[0.6322,46.9954],[0.5969,47.005],[0.3186,47.0202],[0.2929,47.0256],[0.077,47.1525],[0.0484,47.1649],[0.0676,47.2004],[0.2127,47.5573],[0.2243,47.5973],[0.2685,47.6132],[0.6239,47.693],[0.6632,47.6958],[0.7801,47.6819],[0.9257,47.6319],[1.0521,47.5797],[1.0668,47.5581],[1.1214,47.4208],[1.2114,47.3066],[1.3039,47.2115],[1.3169,47.1865]]]}},{"type":"Feature","properties":{"code":"FR094","name":"Deux Sèvres"},"geometry":{"type":"Polygon","coordinates":[[[-0.096,47.0588],[-0.0379,46.987],[-0.0278,46.96],[0.0243,46.6155],[-0.0356,46.5009],[-0.0226,46.4168],[-0.0042,46.382],[0.04,46.3179],[0.1496,46.1655],[0.1943,46.1208],[0.2134,46.0889],[-0.1007,45.9601],[-0.7492,46.2952],[-0.6682,46.3196],[-0.5874,46.3524],[-0.5714,46.3849],[-0.5749,46.4227],[-0.6187,46.6247],[-0.6537,46.6879],[-0.7436,46.8335],[-0.8886,46.9657],[-0.8381,46.9768],[-0.4403,47.0249],[-0.1415,47.06],[-0.096,47.0588]]]}},{"type":"Feature","properties":{"code":"FR101","name":"Paris"},"geometry":{"type":"Polygon","coordinates":[[[2.4163,48.8492],[2.3319,48.817],[2.2744,48.8507],[2.3199,48.9005],[2.4163,48.8492]]]}},{"type":"Feature","properties":{"code":"FR105","name":"Hauts-de-Seine"},"geometry":{"type":"Polygon","coordinates":[[[2.2961,48.8778],[2.2744,48.8507],[2.3319,48.817],[2.3207,48.7488],[2.2266,48.7761],[2.1594,48.841],[2.2006,48.9087],[2.291,48.951],[2.2961,48.8778]]]}},{"type":"Feature","properties":{"code":"FR106","name":"Seine-Saint-Denis"},"geometry":{"type":"Polygon","coordinates":[[[2.5923,48.8074],[2.4163,48.8492],[2.3199,48.9005],[2.2961,48.8778],[2.291,48.951],[2.5531,49.0098],[2.5923,48.8074]]]}},{"type":"Feature","properties":{"code":"FR107","name":"Val-de-Marne"},"geometry":{"type":"Polygon","coordinates":[[[2.5923,48.8074],[2.5716,48.692],[2.3207,48.7488],[2.3319,48.817],[2.4163,48.8492],[2.5923,48.8074]]]}}]}