{"type":"FeatureCollection","features":[{"type":"Feature","properties":{"code":"HU001","name":"Northern Great Plain"},"geometry":{"type":"Polygon","coordinates":[[[22.8943,47.953],[22.761,47.8477],[22.6615,47.7797],[22.5921,47.7697],[22.5564,47.7736],[22.4966,47.8014],[22.4636,47.803],[22.3167,47.7462],[22.2795,47.7275],[22.1996,47.6359],[22.2002,47.5992],[22.1651,47.5944],[22.0643,47.5509],[22.0337,47.5267],[21.8792,47.297],[21.6597,47.0361],[21.624,47.0325],[21.4253,46.9871],[21.392,46.9945],[21.3155,47.1123],[21.2972,47.1356],[21.2756,47.1526],[20.9978,47.2283],[20.8852,47.166],[20.7531,47.0343],[20.45,46.8142],[20.3628,46.7711],[20.3226,46.7658],[20.2031,46.763],[20.1077,46.7705],[20.0364,46.8242],[20.044,46.8663],[20.0902,46.9728],[20.0999,47.0058],[20.0813,47.0386],[19.6758,47.5869],[19.7021,47.6007],[19.9925,47.6532],[20.0237,47.6544],[20.2137,47.6035],[20.2864,47.5688],[20.3068,47.5359],[20.31,47.4881],[20.3248,47.4651],[20.3759,47.4362],[20.4146,47.4237],[20.4512,47.4339],[20.9154,47.6853],[21.0584,47.7692],[21.0757,47.7955],[21.1176,47.9172],[21.1357,47.9458],[21.4676,48.0885],[21.8022,48.2046],[21.942,48.2479],[22.0785,48.3128],[22.1201,48.3481],[22.129,48.375],[22.1559,48.3977],[22.3764,48.2478],[22.8646,47.9805],[22.8943,47.953]]]}},{"type":"Feature","properties":{"code":"HU002","name":"Western Transdanubia"},"geometry":{"type":"Polygon","coordinates":[[[17.7059,47.7631],[17.7464,47.7544],[17.8921,47.7412],[17.9027,47.6964],[17.8892,47.4221],[17.8799,47.3828],[17.7883,47.3056],[17.761,47.2942],[17.7431,47.3258],[17.7351,47.3538],[17.7755,47.3932],[17.7771,47.4295],[17.7547,47.4556],[17.6968,47.4726],[17.3979,47.4789],[17.2076,47.4454],[17.182,47.4287],[17.1941,47.049],[17.204,46.9868],[17.398,46.758],[17.3758,46.7428],[17.2789,46.7314],[17.2522,46.7069],[17.2283,46.6756],[17.2174,46.5928],[17.221,46.5544],[17.2164,46.4864],[17.1968,46.4443],[17.1775,46.4242],[17.0309,46.3074],[16.9271,46.2838],[16.5534,46.4926],[16.5291,46.5253],[16.135,46.8502],[16.1168,46.8721],[16.2846,46.9861],[16.31,47.013],[16.6233,47.6178],[16.7188,47.7317],[16.7548,47.7507],[17.0251,47.8592],[17.0559,47.8802],[17.1351,47.9759],[17.1477,48.012],[17.2429,48.0136],[17.4049,47.9471],[17.7059,47.7631]]]}},{"type":"Feature","properties":{"code":"HU003","name":"Central Transdanubia"},"geometry":{"type":"Polygon","coordinates":[[[18.9726,47.0197],[18.9667,46.9876],[18.9292,46.8693],[18.9092,46.8487],[18.7458,46.7291],[18.6937,46.7014],[18.6587,46.6901],[18.6326,46.6924],[18.2624,46.7719],[18.2317,46.7809],[18.2111,46.8051],[18.1725,46.8113],[17.4488,46.7503],[17.398,46.758],[17.204,46.9868],[17.1941,47.049],[17.182,47.4287],[17.2076,47.4454],[17.3979,47.4789],[17.6968,47.4726],[17.7547,47.4556],[17.7771,47.4295],[17.7755,47.3932],[17.7351,47.3538],[17.7431,47.3258],[17.761,47.2942],[17.7883,47.3056],[17.8799,47.3828],[17.8892,47.4221],[17.9027,47.6964],[17.8921,47.7412],[18.0949,47.7571],[18.1639,47.7432],[18.2912,47.7319],[18.4576,47.7612],[18.6153,47.7575],[18.6934,47.7769],[18.7223,47.7905],[18.7382,47.8118],[18.8205,47.8185],[18.8475,47.8328],[18.8397,47.799],[18.7095,47.5912],[18.7073,47.5378],[18.893,47.1127],[18.9132,47.0753],[18.9726,47.0197]]]}},{"type":"Feature","properties":{"code":"HU004","name":"Southern Transdanubia"},"geometry":{"type":"Polygon","coordinates":[[[18.8182,45.9012],[18.7851,45.8914],[18.5512,45.7927],[18.3923,45.7374],[17.9294,45.7847],[17.8225,45.8085],[17.3968,45.9256],[17.3354,45.951],[16.95,46.2534],[16.9271,46.2838],[17.0309,46.3074],[17.1775,46.4242],[17.1968,46.4443],[17.2164,46.4864],[17.221,46.5544],[17.2174,46.5928],[17.2283,46.6756],[17.2522,46.7069],[17.2789,46.7314],[17.3758,46.7428],[17.398,46.758],[17.4488,46.7503],[18.1725,46.8113],[18.2111,46.8051],[18.2317,46.7809],[18.2624,46.7719],[18.6326,46.6924],[18.6587,46.6901],[18.6937,46.7014],[18.7458,46.7291],[18.9092,46.8487],[18.9292,46.8693],[18.939,46.8401],[19.007,46.7205],[19.0047,46.6752],[18.7644,46.0556],[18.7598,46.0196],[18.8214,45.9293],[18.8182,45.9012]]]}},{"type":"Feature","properties":{"code":"HU005","name":"Southern Great Plain"},"geometry":{"type":"Polygon","coordinates":[[[21.6597,47.0361],[21.4412,46.6548],[20.734,46.1803],[20.7155,46.1574],[20.6784,46.159],[20.3237,46.1316],[20.2789,46.1242],[20.0934,46.1727],[19.6688,46.1904],[19.5811,46.177],[19.5473,46.1637],[19.5134,46.1373],[19.4946,46.1004],[19.444,46.0635],[19.3999,46.0423],[19.2594,45.999],[18.9983,45.9291],[18.8182,45.9012],[18.8214,45.9293],[18.7598,46.0196],[18.7644,46.0556],[19.0047,46.6752],[19.007,46.7205],[18.939,46.8401],[18.9292,46.8693],[18.9667,46.9876],[18.9726,47.0197],[18.9876,47.049],[19.0168,47.0645],[19.1938,47.0969],[19.8852,46.9845],[20.0999,47.0058],[20.0902,46.9728],[20.044,46.8663],[20.0364,46.8242],[20.1077,46.7705],[20.2031,46.763],[20.3226,46.7658],[20.3628,46.7711],[20.45,46.8142],[20.7531,47.0343],[20.8852,47.166],[20.9978,47.2283],[21.2756,47.1526],[21.2972,47.1356],[21.3155,47.1123],[21.392,46.9945],[21.4253,46.9871],[21.624,47.0325],[21.6597,47.0361]]]}},{"type":"Feature","properties":{"code":"HU006","name":"Central Hungary"},"geometry":{"type":"Polygon","coordinates":[[[19.6758,47.5869],[20.0813,47.0386],[20.0999,47.0058],[19.8852,46.9845],[19.1938,47.0969],[19.0168,47.0645],[18.9876,47.049],[18.9726,47.0197],[18.9132,47.0753],[18.893,47.1127],[18.7073,47.5378],[18.7095,47.5912],[18.8397,47.799],[18.8475,47.8328],[18.7784,47.8765],[18.7678,47.9483],[18.7896,47.9912],[18.8669,48.0417],[18.8936,48.055],[18.952,48.0577],[18.9648,48.0272],[19.0526,47.8771],[19.0753,47.8626],[19.6413,47.6078],[19.6758,47.5869]]]}},{"type":"Feature","properties":{"code":"HU007","name":"Northern Hungary"},"geometry":{"type":"Polygon","coordinates":[[[21.4495,48.5788],[21.5578,48.5081],[21.619,48.4918],[21.6302,48.4602],[21.6454,48.4344],[21.7018,48.3708],[21.7307,48.3595],[21.8273,48.3355],[22.0033,48.3771],[22.0972,48.3789],[22.129,48.375],[22.1201,48.3481],[22.0785,48.3128],[21.942,48.2479],[21.8022,48.2046],[21.4676,48.0885],[21.1357,47.9458],[21.1176,47.9172],[21.0757,47.7955],[21.0584,47.7692],[20.9154,47.6853],[20.4512,47.4339],[20.4146,47.4237],[20.3759,47.4362],[20.3248,47.4651],[20.31,47.4881],[20.3068,47.5359],[20.2864,47.5688],[20.2137,47.6035],[20.0237,47.6544],[19.9925,47.6532],[19.7021,47.6007],[19.6758,47.5869],[19.6413,47.6078],[19.0753,47.8626],[19.0526,47.8771],[18.9648,48.0272],[18.952,48.0577],[19.0236,48.0675],[19.2476,48.0677],[19.4449,48.0911],[19.4754,48.1012],[19.522,48.1926],[19.5497,48.2165],[19.6273,48.2447],[19.6712,48.2354],[19.862,48.166],[19.9243,48.1487],[20.0478,48.1751],[20.3079,48.2642],[20.3294,48.2792],[20.3938,48.3482],[20.4132,48.3749],[20.4246,48.4074],[20.4631,48.4634],[20.561,48.5353],[20.7004,48.5672],[20.7863,48.578],[20.8233,48.5769],[20.884,48.5539],[21.088,48.5019],[21.2273,48.5358],[21.3183,48.5368],[21.3347,48.5572],[21.4192,48.5793],[21.4495,48.5788]]]}}]}