{"type":"FeatureCollection","features":[{"type":"Feature","properties":{"code":"IL021","name":"Western Galilee Slopes"},"geometry":{"type":"Polygon","coordinates":[[[35.1623,33.0886],[35.1675,33.0805],[35.1939,33.0749],[35.203,33.0612],[35.1927,33.0519],[35.1893,33.0195],[35.1909,32.998],[35.207,32.9775],[35.2034,32.955],[35.2127,32.913],[35.1841,32.9164],[35.1285,32.9347],[35.073,32.9421],[35.0881,33.0137],[35.1007,33.0494],[35.1039,33.0931],[35.1623,33.0886]]]}},{"type":"Feature","properties":{"code":"IL022","name":"western Upper Galilee"},"geometry":{"type":"Polygon","coordinates":[[[35.4283,33.0649],[35.4144,33.0562],[35.4147,33.0359],[35.3845,33.023],[35.3937,33.0075],[35.4147,32.9976],[35.4159,32.9777],[35.4276,32.974],[35.4291,32.9615],[35.379,32.9541],[35.3727,32.943],[35.3731,32.932],[35.3281,32.9295],[35.2859,32.9367],[35.2575,32.918],[35.2199,32.9122],[35.2127,32.913],[35.2039,32.9502],[35.207,32.9775],[35.1909,32.998],[35.1927,33.0519],[35.203,33.0612],[35.2002,33.07],[35.1675,33.0805],[35.1623,33.0893],[35.1904,33.0875],[35.2091,33.1035],[35.2411,33.0925],[35.318,33.1062],[35.3228,33.0876],[35.3445,33.064],[35.3767,33.0536],[35.4283,33.0649]]]}},{"type":"Feature","properties":{"code":"IL023","name":"Eestern Upper Galilee"},"geometry":{"type":"Polygon","coordinates":[[[35.5956,33.2652],[35.57,33.2294],[35.5633,33.2047],[35.5659,33.092],[35.5473,33.0611],[35.5423,33.039],[35.5434,32.9584],[35.5297,32.9288],[35.512,32.9182],[35.4648,32.9189],[35.4227,32.921],[35.3731,32.932],[35.3727,32.943],[35.379,32.9541],[35.4291,32.9615],[35.4276,32.974],[35.4159,32.9777],[35.4147,32.9976],[35.3937,33.0075],[35.3845,33.023],[35.4147,33.0359],[35.4144,33.0562],[35.432,33.0658],[35.4471,33.0906],[35.5033,33.0906],[35.5033,33.1137],[35.52,33.1165],[35.5417,33.194],[35.5372,33.2194],[35.5464,33.2496],[35.5647,33.2757],[35.5922,33.2778],[35.5956,33.2652]]]}},{"type":"Feature","properties":{"code":"IL024","name":"Hula Valley"},"geometry":{"type":"Polygon","coordinates":[[[35.6261,32.9703],[35.5434,32.9591],[35.5423,33.039],[35.5473,33.0611],[35.5659,33.092],[35.5633,33.2047],[35.5701,33.2294],[35.5956,33.2652],[35.5983,33.2551],[35.6244,33.2431],[35.6556,33.2498],[35.6855,33.2397],[35.6695,33.2239],[35.6655,33.1795],[35.6709,33.159],[35.655,33.1258],[35.6394,33.0409],[35.609,33.0187],[35.6271,33.0031],[35.6261,32.9703]]]}},{"type":"Feature","properties":{"code":"IL025","name":"Zevulun Valley"},"geometry":{"type":"Polygon","coordinates":[[[35.1841,32.9173],[35.2133,32.9129],[35.227,32.9007],[35.2525,32.8972],[35.2556,32.8913],[35.2236,32.8654],[35.2086,32.8143],[35.1726,32.7651],[35.1337,32.7513],[35.1169,32.7193],[35.1163,32.6978],[35.0999,32.6946],[35.0961,32.718],[35.0623,32.7546],[35.029,32.787],[34.9693,32.8318],[34.9805,32.8367],[35.004,32.8184],[35.0277,32.8132],[35.0597,32.8431],[35.0774,32.8793],[35.0825,32.9061],[35.0708,32.9314],[35.073,32.9421],[35.1285,32.9347],[35.1841,32.9173]]]}},{"type":"Feature","properties":{"code":"IL026","name":"Western Lower Galilee"},"geometry":{"type":"Polygon","coordinates":[[[35.3719,32.9323],[35.3522,32.9119],[35.3321,32.91],[35.3367,32.8899],[35.3705,32.8753],[35.3733,32.8588],[35.4071,32.8231],[35.4062,32.8067],[35.4218,32.8076],[35.441,32.7893],[35.4355,32.7783],[35.4144,32.7591],[35.3852,32.7554],[35.3691,32.7296],[35.3402,32.7058],[35.3251,32.6869],[35.2629,32.6637],[35.2335,32.6707],[35.2259,32.684],[35.2258,32.6945],[35.2132,32.701],[35.2137,32.7285],[35.198,32.7392],[35.1714,32.7319],[35.1282,32.6984],[35.1163,32.6978],[35.1169,32.7193],[35.1337,32.7513],[35.1726,32.7651],[35.2086,32.8143],[35.2236,32.8654],[35.2556,32.8913],[35.2525,32.8972],[35.227,32.9007],[35.2133,32.9129],[35.2575,32.918],[35.2859,32.9367],[35.3281,32.9295],[35.3719,32.9323]]]}},{"type":"Feature","properties":{"code":"IL027","name":"Eestern Lower Galilee"},"geometry":{"type":"Polygon","coordinates":[[[35.4984,32.5473],[35.4858,32.5578],[35.4646,32.5591],[35.4491,32.5667],[35.4484,32.5714],[35.3875,32.6075],[35.3708,32.5979],[35.3187,32.6234],[35.3552,32.6336],[35.3555,32.6667],[35.3251,32.6869],[35.3402,32.7058],[35.3691,32.7296],[35.3852,32.7554],[35.4144,32.7591],[35.4355,32.7783],[35.441,32.7893],[35.4218,32.8076],[35.4062,32.8067],[35.4071,32.8231],[35.3733,32.8588],[35.3705,32.8753],[35.3367,32.8899],[35.3321,32.91],[35.3522,32.9119],[35.3719,32.9323],[35.4227,32.921],[35.512,32.9182],[35.5297,32.9288],[35.5434,32.9591],[35.5603,32.9621],[35.6024,32.9681],[35.6117,32.969],[35.6041,32.9682],[35.6038,32.9594],[35.5714,32.9013],[35.5172,32.8769],[35.4897,32.8517],[35.5017,32.8212],[35.5539,32.7522],[35.5549,32.724],[35.5432,32.7178],[35.5131,32.7461],[35.4978,32.7518],[35.4892,32.7496],[35.4853,32.7343],[35.4917,32.7113],[35.5423,32.6518],[35.5389,32.5717],[35.5259,32.5595],[35.4984,32.5473]]]}},{"type":"Feature","properties":{"code":"IL028","name":"Kinarot Valley"},"geometry":{"type":"Polygon","coordinates":[[[35.5627,32.5373],[35.4984,32.5473],[35.5259,32.5595],[35.5389,32.5717],[35.5423,32.6518],[35.4917,32.7113],[35.4853,32.7343],[35.4892,32.7496],[35.4978,32.7518],[35.5131,32.7461],[35.5432,32.7178],[35.5549,32.724],[35.5539,32.7522],[35.5017,32.8212],[35.4897,32.8517],[35.5172,32.8769],[35.5714,32.9013],[35.6038,32.9594],[35.6041,32.9682],[35.6261,32.9703],[35.6247,32.9237],[35.6113,32.8935],[35.6438,32.8652],[35.6511,32.8451],[35.6377,32.7864],[35.641,32.7722],[35.6301,32.7375],[35.5954,32.7049],[35.6272,32.6789],[35.5995,32.6648],[35.6063,32.6526],[35.5628,32.6369],[35.5778,32.5958],[35.5753,32.551],[35.5627,32.5373]]]}},{"type":"Feature","properties":{"code":"IL029","name":"Carmel  Coast"},"geometry":{"type":"Polygon","coordinates":[[[34.9787,32.761],[34.9463,32.5919],[34.9073,32.5669],[34.9282,32.7012],[34.9473,32.7371],[34.9542,32.8119],[34.9731,32.7943],[34.9787,32.761]]]}},{"type":"Feature","properties":{"code":"IL030","name":"Carmel Mt."},"geometry":{"type":"Polygon","coordinates":[[[34.9697,32.8314],[35.029,32.787],[35.0961,32.718],[35.1111,32.6569],[35.078,32.639],[35.034,32.6321],[34.9564,32.6316],[34.9787,32.761],[34.9731,32.7943],[34.9542,32.8119],[34.9555,32.8258],[34.9697,32.8314]]]}},{"type":"Feature","properties":{"code":"IL031","name":"Plain of Manasseh"},"geometry":{"type":"Polygon","coordinates":[[[35.2152,32.5434],[35.1213,32.4807],[35.1017,32.5051],[35.0449,32.5369],[34.9749,32.5154],[34.9429,32.5167],[34.8982,32.5357],[34.9073,32.5669],[34.9463,32.5919],[34.9564,32.6316],[35.034,32.6321],[35.078,32.639],[35.1097,32.6561],[35.158,32.5999],[35.1814,32.5981],[35.2152,32.5434]]]}},{"type":"Feature","properties":{"code":"IL032","name":"Jezreel Valley"},"geometry":{"type":"Polygon","coordinates":[[[35.3251,32.6869],[35.3555,32.6667],[35.3552,32.6336],[35.3279,32.6277],[35.2978,32.6137],[35.2922,32.5855],[35.3489,32.5183],[35.2947,32.5099],[35.2526,32.5231],[35.2252,32.5513],[35.2152,32.5434],[35.1814,32.5981],[35.158,32.5999],[35.1137,32.6475],[35.0999,32.6946],[35.1282,32.6984],[35.1714,32.7319],[35.198,32.7392],[35.2137,32.7285],[35.2132,32.701],[35.2258,32.6945],[35.2259,32.684],[35.2335,32.6707],[35.2629,32.6637],[35.3251,32.6869]]]}},{"type":"Feature","properties":{"code":"IL033","name":"Beit She'an Valley"},"geometry":{"type":"Polygon","coordinates":[[[35.4984,32.5473],[35.5627,32.5373],[35.5586,32.5027],[35.5681,32.4577],[35.5564,32.4291],[35.5558,32.3883],[35.5032,32.3963],[35.4789,32.4134],[35.4438,32.4105],[35.4394,32.4162],[35.4406,32.455],[35.4203,32.5178],[35.3628,32.5449],[35.3361,32.5358],[35.2922,32.5855],[35.2978,32.6137],[35.3187,32.6234],[35.3708,32.5979],[35.3875,32.6075],[35.4484,32.5714],[35.4491,32.5667],[35.4646,32.5591],[35.4858,32.5578],[35.4984,32.5473]]]}},{"type":"Feature","properties":{"code":"IL034","name":"Gilboa"},"geometry":{"type":"Polygon","coordinates":[[[35.4394,32.4162],[35.4409,32.4103],[35.4257,32.4354],[35.432,32.4541],[35.3979,32.5063],[35.3635,32.5188],[35.3477,32.5168],[35.3361,32.5358],[35.3628,32.5449],[35.4203,32.5178],[35.4406,32.455],[35.4394,32.4162]]]}},{"type":"Feature","properties":{"code":"IL035","name":"Northern Sharon"},"geometry":{"type":"Polygon","coordinates":[[[35.1213,32.4807],[35.0924,32.4735],[35.0636,32.4417],[35.0599,32.4104],[35.0474,32.3889],[35.0499,32.3631],[35.0377,32.3437],[35.0192,32.3386],[35.0078,32.2817],[35.027,32.2699],[35.0197,32.2334],[34.9937,32.2157],[34.9522,32.2142],[34.9285,32.2845],[34.9114,32.2886],[34.8335,32.2842],[34.8982,32.5357],[34.9429,32.5167],[34.9749,32.5154],[35.0449,32.5369],[35.1017,32.5051],[35.1213,32.4807]]]}},{"type":"Feature","properties":{"code":"IL036","name":"Gush Dan"},"geometry":{"type":"Polygon","coordinates":[[[34.9937,32.2157],[34.9575,32.1911],[34.9598,32.1786],[34.9853,32.1481],[34.9934,32.1108],[34.9917,32.0648],[34.9654,32.0646],[34.8563,31.9342],[34.8461,31.9151],[34.7313,32.0078],[34.7465,32.0529],[34.7538,32.0572],[34.7839,32.1291],[34.8335,32.2842],[34.9114,32.2886],[34.9285,32.2845],[34.9522,32.2142],[34.9937,32.2157]]]}},{"type":"Feature","properties":{"code":"IL037","name":"Judean foothills - North"},"geometry":{"type":"Polygon","coordinates":[[[34.962,31.8276],[34.939,31.8481],[34.9058,31.8614],[34.8465,31.9158],[34.8563,31.9342],[34.9654,32.0646],[34.9917,32.0648],[35.0032,32.0296],[34.9923,31.9774],[34.9714,31.9594],[34.9978,31.927],[35.0156,31.9211],[35.0258,31.9013],[35.0242,31.8772],[34.9567,31.8583],[34.962,31.8276]]]}},{"type":"Feature","properties":{"code":"IL038","name":"Southern Coast"},"geometry":{"type":"Polygon","coordinates":[[[34.8461,31.9151],[34.7997,31.8219],[34.7861,31.7844],[34.748,31.7249],[34.5679,31.5411],[34.4905,31.5962],[34.5583,31.6842],[34.6499,31.8303],[34.6887,31.9182],[34.7186,31.9702],[34.7313,32.0078],[34.8461,31.9151]]]}},{"type":"Feature","properties":{"code":"IL039","name":"Judean foothills - South"},"geometry":{"type":"Polygon","coordinates":[[[34.939,31.8481],[34.9729,31.8154],[35.0237,31.814],[35.0311,31.8189],[35.0082,31.7484],[35.0216,31.6934],[35.0179,31.6735],[34.989,31.6526],[34.9671,31.6174],[34.9491,31.6018],[34.9414,31.5702],[34.9393,31.527],[34.9436,31.5095],[34.9286,31.4705],[34.8999,31.4403],[34.8812,31.3988],[34.885,31.3805],[34.5536,31.5209],[34.5687,31.5424],[34.748,31.7249],[34.7861,31.7844],[34.7997,31.8219],[34.8465,31.9158],[34.9058,31.8614],[34.939,31.8481]]]}},{"type":"Feature","properties":{"code":"IL040","name":"Jerusalem Mountains"},"geometry":{"type":"Polygon","coordinates":[[[35.0179,31.6735],[35.0216,31.6934],[35.0082,31.7484],[35.0311,31.8189],[35.046,31.8288],[35.0524,31.849],[35.1677,31.8025],[35.2026,31.8028],[35.2266,31.7895],[35.2222,31.7748],[35.2341,31.7465],[35.1582,31.744],[35.1409,31.7295],[35.1185,31.7319],[35.0685,31.7151],[35.0179,31.6735]]]}},{"type":"Feature","properties":{"code":"IL041","name":"North-Western Negev"},"geometry":{"type":"Polygon","coordinates":[[[34.8818,31.3817],[34.9178,31.3447],[34.932,31.3399],[34.9693,31.3466],[35.0707,31.3018],[35.1028,31.2625],[35.11,31.2126],[35.0814,31.1858],[34.9851,31.118],[34.8312,30.9902],[34.8327,30.9409],[34.8265,30.9002],[34.8426,30.8667],[34.7245,30.8201],[34.633,30.9319],[34.6323,30.9921],[34.6076,31.0948],[34.5426,31.1382],[34.5248,31.1653],[34.4832,31.1726],[34.4327,31.2449],[34.4246,31.2812],[34.4154,31.2917],[34.3729,31.3098],[34.3652,31.3616],[34.3822,31.3898],[34.4672,31.4641],[34.5124,31.4999],[34.5474,31.5124],[34.5536,31.5209],[34.8818,31.3817]]]}},{"type":"Feature","properties":{"code":"IL042","name":"North-Eastern Negev"},"geometry":{"type":"Polygon","coordinates":[[[35.2278,31.3773],[35.2839,31.2873],[35.296,31.081],[35.3072,31.0526],[35.2297,30.9692],[35.2266,30.9597],[35.2174,30.9562],[35.2163,30.9709],[35.2024,30.9712],[35.1917,30.9654],[35.1914,30.9495],[35.206,30.9404],[35.1206,30.9029],[35.0162,30.8253],[35.0092,30.7825],[34.9598,30.7488],[34.896,30.7283],[34.897,30.7384],[34.8861,30.7556],[34.8723,30.7581],[34.8656,30.7676],[34.8426,30.8667],[34.8265,30.9002],[34.8327,30.9409],[34.8312,30.9902],[34.9851,31.118],[35.0814,31.1858],[35.11,31.2126],[35.1028,31.2625],[35.0707,31.3018],[34.9693,31.3466],[34.9908,31.3505],[35.0942,31.3499],[35.1243,31.3576],[35.1814,31.3625],[35.2278,31.3773]]]}},{"type":"Feature","properties":{"code":"IL043","name":"South Judea Desert & Dead Sea"},"geometry":{"type":"Polygon","coordinates":[[[35.4271,31.0453],[35.3651,31.0659],[35.2946,31.1045],[35.2839,31.2873],[35.2278,31.3773],[35.2957,31.4218],[35.3563,31.4518],[35.4771,31.4964],[35.4751,31.4253],[35.4547,31.3603],[35.4139,31.2964],[35.3934,31.248],[35.4518,31.1636],[35.4592,31.1201],[35.45,31.0858],[35.4271,31.0453]]]}},{"type":"Feature","properties":{"code":"IL044","name":"Western Negev"},"geometry":{"type":"Polygon","coordinates":[[[34.7245,30.8201],[34.4741,30.7213],[34.3957,30.8766],[34.2673,31.2194],[34.2925,31.2404],[34.3316,31.2616],[34.344,31.2786],[34.3671,31.2896],[34.3729,31.3098],[34.4154,31.2917],[34.4246,31.2812],[34.4327,31.2449],[34.4832,31.1726],[34.5248,31.1653],[34.5426,31.1382],[34.6076,31.0948],[34.6323,30.9921],[34.633,30.9319],[34.7245,30.8201]]]}},{"type":"Feature","properties":{"code":"IL045","name":"Northern Arava"},"geometry":{"type":"Polygon","coordinates":[[[35.4271,31.0453],[35.4152,31.0242],[35.411,30.9924],[35.4156,30.9499],[35.3887,30.9273],[35.3591,30.914],[35.3333,30.8621],[35.3344,30.813],[35.3162,30.8045],[35.2957,30.7762],[35.29,30.7312],[35.273,30.6874],[35.2312,30.6189],[35.2092,30.5914],[35.2043,30.5422],[35.1864,30.5217],[35.1918,30.4914],[35.1728,30.4565],[35.1562,30.4432],[35.1558,30.4213],[35.1611,30.4118],[35.1204,30.3703],[35.0858,30.3623],[35.1241,30.5348],[35.1419,30.7377],[35.1318,30.8138],[35.1117,30.8299],[35.0935,30.834],[35.0807,30.8312],[35.0092,30.7825],[35.0162,30.8253],[35.1206,30.9029],[35.206,30.9404],[35.1914,30.9495],[35.1917,30.9654],[35.2024,30.9712],[35.2163,30.9709],[35.2174,30.9562],[35.2266,30.9597],[35.2297,30.9692],[35.3072,31.0526],[35.296,31.081],[35.2946,31.1045],[35.3651,31.0659],[35.4271,31.0453]]]}},{"type":"Feature","properties":{"code":"IL046","name":"Negev Mountains"},"geometry":{"type":"Polygon","coordinates":[[[34.896,30.7283],[34.8864,30.7252],[34.8911,30.6731],[34.8164,30.6262],[34.8062,30.6059],[34.7761,30.5933],[34.7737,30.5294],[34.7367,30.5063],[34.7281,30.4911],[34.6397,30.3965],[34.6711,30.3483],[34.6617,30.3331],[34.622,30.3385],[34.6117,30.3683],[34.545,30.4069],[34.5444,30.4368],[34.5569,30.4926],[34.5182,30.5358],[34.5172,30.5971],[34.4905,30.6889],[34.4741,30.7213],[34.8404,30.8658],[34.8656,30.7676],[34.8723,30.7581],[34.8861,30.7556],[34.897,30.7384],[34.896,30.7283]]]}},{"type":"Feature","properties":{"code":"IL047","name":"Eestern Negev"},"geometry":{"type":"Polygon","coordinates":[[[35.0858,30.3623],[34.9562,30.3786],[34.8827,30.4072],[34.8005,30.4608],[34.7431,30.5103],[34.7737,30.5294],[34.7761,30.5933],[34.8062,30.6059],[34.8164,30.6262],[34.8911,30.6731],[34.8864,30.7252],[34.9598,30.7488],[35.0807,30.8312],[35.0935,30.834],[35.1117,30.8299],[35.1318,30.8138],[35.1419,30.7377],[35.1241,30.5348],[35.0858,30.3623]]]}},{"type":"Feature","properties":{"code":"IL048","name":"Southern Negev"},"geometry":{"type":"Polygon","coordinates":[[[35.0857,30.3612],[35.0711,30.2492],[35.0694,30.0461],[35.0228,29.9488],[35.0056,29.8823],[34.983,29.8874],[34.9553,29.8752],[34.8788,29.8126],[34.8305,29.8011],[34.622,30.3385],[34.6617,30.3331],[34.6711,30.3483],[34.6397,30.3965],[34.7431,30.5103],[34.8005,30.4608],[34.8827,30.4072],[34.9562,30.3786],[35.0857,30.3612]]]}},{"type":"Feature","properties":{"code":"IL049","name":"Eilat Gulf & Southern Arava"},"geometry":{"type":"Polygon","coordinates":[[[34.8874,29.5265],[34.901,29.5391],[34.9191,29.5758],[34.9239,29.6135],[34.9478,29.6634],[34.9531,29.6974],[34.951,29.7352],[34.935,29.7697],[34.9355,29.7878],[34.9963,29.8525],[35.0228,29.9488],[35.0694,30.0461],[35.0711,30.2492],[35.0858,30.3623],[35.1204,30.3703],[35.1611,30.4118],[35.173,30.3904],[35.1862,30.3433],[35.1604,30.3101],[35.1651,30.2951],[35.1413,30.2337],[35.1721,30.131],[35.1484,30.0879],[35.1214,30.0612],[35.0947,30.0186],[35.0885,29.9727],[35.0921,29.9698],[35.0792,29.9525],[35.0754,29.8562],[35.0365,29.7702],[35.0206,29.7218],[35.024,29.6509],[34.9807,29.5767],[34.978,29.5424],[34.9555,29.5495],[34.9061,29.4932],[34.8874,29.5265]]]}},{"type":"Feature","properties":{"code":"IL050","name":"Elat Mountains"},"geometry":{"type":"Polygon","coordinates":[[[35.0056,29.8823],[34.9963,29.8525],[34.9355,29.7878],[34.935,29.7697],[34.951,29.7352],[34.9531,29.6974],[34.9478,29.6634],[34.9239,29.6135],[34.9191,29.5758],[34.901,29.5391],[34.8874,29.5265],[34.8697,29.5956],[34.879,29.6099],[34.8812,29.642],[34.8549,29.6885],[34.8454,29.7614],[34.8305,29.8011],[34.8788,29.8126],[34.9553,29.8752],[34.983,29.8874],[35.0056,29.8823]]]}},{"type":"Feature","properties":{"code":"IL801","name":"Sea - North"},"geometry":{"type":"Polygon","coordinates":[[[35.1007,33.0494],[35.0881,33.0137],[35.0708,32.9314],[35.0825,32.9061],[35.0774,32.8793],[35.0597,32.8431],[35.0277,32.8132],[35.004,32.8184],[34.9805,32.8367],[34.9555,32.8258],[34.9473,32.7371],[34.9282,32.7012],[34.9103,32.5772],[34.9018,32.5481],[34.6979,32.5574],[34.7669,32.8946],[34.7883,32.9368],[34.8816,33.0127],[34.9038,33.0965],[35.1034,33.0917],[35.1007,33.0494]]]}},{"type":"Feature","properties":{"code":"IL802","name":"Sea - Center"},"geometry":{"type":"Polygon","coordinates":[[[34.6979,32.5574],[34.9018,32.5481],[34.8294,32.2691],[34.7839,32.1291],[34.7538,32.0572],[34.7465,32.0529],[34.7186,31.9702],[34.6887,31.9182],[34.6599,31.8524],[34.4791,31.9397],[34.52,32.022],[34.5601,32.1244],[34.5851,32.168],[34.6402,32.3301],[34.6979,32.5574]]]}},{"type":"Feature","properties":{"code":"IL803","name":"Sea - South"},"geometry":{"type":"Polygon","coordinates":[[[34.6599,31.8524],[34.5898,31.7308],[34.4905,31.5962],[34.3217,31.6991],[34.4441,31.8746],[34.4791,31.9397],[34.6599,31.8524]]]}}]}