{"type":"FeatureCollection","features":[{"type":"Feature","properties":{"code":"IS001","name":"Reykjavik - Capital Region"},"geometry":{"type":"Polygon","coordinates":[[[-21.5822,64.1122],[-21.6052,64.0912],[-21.9483,63.9749],[-22.0815,64.0391],[-22.0438,64.064],[-21.786,64.188],[-21.7555,64.1825],[-21.6188,64.131],[-21.5822,64.1122]]]}},{"type":"Feature","properties":{"code":"IS002","name":"South Iceland"},"geometry":{"type":"Polygon","coordinates":[[[-19.0447,63.565],[-19.0469,63.5335],[-19.0356,63.4172],[-19.0644,63.4057],[-19.1538,63.4],[-20.0044,63.537],[-20.4365,63.6335],[-21.3728,63.8641],[-21.4128,63.8653],[-21.988,63.8349],[-22.5681,63.8117],[-22.5957,63.8221],[-22.5584,63.8359],[-21.9146,63.9833],[-21.6052,64.0912],[-21.5822,64.1122],[-21.5365,64.1149],[-20.6945,64.4],[-20.6693,64.4135],[-20.3525,64.4075],[-20.1067,64.4398],[-20.0282,64.4574],[-19.9916,64.4596],[-19.7866,64.3873],[-19.4367,64.1867],[-19.4128,64.1611],[-19.418,64.1176],[-19.4331,64.0786],[-19.5374,63.9909],[-19.5624,63.9592],[-19.5486,63.9322],[-19.3921,63.6859],[-19.3521,63.662],[-19.0705,63.5695],[-19.0447,63.565]]]}},{"type":"Feature","properties":{"code":"IS003","name":"Faxafloi - Southwest Iceland"},"geometry":{"type":"MultiPolygon","coordinates":[[[[-22.0815,64.0391],[-21.9483,63.9749],[-22.5584,63.8359],[-22.5957,63.8221],[-22.6637,63.8106],[-22.69,63.8086],[-22.7229,63.8276],[-22.7436,63.8575],[-22.75,63.8862],[-22.7262,64.0247],[-22.7104,64.0571],[-22.5529,64.0219],[-22.3949,63.9972],[-22.0815,64.0391]]],[[[-21.4177,64.8839],[-20.5954,64.8397],[-20.5636,64.8306],[-20.568,64.785],[-20.9674,64.6345],[-20.9813,64.5978],[-20.9913,64.552],[-20.9623,64.5285],[-20.6693,64.4135],[-20.6945,64.4],[-21.5365,64.1149],[-21.5822,64.1122],[-21.6188,64.131],[-21.7555,64.1825],[-21.786,64.188],[-21.8185,64.2022],[-21.9289,64.2364],[-22.0637,64.3008],[-22.1044,64.3258],[-22.3536,64.5546],[-22.3653,64.5849],[-22.3659,64.6249],[-22.3577,64.6601],[-22.3254,64.7446],[-22.3538,64.7669],[-22.4225,64.7946],[-22.4622,64.7999],[-23.3574,64.8246],[-23.8036,64.7921],[-23.8334,64.8005],[-23.7981,64.8196],[-23.4236,64.8646],[-22.2397,64.914],[-21.4177,64.8839]]]]}},{"type":"Feature","properties":{"code":"IS004","name":"Breidafjordur - Westnorthwest Iceland"},"geometry":{"type":"Polygon","coordinates":[[[-22.0531,65.6429],[-21.6749,65.4615],[-21.653,65.4392],[-21.5898,65.3617],[-21.576,65.333],[-21.4175,64.9175],[-21.4177,64.8839],[-22.2397,64.914],[-23.4236,64.8646],[-23.7981,64.8196],[-23.8334,64.8005],[-23.9609,64.7828],[-24.0373,64.8436],[-24.0514,64.8771],[-24.0268,64.8901],[-23.9309,64.9161],[-23.8927,64.9208],[-22.9412,64.9995],[-22.3157,65.1207],[-22.2731,65.1383],[-22.0699,65.3474],[-22.0502,65.3706],[-22.0598,65.4014],[-22.1139,65.4897],[-22.1534,65.497],[-23.2314,65.4825],[-23.9406,65.4597],[-24.3974,65.4917],[-24.4249,65.5004],[-24.3964,65.5799],[-24.3763,65.609],[-24.1407,65.7789],[-24.108,65.7914],[-23.4584,65.553],[-23.4208,65.5514],[-23.2178,65.569],[-22.8199,65.639],[-22.5287,65.6798],[-22.0869,65.6497],[-22.0531,65.6429]]]}},{"type":"Feature","properties":{"code":"IS005","name":"Westfjords"},"geometry":{"type":"Polygon","coordinates":[[[-22.5281,66.445],[-22.14,66.0171],[-22.0917,65.8707],[-22.0649,65.7604],[-22.0531,65.6429],[-22.0869,65.6497],[-22.5287,65.6798],[-22.8199,65.639],[-23.2178,65.569],[-23.4208,65.5514],[-23.4584,65.553],[-24.108,65.7914],[-24.0816,65.8077],[-23.8991,65.8729],[-23.8708,65.8964],[-23.8189,66.0384],[-23.7977,66.0602],[-23.6046,66.1531],[-23.5355,66.1787],[-23.4745,66.1939],[-23.3799,66.1904],[-23.3059,66.1813],[-22.7013,66.048],[-22.5483,65.9914],[-22.4773,65.9571],[-22.4402,65.9592],[-22.3987,65.9706],[-22.395,66.0127],[-22.4324,66.2281],[-22.4466,66.2557],[-23.045,66.2946],[-23.1687,66.3291],[-23.202,66.3486],[-23.1879,66.3733],[-23.1489,66.4212],[-23.117,66.4339],[-22.9368,66.4695],[-22.5688,66.4594],[-22.5281,66.445]]]}},{"type":"Feature","properties":{"code":"IS006","name":"Northwest Iceland"},"geometry":{"type":"Polygon","coordinates":[[[-18.8409,66.1951],[-18.8363,66.1571],[-18.8365,66.0276],[-18.62,65.2287],[-18.4913,65.1357],[-18.5412,65.1299],[-19.5421,65.1125],[-20.0139,64.9922],[-20.5268,64.8503],[-20.5636,64.8306],[-20.5954,64.8397],[-21.3774,64.8792],[-21.4177,64.8839],[-21.4175,64.9175],[-21.5898,65.3617],[-21.6749,65.4615],[-22.0531,65.6429],[-22.0649,65.7604],[-22.0917,65.8707],[-22.14,66.0171],[-22.5281,66.445],[-22.5021,66.4534],[-22.4401,66.4396],[-21.6254,66.0869],[-21.6078,66.0672],[-21.4013,65.7526],[-21.3785,65.7241],[-20.9996,65.531],[-20.9646,65.5287],[-20.6599,65.6621],[-20.6203,65.6841],[-20.1107,66.0974],[-20.0822,66.0871],[-20.002,66.0192],[-19.6729,65.7672],[-19.6432,65.7506],[-19.608,65.7421],[-19.4577,65.7377],[-19.4044,65.7568],[-19.375,65.8056],[-19.3725,65.8334],[-19.425,65.9162],[-19.4391,65.9495],[-19.4442,66.0427],[-19.4185,66.0552],[-19.3534,66.0739],[-18.8409,66.1951]]]}},{"type":"Feature","properties":{"code":"IS007","name":"Northeast Iceland"},"geometry":{"type":"Polygon","coordinates":[[[-14.8342,66.3211],[-14.871,66.3192],[-15.0161,66.2717],[-15.787,65.8915],[-15.7906,65.8436],[-15.7753,65.5752],[-15.7854,65.5291],[-16.3026,65.4697],[-16.6757,65.4678],[-16.7233,65.4634],[-16.9154,65.3785],[-16.9539,65.3704],[-17.2521,65.3209],[-17.7359,65.2546],[-18.4481,65.1355],[-18.4913,65.1357],[-18.62,65.2287],[-18.8365,66.0276],[-18.8363,66.1571],[-18.8409,66.1951],[-16.9857,66.1161],[-16.9466,66.12],[-16.5787,66.4613],[-16.5422,66.4668],[-15.6946,66.3786],[-14.847,66.3557],[-14.8132,66.3445],[-14.8342,66.3211]]]}},{"type":"Feature","properties":{"code":"IS008","name":"East Iceland"},"geometry":{"type":"Polygon","coordinates":[[[-13.6558,65.5226],[-13.9492,65.4099],[-13.9861,65.3921],[-14.1575,65.2068],[-14.3194,65.0521],[-14.6085,64.796],[-14.6437,64.7813],[-14.8068,64.9477],[-14.9473,65.0763],[-15.1266,65.2285],[-15.3735,65.4125],[-15.5011,65.4957],[-15.5433,65.5055],[-15.7854,65.5291],[-15.7753,65.5752],[-15.7906,65.8436],[-15.787,65.8915],[-15.0161,66.2717],[-14.871,66.3192],[-14.8342,66.3211],[-14.8518,66.2998],[-15.121,66.1434],[-15.1428,66.1184],[-15.1253,66.084],[-14.9182,65.7511],[-14.8922,65.7359],[-14.8326,65.7139],[-14.3514,65.6864],[-13.8855,65.6084],[-13.7098,65.5556],[-13.6749,65.5422],[-13.6558,65.5226]]]}},{"type":"Feature","properties":{"code":"IS009","name":"Eastfjords"},"geometry":{"type":"Polygon","coordinates":[[[-14.5733,64.4439],[-14.6023,64.4604],[-14.9611,64.5605],[-14.6799,64.7445],[-14.6437,64.7813],[-14.6085,64.796],[-14.3194,65.0521],[-14.1814,65.1829],[-13.9861,65.3921],[-13.9492,65.4099],[-13.6558,65.5226],[-13.6356,65.502],[-13.6137,65.4465],[-13.515,65.1224],[-13.5088,65.0774],[-13.5372,65.0443],[-13.8261,64.8076],[-13.8605,64.7865],[-14.011,64.7184],[-14.0939,64.6968],[-14.2103,64.6852],[-14.2485,64.6747],[-14.4955,64.4662],[-14.5357,64.443],[-14.5733,64.4439]]]}},{"type":"Feature","properties":{"code":"IS010","name":"Southeast Iceland"},"geometry":{"type":"Polygon","coordinates":[[[-14.5733,64.4439],[-14.6058,64.4313],[-14.73,64.4156],[-15.2104,64.3106],[-15.6579,64.211],[-15.9129,64.1484],[-16.0058,64.1179],[-16.2453,64.0201],[-17.149,63.7604],[-18.0109,63.5045],[-18.2015,63.4568],[-18.7269,63.3891],[-18.7761,63.3872],[-19.0096,63.4056],[-19.0356,63.4172],[-19.0469,63.5335],[-19.0447,63.565],[-18.6372,63.759],[-17.9515,64.1977],[-17.9262,64.2095],[-17.6523,64.2488],[-16.3826,64.365],[-14.9611,64.5605],[-14.6023,64.4604],[-14.5733,64.4439]]]}},{"type":"Feature","properties":{"code":"IS011","name":"Central highlands"},"geometry":{"type":"Polygon","coordinates":[[[-14.6437,64.7813],[-14.6799,64.7445],[-14.9611,64.5605],[-16.3826,64.365],[-17.6523,64.2488],[-17.9262,64.2095],[-17.9515,64.1977],[-18.6372,63.759],[-19.0447,63.565],[-19.0705,63.5695],[-19.3521,63.662],[-19.3921,63.6859],[-19.5624,63.9592],[-19.5374,63.9909],[-19.4331,64.0786],[-19.418,64.1176],[-19.4128,64.1611],[-19.4367,64.1867],[-19.7866,64.3873],[-19.9916,64.4596],[-20.0282,64.4574],[-20.1067,64.4398],[-20.3525,64.4075],[-20.6693,64.4135],[-20.9623,64.5285],[-20.9913,64.552],[-20.9813,64.5978],[-20.9674,64.6345],[-20.568,64.785],[-20.5636,64.8306],[-20.5268,64.8503],[-20.0139,64.9922],[-19.5421,65.1125],[-18.5412,65.1299],[-18.4481,65.1355],[-17.7359,65.2546],[-17.2521,65.3209],[-16.9539,65.3704],[-16.9154,65.3785],[-16.7233,65.4634],[-16.6757,65.4678],[-16.3026,65.4697],[-15.7854,65.5291],[-15.5433,65.5055],[-15.5011,65.4957],[-15.3735,65.4125],[-15.1266,65.2285],[-14.9473,65.0763],[-14.8068,64.9477],[-14.6437,64.7813]]]}}]}