{"type":"FeatureCollection","features":[{"type":"Feature","properties":{"code":"IT001","name":"Calabria"},"geometry":{"type":"Polygon","coordinates":[[[16.6484,40.1169],[16.621,40.1323],[16.4211,40.1426],[16.3501,39.8992],[16.3103,39.9347],[16.1835,39.9085],[16.0478,39.8984],[16.0158,39.9407],[16.0324,39.9956],[15.8487,40.007],[15.8201,40.0026],[15.7937,39.9715],[15.7735,39.9607],[15.7683,39.9375],[15.7506,39.921],[15.7692,39.8989],[15.7639,39.8358],[15.8053,39.6784],[15.8812,39.5419],[15.9289,39.5174],[15.9585,39.4748],[15.9917,39.4433],[16.0221,39.3724],[16.0522,39.2728],[16.0553,39.172],[16.0941,39.0319],[16.1565,38.9494],[16.2132,38.9233],[16.2204,38.8474],[16.2165,38.8193],[16.1819,38.7483],[16.1571,38.7374],[16.1393,38.7209],[16.1277,38.7249],[16.1035,38.7139],[16.0554,38.7266],[15.9839,38.7232],[15.9498,38.6932],[15.9378,38.6929],[15.8476,38.6635],[15.8206,38.6206],[15.9283,38.5435],[15.9092,38.4749],[15.8801,38.4296],[15.8556,38.3789],[15.8339,38.3607],[15.8277,38.3227],[15.8059,38.2906],[15.7731,38.2693],[15.7348,38.2529],[15.714,38.2581],[15.7074,38.2512],[15.6925,38.2516],[15.6295,38.2299],[15.6332,38.186],[15.6394,38.1701],[15.6526,38.156],[15.6456,38.1211],[15.6289,38.0979],[15.6333,38.0756],[15.6497,38.0485],[15.654,38.0308],[15.6338,38.0199],[15.6542,37.9787],[15.6721,37.957],[15.7236,37.9282],[15.7538,37.9173],[15.784,37.9141],[15.8926,37.9268],[15.9919,37.9134],[16.0228,37.9228],[16.0565,37.9213],[16.0835,37.9412],[16.1166,37.9812],[16.1469,38.0386],[16.1637,38.1193],[16.3005,38.2677],[16.3319,38.29],[16.4975,38.3565],[16.5753,38.4284],[16.5889,38.4596],[16.5584,38.6838],[16.5356,38.7108],[16.5479,38.7303],[16.5702,38.752],[16.5797,38.777],[16.6089,38.8081],[16.6396,38.8289],[16.8097,38.9056],[16.9765,38.9383],[16.9929,38.9316],[17.0072,38.9128],[17.0247,38.9054],[17.0455,38.9189],[17.0891,38.9098],[17.0893,38.8959],[17.094,38.8915],[17.1712,38.9565],[17.1624,38.9813],[17.1805,39.0108],[17.211,39.0259],[17.1546,39.0436],[17.137,39.0831],[17.1099,39.1113],[17.1511,39.2062],[17.113,39.246],[17.1126,39.2869],[17.1197,39.3282],[17.1587,39.4029],[17.1011,39.4133],[17.0516,39.4403],[17.0241,39.4842],[16.9259,39.5142],[16.8342,39.5631],[16.8174,39.5927],[16.7582,39.6266],[16.735,39.6169],[16.6186,39.6224],[16.5554,39.6496],[16.5291,39.6678],[16.5317,39.7221],[16.4955,39.7481],[16.4868,39.7908],[16.498,39.8208],[16.6341,39.9611],[16.6176,39.9829],[16.6006,40.0418],[16.6101,40.0841],[16.6251,40.1018],[16.6484,40.1169]]]}},{"type":"Feature","properties":{"code":"IT002","name":"Trentino Alto Adige"},"geometry":{"type":"Polygon","coordinates":[[[12.2379,47.0695],[12.2266,47.0823],[12.1856,47.092],[12.1512,47.0788],[12.1361,47.0807],[12.1193,47.0733],[12.0959,47.0777],[12.0766,47.059],[12.043,47.0614],[12.0209,47.0478],[11.9804,47.0496],[11.9566,47.0388],[11.9331,47.0371],[11.8313,46.9929],[11.7823,46.9917],[11.7643,46.9732],[11.7472,46.9689],[11.728,46.9727],[11.7111,46.9932],[11.6648,46.9919],[11.6348,47.0035],[11.6271,47.0133],[11.5812,47.002],[11.5815,46.9973],[11.5377,46.9845],[11.5021,47.0096],[11.4789,47.0109],[11.4608,46.9919],[11.4531,46.9932],[11.4403,46.9752],[11.4054,46.9648],[11.3823,46.9705],[11.3587,46.9906],[11.3386,46.9851],[11.32,46.992],[11.3067,46.9839],[11.2881,46.986],[11.2636,46.9808],[11.257,46.9747],[11.2069,46.9625],[11.2028,46.9682],[11.1899,46.9706],[11.1765,46.9624],[11.1643,46.9657],[11.1632,46.9501],[11.1681,46.945],[11.1563,46.9348],[11.1389,46.9275],[11.1149,46.9314],[11.109,46.9158],[11.0971,46.9139],[11.1018,46.8897],[11.0725,46.8566],[11.0741,46.8432],[11.0704,46.838],[11.0781,46.8338],[11.0834,46.8224],[11.0569,46.8084],[11.0403,46.8056],[11.0442,46.8014],[11.0222,46.7654],[11.0139,46.7721],[10.9954,46.767],[10.9232,46.7756],[10.8827,46.7629],[10.8369,46.782],[10.8255,46.7731],[10.8145,46.7752],[10.7858,46.7964],[10.7548,46.7852],[10.7306,46.7882],[10.7256,46.7976],[10.7454,46.8038],[10.7514,46.8149],[10.7639,46.8227],[10.7555,46.8327],[10.7221,46.8381],[10.7168,46.8472],[10.7057,46.8467],[10.6925,46.853],[10.6968,46.8627],[10.6673,46.8755],[10.5462,46.8374],[10.5531,46.8501],[10.4947,46.8482],[10.4862,46.8551],[10.4696,46.8548],[10.4464,46.8035],[10.4264,46.7916],[10.4448,46.7537],[10.3998,46.733],[10.4197,46.7193],[10.3824,46.6844],[10.4017,46.6389],[10.4469,46.6395],[10.4937,46.6163],[10.4805,46.5705],[10.4529,46.5309],[10.4729,46.4968],[10.546,46.4933],[10.6208,46.4515],[10.6266,46.3992],[10.5192,46.3507],[10.5745,46.3065],[10.5649,46.2839],[10.585,46.2464],[10.5405,46.1873],[10.5642,46.1698],[10.4581,45.9926],[10.5014,45.9074],[10.5024,45.8271],[10.5521,45.7857],[10.6469,45.8029],[10.705,45.8445],[10.8406,45.8341],[10.8875,45.8177],[10.8466,45.7196],[10.9446,45.6725],[11.0024,45.7107],[11.0522,45.7152],[11.1277,45.6919],[11.177,45.7375],[11.2576,45.9174],[11.3023,45.9333],[11.3459,45.9113],[11.3895,45.9848],[11.5725,46.0098],[11.591,45.9719],[11.6852,45.9712],[11.6852,46.0954],[11.8862,46.1201],[11.9626,46.1898],[11.7711,46.367],[11.8267,46.3712],[11.8822,46.4677],[11.8107,46.4946],[11.9255,46.5385],[12.0006,46.5357],[12.0715,46.6749],[12.1981,46.6057],[12.268,46.6241],[12.3874,46.6255],[12.4368,46.6671],[12.4792,46.6795],[12.3804,46.7165],[12.3557,46.775],[12.3096,46.7844],[12.2846,46.7835],[12.281,46.7883],[12.2918,46.8029],[12.2843,46.8153],[12.3063,46.8357],[12.2742,46.883],[12.2402,46.89],[12.2152,46.8709],[12.1937,46.9032],[12.1444,46.9141],[12.1676,46.9374],[12.1379,46.9627],[12.1217,47.0113],[12.1471,47.0242],[12.2037,47.0268],[12.2173,47.0587],[12.2379,47.0695]]]}},{"type":"Feature","properties":{"code":"IT003","name":"Lombardia"},"geometry":{"type":"Polygon","coordinates":[[[10.4529,46.5309],[10.4187,46.5498],[10.4003,46.5436],[10.3555,46.555],[10.3395,46.5418],[10.3258,46.5509],[10.3135,46.5465],[10.2968,46.5505],[10.2875,46.5671],[10.2675,46.5776],[10.2548,46.5703],[10.2471,46.5717],[10.238,46.5907],[10.2569,46.6108],[10.2388,46.6343],[10.216,46.616],[10.1924,46.6238],[10.1414,46.6068],[10.1033,46.6106],[10.0995,46.5827],[10.0807,46.5748],[10.0845,46.5668],[10.0655,46.5499],[10.0473,46.5441],[10.0541,46.5209],[10.0433,46.5103],[10.0484,46.4996],[10.0448,46.4768],[10.054,46.4646],[10.0392,46.4467],[10.0563,46.441],[10.0641,46.4264],[10.0774,46.4284],[10.0803,46.4211],[10.0999,46.4214],[10.1077,46.4279],[10.1168,46.426],[10.1297,46.4321],[10.1433,46.4283],[10.1491,46.4131],[10.1611,46.4155],[10.1668,46.4082],[10.1623,46.4049],[10.1643,46.3908],[10.1576,46.3855],[10.1468,46.3871],[10.1272,46.3776],[10.1291,46.3611],[10.1084,46.3523],[10.1052,46.3332],[10.1171,46.3141],[10.1524,46.2943],[10.1766,46.2585],[10.1461,46.2307],[10.1319,46.2249],[10.0905,46.2284],[10.0709,46.217],[10.0437,46.2296],[10.0537,46.2357],[10.0608,46.2492],[10.0541,46.2669],[9.9958,46.2851],[9.9924,46.2971],[10.0009,46.3034],[9.9961,46.3072],[10.0001,46.313],[9.9802,46.3228],[9.9961,46.343],[9.995,46.3522],[9.9854,46.3519],[9.9642,46.364],[9.9557,46.374],[9.9586,46.3782],[9.9391,46.3765],[9.9256,46.366],[9.9071,46.3815],[9.8683,46.3622],[9.8327,46.3612],[9.8185,46.3497],[9.7775,46.335],[9.7626,46.3389],[9.7436,46.3519],[9.737,46.3507],[9.7229,46.3408],[9.7277,46.3328],[9.7177,46.3217],[9.7261,46.3199],[9.725,46.3105],[9.7183,46.306],[9.7143,46.293],[9.6893,46.2933],[9.6769,46.303],[9.6691,46.296],[9.6393,46.2861],[9.6188,46.2873],[9.6104,46.2945],[9.5833,46.2944],[9.5603,46.3062],[9.5496,46.3023],[9.5141,46.333],[9.508,46.3518],[9.4949,46.365],[9.4611,46.3764],[9.4677,46.3964],[9.4545,46.4195],[9.4627,46.4804],[9.4496,46.4801],[9.4494,46.4845],[9.4609,46.4848],[9.4635,46.5089],[9.4351,46.4982],[9.4246,46.4889],[9.4242,46.4757],[9.4132,46.4673],[9.3976,46.4697],[9.3798,46.4842],[9.3684,46.4949],[9.3733,46.5045],[9.3628,46.5089],[9.3557,46.5044],[9.3105,46.504],[9.283,46.497],[9.2736,46.4657],[9.2775,46.4615],[9.2663,46.4507],[9.2469,46.4467],[9.249,46.4319],[9.2651,46.4202],[9.2756,46.4196],[9.2817,46.4097],[9.2769,46.3928],[9.2847,46.3856],[9.2758,46.3724],[9.2824,46.3581],[9.2962,46.3557],[9.3001,46.3441],[9.2931,46.3329],[9.2993,46.3275],[9.2954,46.3167],[9.2842,46.3125],[9.284,46.2978],[9.255,46.2716],[9.2471,46.2332],[9.2213,46.2291],[9.2171,46.213],[9.2028,46.208],[9.1944,46.1797],[9.1819,46.169],[9.1607,46.1702],[9.1345,46.1517],[9.121,46.1353],[9.0725,46.118],[9.0897,46.0859],[9.0777,46.0643],[9.0222,46.0524],[9.0083,46.0297],[9.0285,45.9937],[8.9879,45.9705],[9.0141,45.9606],[9.0205,45.9292],[9.0596,45.9215],[9.0758,45.9104],[9.0779,45.9015],[9.0876,45.9018],[9.068,45.8758],[9.0562,45.8751],[9.0488,45.8623],[9.0518,45.8546],[9.0361,45.8403],[9.0342,45.823],[9.0176,45.8185],[8.9925,45.8219],[8.9967,45.8343],[8.9774,45.8363],[8.9707,45.832],[8.9481,45.8434],[8.9122,45.8305],[8.9138,45.8421],[8.9451,45.8669],[8.9373,45.8676],[8.9308,45.8855],[8.9216,45.8958],[8.925,45.9023],[8.9143,45.9178],[8.9076,45.9176],[8.8911,45.932],[8.8972,45.948],[8.8937,45.9591],[8.8784,45.9566],[8.8314,45.9882],[8.7933,45.9922],[8.786,45.9891],[8.8048,46.0217],[8.8351,46.0438],[8.828,46.0472],[8.8338,46.0519],[8.8441,46.0496],[8.8544,46.0626],[8.8522,46.0751],[8.8075,46.1009],[8.7996,46.0943],[8.7816,46.0941],[8.7597,46.1018],[8.7426,46.122],[8.7141,46.0972],[8.7291,46.0217],[8.5703,45.899],[8.5956,45.8248],[8.5516,45.7972],[8.5969,45.7215],[8.645,45.7252],[8.6439,45.6787],[8.6773,45.6787],[8.6809,45.6213],[8.7449,45.4969],[8.8468,45.3969],[8.7197,45.3747],[8.7584,45.3526],[8.717,45.3056],[8.6692,45.2949],[8.6204,45.3551],[8.5348,45.3469],[8.5312,45.3209],[8.5032,45.2961],[8.5328,45.2727],[8.5499,45.1888],[8.6658,45.0155],[8.7084,45.0346],[8.7561,45.0118],[8.8863,45.0601],[8.997,44.9197],[9.0654,44.8661],[9.0529,44.8404],[9.1078,44.811],[9.1689,44.7978],[9.2076,44.7304],[9.201,44.6867],[9.2342,44.6847],[9.237,44.7152],[9.2603,44.6807],[9.3256,44.6912],[9.3144,44.7177],[9.3303,44.734],[9.2801,44.7647],[9.3634,44.821],[9.3381,44.8699],[9.3236,44.8792],[9.3091,44.8763],[9.2905,44.8826],[9.2919,44.891],[9.2779,44.8957],[9.2946,44.9212],[9.2849,44.9307],[9.314,44.9363],[9.3564,45.0012],[9.3728,45.051],[9.4194,45.0839],[9.4353,45.082],[9.4422,45.0936],[9.5031,45.1026],[9.5328,45.0771],[9.5508,45.0917],[9.533,45.1274],[9.5479,45.135],[9.5841,45.1007],[9.6148,45.1134],[9.6184,45.134],[9.6368,45.1306],[9.6382,45.0821],[9.7191,45.0583],[9.7534,45.086],[9.7437,45.1117],[9.7625,45.112],[9.8232,45.0532],[9.8352,45.097],[9.8605,45.0983],[9.8781,45.0758],[9.9011,45.085],[9.874,45.124],[9.9146,45.1394],[9.9269,45.1269],[9.917,45.0987],[9.9811,45.136],[10.0299,45.0929],[10.0246,45.0746],[10.0522,45.0443],[10.081,45.0464],[10.1057,45.0206],[10.1645,45.0443],[10.1851,45.0306],[10.2192,45.0331],[10.3639,44.9657],[10.4062,44.9877],[10.4397,44.942],[10.5609,44.9053],[10.625,44.9241],[10.685,44.9869],[10.6973,44.9619],[10.7308,44.9956],[10.7467,44.9495],[10.8976,44.9146],[10.9987,44.9542],[11.0622,44.9497],[11.0732,44.9624],[11.1483,44.9408],[11.2673,44.9403],[11.3002,44.9616],[11.428,44.9501],[11.4222,44.9643],[11.273,45.0183],[11.263,45.0556],[11.1686,45.0615],[11.204,45.1099],[11.1418,45.1252],[11.0619,45.0967],[10.947,45.2154],[10.8455,45.2608],[10.7825,45.3184],[10.7353,45.288],[10.6865,45.3444],[10.716,45.4201],[10.6649,45.4277],[10.6467,45.418],[10.628,45.6045],[10.7079,45.6774],[10.8406,45.8341],[10.705,45.8445],[10.6469,45.8029],[10.5521,45.7857],[10.5024,45.8271],[10.5014,45.9074],[10.4581,45.9926],[10.5642,46.1698],[10.5405,46.1873],[10.585,46.2464],[10.5649,46.2839],[10.5745,46.3065],[10.5192,46.3507],[10.6266,46.3992],[10.6208,46.4515],[10.546,46.4933],[10.4729,46.4968],[10.4529,46.5309]]]}},{"type":"Feature","properties":{"code":"IT004","name":"Valle d'Aosta"},"geometry":{"type":"Polygon","coordinates":[[[7.8645,45.917],[7.8218,45.9273],[7.7997,45.9176],[7.7657,45.9379],[7.7484,45.9409],[7.7344,45.9243],[7.7187,45.924],[7.708,45.9333],[7.708,45.9506],[7.6799,45.9585],[7.6718,45.9712],[7.6599,45.9757],[7.6411,45.9694],[7.5855,45.9705],[7.579,45.9844],[7.5714,45.9889],[7.5455,45.9799],[7.5423,45.9757],[7.5461,45.9615],[7.5396,45.9562],[7.4986,45.9611],[7.4813,45.9551],[7.4722,45.948],[7.4738,45.9352],[7.4587,45.9364],[7.4452,45.9311],[7.4367,45.9224],[7.4096,45.9105],[7.3961,45.8966],[7.3624,45.9031],[7.357,45.9097],[7.3434,45.9139],[7.3252,45.9102],[7.2941,45.9224],[7.2833,45.9139],[7.2799,45.9022],[7.2576,45.8895],[7.2509,45.8937],[7.2218,45.8918],[7.2009,45.8763],[7.1955,45.8594],[7.1772,45.8617],[7.1556,45.8796],[7.1387,45.874],[7.1198,45.8603],[7.1009,45.8589],[7.0914,45.8768],[7.0644,45.9008],[7.0606,45.9135],[7.041,45.9229],[7.0144,45.9121],[7.0036,45.8984],[7.0077,45.8867],[6.9908,45.8688],[6.9631,45.8641],[6.9124,45.8424],[6.878,45.8495],[6.8644,45.834],[6.8421,45.842],[6.8185,45.8363],[6.8036,45.818],[6.8097,45.8005],[6.8023,45.7751],[6.8069,45.7475],[6.8159,45.7402],[6.809,45.7261],[6.8278,45.7032],[6.8424,45.6988],[6.8522,45.6871],[6.8951,45.6763],[6.9017,45.6803],[6.9066,45.676],[6.9051,45.6634],[6.9165,45.6596],[6.9175,45.6526],[6.931,45.6467],[6.968,45.6547],[6.9745,45.6467],[7.0007,45.6384],[6.9847,45.6233],[6.9791,45.5862],[6.995,45.5747],[6.991,45.5614],[6.9955,45.5439],[6.993,45.5296],[7.0042,45.5174],[7.0014,45.5037],[7.0209,45.4973],[7.0484,45.4964],[7.0574,45.4908],[7.0459,45.4824],[7.0481,45.4734],[7.1088,45.4666],[7.1204,45.4933],[7.1376,45.5148],[7.1465,45.4778],[7.1813,45.483],[7.2168,45.4706],[7.2952,45.5156],[7.3747,45.5163],[7.4806,45.5805],[7.5702,45.5891],[7.6106,45.5644],[7.6376,45.5738],[7.6763,45.5549],[7.7352,45.5549],[7.8312,45.5962],[7.9002,45.5868],[7.9069,45.6233],[7.9372,45.6386],[7.9053,45.6903],[7.9356,45.7244],[7.887,45.7585],[7.8639,45.7921],[7.8649,45.82],[7.8737,45.8272],[7.8649,45.8401],[7.8747,45.8609],[7.8664,45.8776],[7.8635,45.8982],[7.8676,45.9055],[7.8614,45.9102],[7.8645,45.917]]]}},{"type":"Feature","properties":{"code":"IT005","name":"Piemonte"},"geometry":{"type":"Polygon","coordinates":[[[8.7291,46.0217],[8.714,46.0973],[8.6567,46.111],[8.645,46.1218],[8.6116,46.1218],[8.6089,46.1323],[8.5928,46.1452],[8.6005,46.1542],[8.5742,46.164],[8.5638,46.1832],[8.5404,46.1981],[8.5301,46.2187],[8.4681,46.233],[8.4655,46.2444],[8.443,46.2502],[8.4482,46.2615],[8.4563,46.2635],[8.4277,46.2996],[8.4393,46.3048],[8.443,46.3199],[8.4652,46.3328],[8.4611,46.3545],[8.468,46.3626],[8.4603,46.3872],[8.4675,46.3957],[8.4616,46.4053],[8.4684,46.4115],[8.4564,46.4243],[8.4573,46.4348],[8.4656,46.4453],[8.4506,46.4621],[8.433,46.464],[8.3927,46.4519],[8.3669,46.4522],[8.3247,46.4259],[8.3067,46.4266],[8.2888,46.4083],[8.3158,46.3988],[8.3143,46.3903],[8.319,46.3865],[8.3122,46.3771],[8.2839,46.364],[8.2735,46.3673],[8.262,46.3637],[8.2647,46.3521],[8.2588,46.3488],[8.262,46.3466],[8.2516,46.347],[8.2496,46.3408],[8.2238,46.3352],[8.2234,46.3262],[8.2147,46.3208],[8.2117,46.3099],[8.198,46.3026],[8.1613,46.2959],[8.1374,46.3019],[8.0805,46.2597],[8.0869,46.2536],[8.1086,46.2481],[8.1151,46.2355],[8.138,46.2259],[8.165,46.177],[8.1507,46.1646],[8.1562,46.1469],[8.1443,46.1361],[8.1202,46.1323],[8.1083,46.1111],[8.0342,46.1007],[8.0219,46.0694],[8.0356,46.044],[8.0143,46.0316],[8.0136,46.0127],[8.0024,46.0118],[7.9895,45.9958],[7.978,45.9992],[7.9096,45.9967],[7.893,45.9793],[7.8804,45.9733],[7.8771,45.9489],[7.8703,45.9475],[7.8681,45.9366],[7.8771,45.927],[7.8614,45.9102],[7.8676,45.9055],[7.8635,45.8982],[7.8664,45.8776],[7.8747,45.8609],[7.8649,45.8401],[7.8737,45.8272],[7.8649,45.82],[7.8639,45.7921],[7.887,45.7585],[7.9356,45.7244],[7.9053,45.6903],[7.9372,45.6386],[7.9069,45.6233],[7.9002,45.5868],[7.8312,45.5962],[7.7352,45.5549],[7.6763,45.5549],[7.6376,45.5738],[7.6106,45.5644],[7.5702,45.5891],[7.4806,45.5805],[7.3747,45.5163],[7.2952,45.5156],[7.2168,45.4706],[7.1813,45.483],[7.1465,45.4778],[7.1376,45.5148],[7.1005,45.457],[7.119,45.431],[7.1409,45.4263],[7.183,45.405],[7.1611,45.3743],[7.1611,45.3613],[7.1325,45.3447],[7.1325,45.3305],[7.1123,45.3258],[7.1241,45.2891],[7.14,45.2886],[7.1241,45.2464],[7.0668,45.212],[7.05,45.2251],[6.9675,45.2037],[6.9439,45.1693],[6.8918,45.1669],[6.8918,45.1373],[6.8514,45.1266],[6.8093,45.1468],[6.7722,45.1574],[6.7453,45.1373],[6.7099,45.1456],[6.6847,45.1396],[6.6645,45.1206],[6.6308,45.1159],[6.6258,45.1028],[6.6594,45.0671],[6.6712,45.0208],[6.7251,45.0208],[6.7487,45.0017],[6.7402,44.9874],[6.7655,44.9624],[6.7487,44.935],[6.7485,44.9114],[6.7722,44.9028],[6.8274,44.8678],[6.8648,44.8503],[6.9103,44.8444],[6.9338,44.8623],[7.0062,44.8384],[7.0231,44.8229],[7.0046,44.7894],[7.0214,44.7679],[7.0262,44.7417],[7.0433,44.7153],[7.0685,44.7105],[7.0753,44.6794],[7.0332,44.6914],[6.9995,44.689],[6.9625,44.6794],[6.9462,44.6486],[6.9692,44.6207],[6.9408,44.6066],[6.9204,44.5596],[6.8564,44.5332],[6.8766,44.4815],[6.9456,44.4275],[6.8968,44.4227],[6.8906,44.3578],[6.9216,44.3519],[6.927,44.3335],[6.9538,44.3189],[6.9572,44.2961],[6.9701,44.2941],[6.9727,44.2845],[6.9815,44.2872],[6.9957,44.2806],[6.9977,44.2551],[7.0047,44.2373],[7.0293,44.2309],[7.035,44.2238],[7.0778,44.2323],[7.1487,44.1989],[7.1623,44.2086],[7.1789,44.1978],[7.1878,44.2009],[7.2203,44.1677],[7.2362,44.1751],[7.2781,44.1415],[7.3438,44.1444],[7.3497,44.1193],[7.3823,44.1154],[7.5101,44.1444],[7.6252,44.1518],[7.6354,44.1768],[7.6765,44.1739],[7.6668,44.1317],[7.7153,44.0842],[7.7144,44.0619],[7.7603,44.0843],[7.7336,44.0836],[7.7153,44.109],[7.7591,44.1404],[7.9376,44.1021],[8.0177,44.1073],[7.9773,44.1363],[8.0112,44.1565],[8.0625,44.1446],[8.0965,44.1746],[8.0705,44.2119],[8.0683,44.2554],[8.0914,44.2735],[8.0618,44.289],[8.0755,44.3138],[8.0986,44.2994],[8.1564,44.3769],[8.2251,44.43],[8.1947,44.4646],[8.2482,44.528],[8.3609,44.4687],[8.3912,44.4785],[8.4107,44.512],[8.4503,44.4988],[8.4692,44.5221],[8.4723,44.5123],[8.5712,44.5059],[8.5833,44.5296],[8.6169,44.5451],[8.5986,44.5571],[8.6235,44.5837],[8.6707,44.5781],[8.7211,44.5815],[8.7715,44.5143],[8.7693,44.4895],[8.7864,44.4873],[8.7867,44.4966],[8.8004,44.501],[8.7932,44.5221],[8.8277,44.5429],[8.824,44.5611],[8.8564,44.56],[8.8672,44.5668],[8.8909,44.5505],[8.9207,44.5655],[8.9027,44.6096],[8.9111,44.6125],[8.8949,44.6242],[8.8843,44.639],[8.9139,44.6512],[8.9238,44.674],[8.9596,44.6771],[8.9705,44.6638],[8.9935,44.6631],[9.0102,44.668],[9.0351,44.6422],[9.0453,44.615],[9.0769,44.6237],[9.105,44.6087],[9.1034,44.5902],[9.1419,44.572],[9.1966,44.5936],[9.2076,44.6249],[9.201,44.6867],[9.2076,44.7304],[9.1689,44.7978],[9.1078,44.811],[9.0529,44.8404],[9.0654,44.8661],[8.997,44.9197],[8.8863,45.0601],[8.7561,45.0118],[8.7084,45.0346],[8.6658,45.0155],[8.5499,45.1888],[8.5328,45.2727],[8.5032,45.2961],[8.5312,45.3209],[8.5348,45.3469],[8.6204,45.3551],[8.6692,45.2949],[8.717,45.3056],[8.7584,45.3526],[8.7197,45.3747],[8.8468,45.3969],[8.7449,45.4969],[8.6809,45.6213],[8.6773,45.6787],[8.6439,45.6787],[8.645,45.7252],[8.5969,45.7215],[8.5516,45.7972],[8.5956,45.8248],[8.5703,45.899],[8.7291,46.0217]]]}},{"type":"Feature","properties":{"code":"IT006","name":"Veneto"},"geometry":{"type":"Polygon","coordinates":[[[12.6432,46.6533],[12.6322,46.6613],[12.5668,46.6533],[12.5191,46.6769],[12.4792,46.6795],[12.4368,46.6671],[12.3874,46.6255],[12.268,46.6241],[12.1981,46.6057],[12.0715,46.6749],[12.0006,46.5357],[11.9255,46.5385],[11.8107,46.4946],[11.8822,46.4677],[11.8267,46.3712],[11.7711,46.367],[11.9626,46.1898],[11.8862,46.1201],[11.6852,46.0954],[11.6852,45.9712],[11.591,45.9719],[11.5725,46.0098],[11.3895,45.9848],[11.3459,45.9113],[11.3023,45.9333],[11.2576,45.9174],[11.177,45.7375],[11.1277,45.6919],[11.0522,45.7152],[11.0024,45.7107],[10.9446,45.6725],[10.8466,45.7196],[10.8875,45.8177],[10.8406,45.8341],[10.7079,45.6774],[10.628,45.6045],[10.6467,45.418],[10.6649,45.4277],[10.716,45.4201],[10.6865,45.3444],[10.7353,45.288],[10.7825,45.3184],[10.8455,45.2608],[10.947,45.2154],[11.0619,45.0967],[11.1418,45.1252],[11.204,45.1099],[11.1686,45.0615],[11.263,45.0556],[11.273,45.0183],[11.4222,44.9643],[11.428,44.9501],[11.427,44.9296],[11.5355,44.9365],[11.6157,44.8868],[11.8019,44.9767],[11.9618,44.9808],[12.0897,44.971],[12.1305,44.9323],[12.2127,44.9233],[12.2889,44.9393],[12.2874,44.8622],[12.3396,44.8495],[12.3517,44.8175],[12.4032,44.7877],[12.4712,44.8412],[12.557,44.9651],[12.5481,44.9783],[12.4689,45.0044],[12.3471,45.0889],[12.3314,45.122],[12.3331,45.1659],[12.3041,45.2064],[12.3369,45.3201],[12.3977,45.4236],[12.4356,45.4236],[12.7722,45.5425],[12.9089,45.6042],[13.1034,45.6345],[13.0637,45.6756],[12.96,45.8445],[12.9204,45.818],[12.8584,45.8479],[12.8105,45.8214],[12.7757,45.852],[12.6642,45.7949],[12.613,45.8341],[12.5733,45.8145],[12.5204,45.9026],[12.4262,45.9486],[12.4088,46.0521],[12.5058,46.1348],[12.45,46.201],[12.3543,46.2286],[12.337,46.2788],[12.5478,46.4706],[12.653,46.4664],[12.6206,46.5503],[12.7325,46.6346],[12.7163,46.6479],[12.69,46.6573],[12.6432,46.6533]]]}},{"type":"Feature","properties":{"code":"IT007","name":"Liguria"},"geometry":{"type":"Polygon","coordinates":[[[9.2036,44.6145],[9.1966,44.5936],[9.1419,44.572],[9.1034,44.5902],[9.105,44.6087],[9.0769,44.6237],[9.0453,44.615],[9.0351,44.6422],[9.0102,44.668],[8.9935,44.6631],[8.9705,44.6638],[8.9596,44.6771],[8.9238,44.674],[8.9139,44.6512],[8.8843,44.639],[8.8949,44.6242],[8.9111,44.6125],[8.9027,44.6096],[8.9207,44.5655],[8.8909,44.5505],[8.8672,44.5668],[8.8564,44.56],[8.824,44.5611],[8.8277,44.5429],[8.7932,44.5221],[8.8004,44.501],[8.7867,44.4966],[8.7864,44.4873],[8.7693,44.4895],[8.7715,44.5143],[8.7211,44.5815],[8.6707,44.5781],[8.6235,44.5837],[8.5986,44.5571],[8.6169,44.5451],[8.5833,44.5296],[8.5712,44.5059],[8.4723,44.5123],[8.4692,44.5221],[8.4503,44.4988],[8.4107,44.512],[8.3912,44.4785],[8.3609,44.4687],[8.2482,44.528],[8.1947,44.4646],[8.2251,44.43],[8.1564,44.3769],[8.0986,44.2994],[8.0755,44.3138],[8.0618,44.289],[8.0914,44.2735],[8.0683,44.2554],[8.0705,44.2119],[8.0965,44.1746],[8.0625,44.1446],[8.0112,44.1565],[7.9773,44.1363],[8.0177,44.1073],[7.9376,44.1021],[7.7591,44.1404],[7.7153,44.109],[7.7336,44.0836],[7.7603,44.0843],[7.7144,44.0619],[7.697,44.0397],[7.6662,44.0323],[7.6662,43.9895],[7.6107,43.9557],[7.5697,43.9481],[7.5574,43.8963],[7.5122,43.8845],[7.4958,43.8549],[7.5302,43.7822],[7.6735,43.7743],[7.7068,43.789],[7.9662,43.8493],[8.0786,43.8921],[8.1752,43.9536],[8.2102,44.0336],[8.2289,44.0422],[8.2353,44.0969],[8.2906,44.1503],[8.4089,44.1794],[8.4416,44.2062],[8.4591,44.2573],[8.4972,44.3054],[8.5082,44.3274],[8.5447,44.3343],[8.6896,44.3961],[8.6943,44.4069],[8.7333,44.4191],[8.7683,44.4219],[8.864,44.4016],[9.0307,44.3801],[9.1417,44.3558],[9.1433,44.3163],[9.221,44.2956],[9.233,44.3465],[9.3721,44.2907],[9.3892,44.2523],[9.473,44.2317],[9.4852,44.2384],[9.5005,44.2186],[9.5728,44.1762],[9.6332,44.1316],[9.6777,44.1344],[9.7392,44.0905],[9.8237,44.0487],[9.851,44.0213],[9.9716,44.0332],[10.0186,44.0436],[10.0725,44.093],[10.0595,44.1086],[10.0334,44.1202],[10.0094,44.118],[9.9938,44.0936],[9.9842,44.0996],[9.9942,44.1058],[9.9946,44.1183],[9.9759,44.1367],[9.982,44.1436],[9.9733,44.1683],[9.8929,44.1673],[9.9295,44.1981],[9.9028,44.2117],[9.8621,44.1845],[9.8707,44.2266],[9.8522,44.2707],[9.7916,44.2924],[9.7288,44.3295],[9.7071,44.3668],[9.6779,44.3642],[9.6591,44.4072],[9.5687,44.438],[9.4393,44.419],[9.4728,44.4832],[9.4972,44.4805],[9.5037,44.5273],[9.4923,44.5601],[9.4376,44.5689],[9.4073,44.5994],[9.3824,44.5778],[9.3423,44.5801],[9.2962,44.6079],[9.2784,44.5952],[9.2486,44.6021],[9.254,44.6145],[9.2296,44.6187],[9.2036,44.6145]]]}},{"type":"Feature","properties":{"code":"IT008","name":"Emilia e Romagna"},"geometry":{"type":"Polygon","coordinates":[[[11.428,44.9501],[11.3002,44.9616],[11.2673,44.9403],[11.1483,44.9408],[11.0732,44.9624],[11.0622,44.9497],[10.9987,44.9542],[10.8976,44.9146],[10.7467,44.9495],[10.7308,44.9956],[10.6973,44.9619],[10.685,44.9869],[10.625,44.9241],[10.5609,44.9053],[10.4397,44.942],[10.4062,44.9877],[10.3639,44.9657],[10.2192,45.0331],[10.1851,45.0306],[10.1645,45.0443],[10.1057,45.0206],[10.081,45.0464],[10.0522,45.0443],[10.0246,45.0746],[10.0299,45.0929],[9.9811,45.136],[9.917,45.0987],[9.9269,45.1269],[9.9146,45.1394],[9.874,45.124],[9.9011,45.085],[9.8781,45.0758],[9.8605,45.0983],[9.8352,45.097],[9.8232,45.0532],[9.7625,45.112],[9.7437,45.1117],[9.7534,45.086],[9.7191,45.0583],[9.6382,45.0821],[9.6368,45.1306],[9.6184,45.134],[9.6148,45.1134],[9.5841,45.1007],[9.5479,45.135],[9.533,45.1274],[9.5508,45.0917],[9.5328,45.0771],[9.5031,45.1026],[9.4422,45.0936],[9.4353,45.082],[9.4194,45.0839],[9.3728,45.051],[9.3564,45.0012],[9.314,44.9363],[9.2849,44.9307],[9.2946,44.9212],[9.2779,44.8957],[9.2919,44.891],[9.2905,44.8826],[9.3091,44.8763],[9.3236,44.8792],[9.3381,44.8699],[9.3634,44.821],[9.2801,44.7647],[9.3303,44.734],[9.3144,44.7177],[9.3256,44.6912],[9.2603,44.6807],[9.237,44.7152],[9.2342,44.6847],[9.201,44.6867],[9.2076,44.6249],[9.2036,44.6145],[9.2296,44.6187],[9.254,44.6145],[9.2486,44.6021],[9.2784,44.5952],[9.2962,44.6079],[9.3423,44.5801],[9.3824,44.5778],[9.4073,44.5994],[9.4376,44.5689],[9.4923,44.5601],[9.5037,44.5273],[9.4972,44.4805],[9.4728,44.4832],[9.4393,44.419],[9.5687,44.438],[9.6591,44.4072],[9.6779,44.3642],[9.6842,44.3627],[9.7169,44.3836],[9.7346,44.3804],[9.8283,44.4693],[9.9664,44.4684],[9.9964,44.4107],[10.1909,44.3153],[10.4578,44.2148],[10.6026,44.1175],[10.6474,44.1613],[10.733,44.1591],[10.8725,44.1005],[10.9136,44.0635],[11.0086,44.1397],[11.0134,44.1045],[11.0738,44.0923],[11.148,44.1102],[11.2651,44.1027],[11.1969,44.1478],[11.3127,44.1736],[11.4286,44.2419],[11.5013,44.1601],[11.6154,44.1646],[11.5876,44.1163],[11.7564,44.1266],[11.6567,43.9901],[11.7169,43.892],[11.7407,43.864],[12.0217,43.7572],[12.1072,43.7509],[12.2839,43.7641],[12.3919,43.8946],[12.4297,43.8722],[12.4088,43.9023],[12.4052,43.9569],[12.4422,43.9619],[12.4753,43.9825],[12.5148,43.9937],[12.5183,43.9386],[12.4983,43.9129],[12.5299,43.8988],[12.545,43.8622],[12.5891,43.8876],[12.6212,43.8201],[12.68,43.8234],[12.7549,43.9701],[12.7007,43.9858],[12.6673,44.0067],[12.5775,44.0813],[12.5014,44.1221],[12.4224,44.1882],[12.3942,44.2188],[12.3671,44.2591],[12.3367,44.3669],[12.3,44.4551],[12.2849,44.6099],[12.2538,44.6746],[12.2461,44.7212],[12.2575,44.7674],[12.3027,44.8392],[12.3262,44.8279],[12.3097,44.79],[12.3657,44.7769],[12.4032,44.7877],[12.3517,44.8175],[12.3396,44.8495],[12.2874,44.8622],[12.2889,44.9393],[12.2127,44.9233],[12.1305,44.9323],[12.0897,44.971],[11.9618,44.9808],[11.8019,44.9767],[11.6157,44.8868],[11.5355,44.9365],[11.427,44.9296],[11.428,44.9501]]]}},{"type":"Feature","properties":{"code":"IT009","name":"Toscana"},"geometry":{"type":"MultiPolygon","coordinates":[[[[10.2874,42.7325],[10.3563,42.7415],[10.3849,42.704],[10.4406,42.7064],[10.4355,42.7429],[10.443,42.8467],[10.4258,42.8728],[10.4068,42.8749],[10.3429,42.7993],[10.3331,42.825],[10.2598,42.8324],[10.1766,42.812],[10.1263,42.8096],[10.1001,42.7873],[10.1012,42.7648],[10.1165,42.7451],[10.1437,42.7248],[10.2462,42.7239],[10.2504,42.7401],[10.2874,42.7325]]],[[[12.2839,43.7641],[12.1072,43.7509],[12.0217,43.7572],[11.7407,43.864],[11.7169,43.892],[11.6567,43.9901],[11.7564,44.1266],[11.5876,44.1163],[11.6154,44.1646],[11.5013,44.1601],[11.4286,44.2419],[11.3127,44.1736],[11.1969,44.1478],[11.2651,44.1027],[11.148,44.1102],[11.0738,44.0923],[11.0134,44.1045],[11.0086,44.1397],[10.9136,44.0635],[10.8725,44.1005],[10.733,44.1591],[10.6474,44.1613],[10.6026,44.1175],[10.4578,44.2148],[10.1909,44.3153],[9.9964,44.4107],[9.9664,44.4684],[9.8283,44.4693],[9.7346,44.3804],[9.7169,44.3836],[9.6842,44.3627],[9.7071,44.3668],[9.7288,44.3295],[9.7916,44.2924],[9.8522,44.2707],[9.8707,44.2266],[9.8621,44.1845],[9.9028,44.2117],[9.9295,44.1981],[9.8929,44.1673],[9.9734,44.1683],[9.982,44.1436],[9.9759,44.1367],[9.9946,44.1183],[9.9942,44.1058],[9.9845,44.0996],[9.9938,44.0936],[10.0094,44.118],[10.0334,44.1202],[10.0595,44.1086],[10.0725,44.093],[10.0184,44.0429],[10.0413,44.0253],[10.0522,44.0305],[10.0915,44.0095],[10.1516,43.967],[10.2137,43.8988],[10.2288,43.8641],[10.2602,43.7532],[10.2619,43.6779],[10.2738,43.5795],[10.3196,43.4761],[10.3673,43.4478],[10.4542,43.3242],[10.5132,43.2669],[10.5343,43.1337],[10.5111,43.0223],[10.4784,42.9899],[10.4825,42.9268],[10.5512,42.9122],[10.5656,42.9486],[10.6786,42.9462],[10.7685,42.91],[10.7082,42.7926],[10.9531,42.7283],[11.0161,42.6517],[11.0808,42.6118],[11.1163,42.5579],[11.1858,42.5182],[11.1584,42.44],[11.1013,42.4546],[11.0709,42.4114],[11.1629,42.3528],[11.2142,42.3703],[11.2167,42.4087],[11.2782,42.4057],[11.4473,42.3757],[11.4955,42.4409],[11.6258,42.4387],[11.5717,42.5186],[11.5929,42.5722],[11.6846,42.5927],[11.8107,42.6478],[11.7776,42.7003],[11.8179,42.7448],[11.7459,42.7867],[11.7733,42.8237],[11.809,42.7981],[11.8394,42.8358],[11.8943,42.8347],[11.936,42.8671],[11.9873,43.0576],[11.9616,43.0746],[11.9375,43.0515],[11.9159,43.1486],[12.0247,43.1892],[12.033,43.2461],[12.1112,43.2474],[12.2232,43.2857],[12.1977,43.3127],[12.1364,43.2939],[12.1112,43.3644],[12.0187,43.4089],[12.1426,43.4732],[12.087,43.5175],[12.1454,43.5327],[12.2116,43.6125],[12.1891,43.6378],[12.2491,43.6746],[12.2937,43.6843],[12.3095,43.7299],[12.3324,43.6757],[12.3725,43.7105],[12.3031,43.7565],[12.2839,43.7641]]]]}},{"type":"Feature","properties":{"code":"IT010","name":"Umbria"},"geometry":{"type":"Polygon","coordinates":[[[13.1491,42.6452],[13.2041,42.7683],[13.2407,42.765],[13.2628,42.8154],[13.2373,42.8597],[13.1548,42.8309],[13.0514,42.9226],[12.9804,42.8697],[12.8886,43.0122],[12.8717,43.1263],[12.8164,43.2748],[12.7618,43.3806],[12.7683,43.4753],[12.7025,43.4252],[12.6163,43.428],[12.4521,43.538],[12.3891,43.5179],[12.3317,43.5228],[12.3047,43.5506],[12.3415,43.5602],[12.3741,43.5836],[12.3609,43.6173],[12.2969,43.5905],[12.2252,43.5937],[12.2116,43.6125],[12.1454,43.5327],[12.087,43.5175],[12.1426,43.4732],[12.0187,43.4089],[12.1112,43.3644],[12.1364,43.2939],[12.1977,43.3127],[12.2232,43.2857],[12.1112,43.2474],[12.033,43.2461],[12.0247,43.1892],[11.9159,43.1486],[11.9375,43.0515],[11.9616,43.0746],[11.9873,43.0576],[11.936,42.8671],[11.8943,42.8347],[11.9807,42.7578],[11.9266,42.7007],[12.0343,42.6451],[12.1975,42.6738],[12.2845,42.5051],[12.344,42.4747],[12.4064,42.4996],[12.4544,42.3956],[12.5274,42.3787],[12.5749,42.3823],[12.6226,42.4666],[12.6636,42.4385],[12.7403,42.4705],[12.7116,42.499],[12.8967,42.5707],[12.8809,42.6086],[13.1491,42.6452]]]}},{"type":"Feature","properties":{"code":"IT011","name":"Marche"},"geometry":{"type":"Polygon","coordinates":[[[13.9194,42.8987],[13.8634,43.0379],[13.8513,43.0967],[13.7827,43.2327],[13.6648,43.447],[13.6309,43.548],[13.5085,43.6372],[13.4644,43.6135],[13.2613,43.6985],[13.059,43.8334],[12.9087,43.9267],[12.7981,43.9692],[12.7549,43.9701],[12.68,43.8234],[12.6212,43.8201],[12.5891,43.8876],[12.545,43.8622],[12.5299,43.8988],[12.4983,43.9129],[12.4898,43.895],[12.456,43.8898],[12.4435,43.9017],[12.4088,43.9023],[12.4297,43.8722],[12.3919,43.8946],[12.2839,43.7641],[12.3031,43.7565],[12.3725,43.7105],[12.3324,43.6757],[12.3095,43.7299],[12.2937,43.6843],[12.2491,43.6746],[12.1891,43.6378],[12.2252,43.5937],[12.2969,43.5905],[12.3609,43.6173],[12.3741,43.5836],[12.3415,43.5602],[12.3047,43.5506],[12.3317,43.5228],[12.3891,43.5179],[12.4521,43.538],[12.6163,43.428],[12.7025,43.4252],[12.7683,43.4753],[12.7618,43.3806],[12.8164,43.2748],[12.8717,43.1263],[12.8886,43.0122],[12.9804,42.8697],[13.0514,42.9226],[13.1548,42.8309],[13.2373,42.8597],[13.2628,42.8154],[13.2407,42.765],[13.2041,42.7683],[13.1913,42.7335],[13.258,42.7223],[13.2756,42.7417],[13.3588,42.6956],[13.431,42.7084],[13.4933,42.7403],[13.5392,42.8154],[13.6438,42.799],[13.7178,42.8515],[13.9194,42.8987]]]}},{"type":"Feature","properties":{"code":"IT012","name":"Lazio"},"geometry":{"type":"Polygon","coordinates":[[[13.1913,42.7335],[13.1491,42.6452],[12.8809,42.6086],[12.8967,42.5707],[12.7116,42.499],[12.7403,42.4705],[12.6636,42.4385],[12.6226,42.4666],[12.5749,42.3823],[12.5274,42.3787],[12.4544,42.3956],[12.4064,42.4996],[12.344,42.4747],[12.2845,42.5051],[12.1975,42.6738],[12.0343,42.6451],[11.9266,42.7007],[11.9807,42.7578],[11.8943,42.8347],[11.8394,42.8358],[11.809,42.7981],[11.7733,42.8237],[11.7459,42.7867],[11.8179,42.7448],[11.7776,42.7003],[11.8107,42.6478],[11.6846,42.5927],[11.5929,42.5722],[11.5717,42.5186],[11.6258,42.4387],[11.4955,42.4409],[11.4473,42.3757],[11.5451,42.3411],[11.6474,42.2808],[11.7444,42.1267],[11.8295,42.0269],[11.9154,42.033],[11.9469,42.0167],[11.971,41.9968],[12.0163,41.9825],[12.0493,41.9472],[12.1381,41.9148],[12.1603,41.8928],[12.1916,41.8501],[12.2192,41.7823],[12.2141,41.7693],[12.2219,41.7411],[12.3231,41.7074],[12.4313,41.641],[12.5148,41.5678],[12.6253,41.4376],[12.6624,41.4514],[12.6898,41.4507],[12.764,41.4058],[12.7837,41.4153],[12.85,41.4111],[12.9414,41.3654],[13.0041,41.3014],[13.0431,41.2195],[13.0976,41.2218],[13.1067,41.2397],[13.1795,41.2769],[13.2193,41.2837],[13.2621,41.2811],[13.273,41.2959],[13.3324,41.2909],[13.4005,41.2702],[13.4804,41.2291],[13.5776,41.1954],[13.5941,41.2097],[13.5723,41.2243],[13.5822,41.2439],[13.6381,41.2584],[13.6828,41.2425],[13.7115,41.2507],[13.7598,41.2216],[13.7849,41.2409],[13.8867,41.2953],[13.882,41.3428],[13.8725,41.3729],[13.8725,41.4188],[13.9797,41.4649],[14.0153,41.5455],[13.9971,41.6415],[13.8902,41.7297],[13.7751,41.7581],[13.6577,41.8102],[13.5727,41.7534],[13.3791,41.8203],[13.3791,41.9154],[13.1422,42.0073],[13.0557,42.0184],[13.011,42.0729],[13.094,42.1818],[13.2679,42.1274],[13.3637,42.1783],[13.1275,42.4214],[13.1892,42.5877],[13.2466,42.5724],[13.2559,42.5841],[13.3096,42.5733],[13.3436,42.5756],[13.3904,42.5888],[13.408,42.6405],[13.3799,42.6491],[13.3506,42.6668],[13.3588,42.6956],[13.2756,42.7417],[13.258,42.7223],[13.1913,42.7335]]]}},{"type":"Feature","properties":{"code":"IT013","name":"Abruzzo"},"geometry":{"type":"Polygon","coordinates":[[[14.783,42.0716],[14.728,42.108],[14.7209,42.178],[14.6173,42.2036],[14.5106,42.257],[14.5044,42.2725],[14.4172,42.3461],[14.4258,42.3542],[14.2415,42.4602],[14.2377,42.4711],[14.1924,42.4939],[14.082,42.6007],[13.9807,42.7524],[13.9453,42.8149],[13.9194,42.8987],[13.7178,42.8515],[13.6438,42.799],[13.5392,42.8154],[13.4933,42.7403],[13.431,42.7084],[13.3588,42.6956],[13.3506,42.6668],[13.3799,42.6491],[13.408,42.6405],[13.3904,42.5888],[13.3436,42.5756],[13.3096,42.5733],[13.2559,42.5841],[13.2466,42.5724],[13.1892,42.5877],[13.1275,42.4214],[13.3637,42.1783],[13.2679,42.1274],[13.094,42.1818],[13.011,42.0729],[13.0557,42.0184],[13.1422,42.0073],[13.3791,41.9154],[13.3791,41.8203],[13.5727,41.7534],[13.6577,41.8102],[13.7751,41.7581],[13.8902,41.7297],[13.9423,41.6874],[13.9784,41.6961],[14.0182,41.6839],[14.0846,41.7419],[14.1149,41.7074],[14.1199,41.7424],[14.1977,41.7581],[14.1489,41.8276],[14.2822,41.9112],[14.4316,41.8483],[14.479,41.7554],[14.6255,41.885],[14.692,41.9682],[14.7767,42.028],[14.783,42.0716]]]}},{"type":"Feature","properties":{"code":"IT014","name":"Molise"},"geometry":{"type":"Polygon","coordinates":[[[15.1393,41.9281],[15.0776,41.947],[15.006,42.0081],[14.8749,42.0298],[14.783,42.0716],[14.7767,42.028],[14.692,41.9682],[14.6255,41.885],[14.479,41.7554],[14.4316,41.8483],[14.2822,41.9112],[14.1489,41.8276],[14.1977,41.7581],[14.1199,41.7424],[14.1149,41.7074],[14.0846,41.7419],[14.0182,41.6839],[13.9784,41.6961],[13.9423,41.6874],[13.9971,41.6415],[14.0153,41.5455],[13.9797,41.4649],[14.045,41.3985],[14.1178,41.3882],[14.0781,41.451],[14.1225,41.507],[14.4631,41.4246],[14.5089,41.3808],[14.613,41.3673],[14.6845,41.4116],[14.738,41.4084],[14.7859,41.4506],[14.8553,41.4235],[15.0087,41.4849],[14.9349,41.533],[14.9534,41.6461],[15.0204,41.6237],[15.0635,41.6577],[15.1555,41.7067],[15.1022,41.7417],[15.1122,41.8259],[15.1393,41.9281]]]}},{"type":"Feature","properties":{"code":"IT015","name":"Puglia"},"geometry":{"type":"Polygon","coordinates":[[[16.8695,40.3954],[16.8777,40.4105],[16.905,40.4353],[16.9661,40.4771],[16.999,40.4937],[17.0717,40.5152],[17.1157,40.5159],[17.1442,40.5075],[17.1377,40.4499],[17.2005,40.4081],[17.498,40.2923],[17.6765,40.2999],[17.8331,40.2815],[17.8693,40.2669],[17.9173,40.2266],[17.9163,40.1878],[18.0102,40.1059],[17.9402,40.0456],[18.0158,40.0329],[17.9919,39.9982],[18.0394,39.9337],[18.0683,39.9091],[18.1819,39.8458],[18.2036,39.8358],[18.2688,39.8322],[18.3485,39.7869],[18.3694,39.7924],[18.3919,39.8172],[18.4116,39.976],[18.4793,40.0448],[18.5223,40.1059],[18.5193,40.1361],[18.4853,40.1709],[18.4676,40.2238],[18.4299,40.2896],[18.2369,40.4523],[18.0788,40.5408],[18.0234,40.6438],[17.9355,40.6875],[17.7994,40.7199],[17.6679,40.7796],[17.4835,40.8346],[17.3349,40.9454],[17.0975,41.0705],[16.8693,41.1439],[16.7681,41.1644],[16.4771,41.2615],[16.0091,41.4332],[15.9676,41.4553],[15.9429,41.475],[15.9209,41.5032],[15.9045,41.5362],[15.8946,41.5753],[15.9092,41.6173],[16.066,41.6919],[16.0976,41.7203],[16.1451,41.7416],[16.1937,41.7767],[16.2033,41.8242],[16.1802,41.8531],[16.1881,41.8888],[16.1438,41.9148],[16.0934,41.9399],[16.0583,41.9502],[16.0124,41.951],[15.8248,41.9257],[15.6838,41.9178],[15.6291,41.9309],[15.4239,41.9032],[15.357,41.9058],[15.3423,41.9183],[15.204,41.9207],[15.1393,41.9281],[15.1122,41.8259],[15.1022,41.7417],[15.1555,41.7067],[15.0635,41.6577],[15.0204,41.6237],[14.9534,41.6461],[14.9349,41.533],[15.0987,41.4205],[15.06,41.3596],[15.1474,41.2841],[15.2734,41.2571],[15.2513,41.1978],[15.2145,41.1619],[15.2414,41.1342],[15.2793,41.1025],[15.3197,41.0911],[15.4015,41.1018],[15.5425,41.0552],[15.5679,41.0939],[15.7627,41.0894],[15.8534,41.1323],[15.89,41.1274],[15.9481,41.1062],[16.0447,41.032],[15.9702,40.9629],[16.1134,40.9001],[16.1635,40.9315],[16.4097,40.7007],[16.5658,40.7637],[16.7218,40.7127],[16.7304,40.4735],[16.8695,40.3954]]]}},{"type":"Feature","properties":{"code":"IT016","name":"Campania"},"geometry":{"type":"Polygon","coordinates":[[[15.0087,41.4849],[14.8553,41.4235],[14.7859,41.4506],[14.738,41.4084],[14.6845,41.4116],[14.613,41.3673],[14.5089,41.3808],[14.4631,41.4246],[14.1225,41.507],[14.0781,41.451],[14.1178,41.3882],[14.045,41.3985],[13.9797,41.4649],[13.8725,41.4188],[13.8725,41.3729],[13.882,41.3428],[13.8867,41.2953],[13.7849,41.2409],[13.7598,41.2216],[13.8178,41.1777],[13.9009,41.0711],[13.92,41.0232],[14.0008,40.9443],[14.0415,40.8484],[14.0065,40.7743],[13.8919,40.7747],[13.8251,40.7409],[13.8821,40.662],[14.0845,40.7661],[14.1625,40.7915],[14.1857,40.79],[14.2096,40.799],[14.2202,40.8216],[14.3041,40.8249],[14.4048,40.7491],[14.4453,40.7496],[14.4702,40.7232],[14.4428,40.6859],[14.1937,40.5603],[14.1939,40.5236],[14.2959,40.5525],[14.4865,40.6233],[14.5242,40.6049],[14.5779,40.6114],[14.6274,40.6446],[14.6909,40.6294],[14.7231,40.664],[14.7567,40.6731],[14.7929,40.6585],[14.878,40.5832],[14.984,40.4196],[14.9992,40.3769],[14.993,40.3547],[14.9842,40.3583],[14.969,40.3436],[14.9434,40.3376],[14.9366,40.318],[14.9436,40.2807],[14.8957,40.2511],[14.9335,40.2252],[14.9428,40.2318],[14.9988,40.2093],[15.0225,40.1743],[15.0655,40.1633],[15.1213,40.1723],[15.1779,40.1245],[15.2638,40.0769],[15.2793,40.0561],[15.2599,40.0171],[15.4213,39.983],[15.5176,40.0638],[15.5941,40.0725],[15.6432,40.04],[15.7507,40.2104],[15.8086,40.263],[15.45,40.6118],[15.497,40.6505],[15.387,40.7279],[15.3536,40.881],[15.4623,40.8701],[15.5379,40.926],[15.5691,40.9843],[15.5536,41.0376],[15.5425,41.0552],[15.4015,41.1018],[15.3197,41.0911],[15.2793,41.1025],[15.2145,41.1619],[15.2513,41.1978],[15.2734,41.2571],[15.1474,41.2841],[15.06,41.3596],[15.0987,41.4205],[15.0087,41.4849]]]}},{"type":"Feature","properties":{"code":"IT017","name":"Basilicata"},"geometry":{"type":"Polygon","coordinates":[[[16.8695,40.3954],[16.7304,40.4735],[16.7218,40.7127],[16.5658,40.7637],[16.4097,40.7007],[16.1635,40.9315],[16.1134,40.9001],[15.9702,40.9629],[16.0447,41.032],[15.9481,41.1062],[15.89,41.1274],[15.8534,41.1323],[15.7627,41.0894],[15.5679,41.0939],[15.5425,41.0552],[15.5536,41.0376],[15.5691,40.9843],[15.5379,40.926],[15.4623,40.8701],[15.3536,40.881],[15.387,40.7279],[15.497,40.6505],[15.45,40.6118],[15.8086,40.263],[15.7507,40.2104],[15.6432,40.04],[15.6685,40.0333],[15.6752,40.0107],[15.7506,39.921],[15.7683,39.9375],[15.7735,39.9607],[15.7937,39.9715],[15.8201,40.0026],[15.8487,40.007],[16.0324,39.9956],[16.0158,39.9407],[16.0478,39.8984],[16.1835,39.9085],[16.3103,39.9347],[16.3501,39.8992],[16.4211,40.1426],[16.621,40.1323],[16.6484,40.1169],[16.6912,40.148],[16.8695,40.3954]]]}},{"type":"Feature","properties":{"code":"IT018","name":"Sicilia"},"geometry":{"type":"Polygon","coordinates":[[[15.6595,38.2737],[15.5384,38.3063],[15.4267,38.2459],[15.2797,38.2111],[15.2463,38.2764],[15.2212,38.2726],[15.2259,38.2181],[15.179,38.1608],[15.0952,38.1223],[15.051,38.1528],[14.9162,38.1978],[14.8334,38.1658],[14.747,38.1703],[14.6412,38.0811],[14.5577,38.0625],[14.5002,38.0403],[14.4334,38.043],[14.3695,38.0177],[14.3431,38.0226],[14.3172,38.0127],[14.2372,38.0145],[14.1439,38.0331],[14.0944,38.0226],[14.0196,38.0453],[13.946,38.0322],[13.8533,37.9927],[13.7463,37.9728],[13.7117,37.9927],[13.6703,38.0],[13.569,38.0403],[13.5404,38.1199],[13.5069,38.1223],[13.4403,38.0963],[13.385,38.1356],[13.3666,38.1941],[13.3184,38.2313],[13.2553,38.2176],[13.0871,38.1928],[13.0498,38.1385],[13.0745,38.0892],[12.9669,38.042],[12.8933,38.0301],[12.8169,38.0977],[12.766,38.1889],[12.7207,38.1941],[12.7118,38.1726],[12.7297,38.1414],[12.7047,38.111],[12.6557,38.1199],[12.6564,38.0922],[12.6106,38.0676],[12.567,38.0737],[12.5251,38.0338],[12.4867,38.0157],[12.4708,37.9344],[12.3363,38.024],[12.0205,37.9962],[12.0364,37.9491],[12.4233,37.8924],[12.4161,37.7981],[12.4493,37.7703],[12.4651,37.7081],[12.5269,37.6519],[12.565,37.6594],[12.6705,37.5526],[12.8097,37.5787],[12.9493,37.5637],[13.0161,37.4899],[13.0842,37.5017],[13.1341,37.4878],[13.1577,37.4915],[13.2178,37.4482],[13.2686,37.3885],[13.381,37.3376],[13.4343,37.2956],[13.5255,37.2756],[13.5502,37.2839],[13.5749,37.2599],[13.6385,37.2211],[13.6604,37.1916],[13.756,37.1454],[13.8301,37.1393],[13.8711,37.0993],[13.9233,37.0907],[13.9452,37.0826],[13.9529,37.0982],[13.9869,37.1065],[14.0751,37.1076],[14.1562,37.094],[14.2272,37.0642],[14.2468,37.0605],[14.3221,37.0094],[14.357,36.975],[14.4067,36.9139],[14.4539,36.8181],[14.4927,36.7838],[14.631,36.7614],[14.6877,36.7191],[14.7852,36.6994],[14.9025,36.7195],[14.957,36.6922],[14.973,36.69],[14.9926,36.6945],[15.0015,36.7021],[15.0349,36.69],[15.0536,36.661],[15.0787,36.6411],[15.1604,36.6794],[15.0998,36.7817],[15.1621,36.9102],[15.2671,36.9722],[15.3491,37.0053],[15.2934,37.1119],[15.2307,37.1251],[15.2472,37.1461],[15.2359,37.1603],[15.2127,37.1566],[15.2157,37.21],[15.2673,37.2384],[15.2014,37.2982],[15.1013,37.319],[15.0949,37.3469],[15.0924,37.4787],[15.1091,37.5022],[15.1791,37.5738],[15.2256,37.7148],[15.2209,37.7518],[15.3071,37.8536],[15.2987,37.8627],[15.3395,37.8998],[15.4503,38.0263],[15.4855,38.0587],[15.5812,38.194],[15.5642,38.1999],[15.5914,38.2416],[15.6595,38.2737]]]}},{"type":"Feature","properties":{"code":"IT019","name":"Sardegna"},"geometry":{"type":"Polygon","coordinates":[[[9.6173,41.0842],[9.525,41.174],[9.4839,41.2472],[9.354,41.3384],[9.2883,41.236],[9.2241,41.2718],[9.1334,41.2462],[9.1586,41.1688],[9.1183,41.1567],[9.0721,41.1315],[9.0459,41.1414],[8.9986,41.1175],[8.8584,41.016],[8.8653,40.9993],[8.7858,40.923],[8.7139,40.9243],[8.6324,40.8841],[8.5683,40.8381],[8.4626,40.8214],[8.414,40.8449],[8.3187,40.8474],[8.2669,40.8849],[8.2395,40.9263],[8.2987,41.0422],[8.3381,41.0455],[8.359,41.0992],[8.3217,41.1281],[8.2636,41.105],[8.1945,41.0066],[8.1704,40.9371],[8.211,40.894],[8.1266,40.7243],[8.1936,40.6826],[8.1784,40.6449],[8.1288,40.6236],[8.1568,40.5563],[8.1927,40.5675],[8.2395,40.5663],[8.292,40.5885],[8.3372,40.4983],[8.3688,40.491],[8.3844,40.4137],[8.3765,40.3354],[8.4386,40.3156],[8.4691,40.2854],[8.451,40.1449],[8.4792,40.0914],[8.2692,39.985],[8.4295,39.8543],[8.4431,39.6199],[8.3776,39.4684],[8.3629,39.2379],[8.1969,39.153],[8.2466,39.0987],[8.3496,39.0555],[8.3828,38.9834],[8.4082,38.9511],[8.4513,38.9284],[8.6478,38.8602],[8.8632,38.8772],[8.9099,38.9064],[8.9898,38.9691],[9.02,38.9815],[9.0434,39.0169],[9.0506,39.0578],[9.0259,39.0837],[9.0179,39.121],[9.0267,39.1505],[9.0724,39.1937],[9.0968,39.2073],[9.159,39.1754],[9.1734,39.1905],[9.1619,39.1958],[9.1922,39.22],[9.2366,39.2236],[9.2476,39.2148],[9.2973,39.2117],[9.2999,39.205],[9.3232,39.1971],[9.3701,39.1684],[9.3891,39.1516],[9.3928,39.1413],[9.437,39.1202],[9.4934,39.1305],[9.5006,39.1066],[9.5303,39.0769],[9.5436,39.0785],[9.5348,39.121],[9.572,39.1377],[9.6076,39.1313],[9.612,39.1525],[9.5749,39.1624],[9.5832,39.1833],[9.5722,39.2176],[9.6063,39.2892],[9.6386,39.2939],[9.6386,39.3074],[9.6063,39.3223],[9.6447,39.4343],[9.6826,39.7489],[9.7016,39.8505],[9.6943,39.8918],[9.7248,39.9293],[9.6951,39.9546],[9.7483,40.0887],[9.6687,40.1399],[9.6393,40.2211],[9.684,40.3245],[9.7818,40.3894],[9.8419,40.5308],[9.7688,40.6039],[9.755,40.6951],[9.7004,40.7812],[9.7749,40.9245],[9.6166,41.0462],[9.6173,41.0842]]]}},{"type":"Feature","properties":{"code":"IT020","name":"Friuli Venezia Giulia"},"geometry":{"type":"Polygon","coordinates":[[[13.723,45.595],[13.747,45.5982],[13.7797,45.5836],[13.8182,45.5809],[13.8512,45.5851],[13.8537,45.5932],[13.8659,45.5966],[13.8703,45.6096],[13.9202,45.6321],[13.8791,45.6513],[13.8342,45.6866],[13.8344,45.7073],[13.8118,45.723],[13.7996,45.7411],[13.7621,45.7562],[13.747,45.7553],[13.6789,45.7941],[13.6746,45.7911],[13.6704,45.7998],[13.6251,45.7971],[13.5962,45.807],[13.5754,45.8464],[13.5869,45.8809],[13.6314,45.9304],[13.6427,45.9827],[13.6338,45.9893],[13.6183,45.983],[13.59,45.9898],[13.5671,45.9682],[13.551,45.9704],[13.5438,45.9649],[13.5327,45.9648],[13.4766,46.0054],[13.4954,46.015],[13.51,46.0429],[13.4962,46.0481],[13.5017,46.0623],[13.53,46.0673],[13.6482,46.1422],[13.6545,46.1502],[13.6548,46.1618],[13.6661,46.1739],[13.6338,46.1917],[13.6155,46.1839],[13.5919,46.1926],[13.5674,46.1854],[13.5612,46.2048],[13.5295,46.2182],[13.4461,46.2256],[13.4467,46.2127],[13.4246,46.2052],[13.3759,46.2972],[13.4167,46.306],[13.4183,46.3189],[13.4478,46.3302],[13.4383,46.3587],[13.5391,46.3856],[13.5694,46.4018],[13.5925,46.438],[13.6496,46.4472],[13.6552,46.4405],[13.6934,46.4409],[13.7141,46.5226],[13.6829,46.521],[13.6234,46.542],[13.5938,46.5461],[13.5778,46.5376],[13.5698,46.5391],[13.5633,46.5518],[13.5162,46.5476],[13.5042,46.566],[13.4745,46.5575],[13.4077,46.5616],[13.4089,46.5713],[13.3721,46.5793],[13.3708,46.5671],[13.3444,46.5698],[13.3204,46.5523],[13.2727,46.5607],[13.2516,46.5591],[13.2395,46.552],[13.2172,46.5699],[13.1871,46.5745],[13.1666,46.589],[13.1257,46.5905],[13.0849,46.6019],[13.0313,46.5962],[13.0234,46.6011],[12.987,46.6],[12.9576,46.6062],[12.9484,46.6031],[12.9283,46.6102],[12.8657,46.6095],[12.8486,46.6054],[12.8339,46.6099],[12.8366,46.6278],[12.831,46.6313],[12.8193,46.6283],[12.8002,46.6354],[12.7946,46.6424],[12.7598,46.6477],[12.7325,46.6346],[12.6206,46.5503],[12.653,46.4664],[12.5478,46.4706],[12.337,46.2788],[12.3543,46.2286],[12.45,46.201],[12.5058,46.1348],[12.4088,46.0521],[12.4262,45.9486],[12.5204,45.9026],[12.5733,45.8145],[12.613,45.8341],[12.6642,45.7949],[12.7757,45.852],[12.8105,45.8214],[12.8584,45.8479],[12.9204,45.818],[12.96,45.8445],[13.0637,45.6756],[13.1034,45.6345],[13.1092,45.6564],[13.1664,45.6996],[13.2071,45.7109],[13.2726,45.7045],[13.3474,45.677],[13.4351,45.6729],[13.5651,45.7289],[13.5257,45.7494],[13.5493,45.7858],[13.5598,45.7767],[13.6031,45.7699],[13.6452,45.7542],[13.7503,45.6761],[13.7179,45.6064],[13.723,45.595]]]}}]}