{"type":"FeatureCollection","features":[{"type":"Feature","properties":{"code":"LU001","name":"Luxembourg South"},"geometry":{"type":"Polygon","coordinates":[[[6.384,49.5481],[6.3697,49.502],[6.3713,49.4675],[5.9384,49.4881],[5.8404,49.5347],[5.8146,49.553],[5.7546,49.7914],[5.7564,49.8192],[6.3616,49.8198],[6.3864,49.8328],[6.399,49.7867],[6.3785,49.5875],[6.384,49.5481]]]}},{"type":"Feature","properties":{"code":"LU002","name":"Luxembourg North"},"geometry":{"type":"Polygon","coordinates":[[[6.145,50.1246],[6.3572,49.8731],[6.3864,49.8328],[6.3616,49.8198],[5.7564,49.8192],[5.7689,49.8452],[6.0032,50.1637],[6.0219,50.1824],[6.145,50.1246]]]}}]}