{"type":"FeatureCollection","features":[{"type":"Feature","properties":{"code":"NL007","name":"Groningen"},"geometry":{"type":"Polygon","coordinates":[[[6.7931,53.4557],[6.8136,53.4632],[6.8349,53.4625],[6.8347,53.4559],[6.8172,53.4574],[6.8321,53.4507],[6.8129,53.4508],[6.8554,53.4413],[6.8384,53.4469],[6.8416,53.4604],[6.8829,53.4412],[6.8742,53.408],[6.8881,53.396],[6.9021,53.3475],[6.9363,53.334],[6.9281,53.3277],[7.0006,53.3094],[7.0102,53.3158],[7.0103,53.3061],[7.0275,53.3024],[7.0769,53.3002],[7.0984,53.3087],[7.0842,53.2976],[7.0782,53.2708],[7.0846,53.2616],[7.2081,53.2317],[7.2098,53.2394],[7.2176,53.1978],[7.2082,53.1887],[7.2275,53.1803],[7.2037,53.1766],[7.179,53.1385],[7.1831,53.1217],[7.2028,53.1134],[7.1992,53.0814],[7.2174,53.007],[7.1815,52.9416],[7.0873,52.8499],[7.0927,52.8382],[7.0724,52.8385],[7.0762,52.85],[7.0627,52.8515],[7.0403,52.8728],[7.0148,52.873],[7.0455,52.9159],[7.0157,52.9248],[6.9366,52.9928],[6.7433,53.1166],[6.6954,53.1212],[6.6348,53.1062],[6.6144,53.1356],[6.5878,53.1459],[6.5815,53.1635],[6.5637,53.1576],[6.5305,53.1956],[6.4815,53.2036],[6.408,53.1781],[6.3815,53.1534],[6.3636,53.1076],[6.3444,53.0872],[6.261,53.1143],[6.2056,53.1155],[6.1757,53.1351],[6.1773,53.167],[6.1996,53.1984],[6.23,53.2178],[6.2146,53.2337],[6.225,53.2386],[6.218,53.2419],[6.2311,53.2451],[6.2322,53.2567],[6.2549,53.2685],[6.2543,53.2886],[6.2693,53.2903],[6.294,53.3084],[6.2805,53.3126],[6.2992,53.3395],[6.2586,53.3488],[6.2331,53.3442],[6.2323,53.3522],[6.2574,53.3589],[6.2339,53.3602],[6.2418,53.365],[6.2377,53.3692],[6.2097,53.3672],[6.2337,53.3732],[6.1845,53.3785],[6.2017,53.3856],[6.1794,53.3945],[6.1848,53.4033],[6.2216,53.3882],[6.2364,53.3915],[6.1911,53.411],[6.2031,53.4079],[6.2496,53.4155],[6.306,53.3927],[6.3677,53.4158],[6.5676,53.4317],[6.6958,53.462],[6.746,53.466],[6.7931,53.4557]]]}},{"type":"Feature","properties":{"code":"NL008","name":"Flevoland"},"geometry":{"type":"Polygon","coordinates":[[[5.7488,52.8397],[5.8188,52.7847],[5.8621,52.781],[5.9218,52.7512],[5.9426,52.715],[5.9648,52.6981],[5.9331,52.6713],[5.9669,52.6666],[5.9838,52.6563],[5.9637,52.6387],[5.8318,52.6125],[5.6536,52.6155],[5.64,52.6079],[5.6548,52.5973],[5.7569,52.5796],[5.809,52.5789],[5.8576,52.5457],[5.8475,52.4935],[5.7971,52.4388],[5.747,52.4146],[5.7201,52.4161],[5.6615,52.3979],[5.6252,52.3803],[5.6101,52.3665],[5.6151,52.3677],[5.6128,52.3609],[5.5638,52.3676],[5.5372,52.3472],[5.5528,52.3342],[5.5525,52.3198],[5.5287,52.2749],[5.433,52.2558],[5.4016,52.2533],[5.3172,52.3036],[5.2633,52.3239],[5.1952,52.3365],[5.1389,52.3261],[5.1449,52.3314],[5.1297,52.3399],[5.1342,52.348],[5.1243,52.3805],[5.4346,52.5112],[5.4406,52.5178],[5.4341,52.5264],[5.425,52.5208],[5.4272,52.538],[5.4385,52.5549],[5.4435,52.5595],[5.4516,52.5633],[5.4642,52.5662],[5.4674,52.5693],[5.4555,52.5936],[5.399,52.6488],[5.3526,52.6774],[5.2874,52.6912],[5.3021,52.6916],[5.3537,52.6777],[5.3612,52.6744],[5.3995,52.6494],[5.4132,52.636],[5.4158,52.6371],[5.4564,52.5936],[5.4686,52.5696],[5.4644,52.5657],[5.4484,52.5616],[5.4398,52.5555],[5.4269,52.535],[5.4263,52.528],[5.4349,52.5276],[5.4545,52.5514],[5.4974,52.5544],[5.5587,52.5923],[5.6493,52.6147],[5.6159,52.6506],[5.5915,52.661],[5.5966,52.7661],[5.6634,52.8301],[5.7131,52.838],[5.7296,52.8337],[5.7247,52.844],[5.7488,52.8397]]]}},{"type":"Feature","properties":{"code":"NL009","name":"Zuid-Holland"},"geometry":{"type":"MultiPolygon","coordinates":[[[[4.2795,51.7527],[4.3577,51.7334],[4.3109,51.7277],[4.2584,51.7501],[4.2795,51.7527]]],[[[4.5637,52.3093],[4.5834,52.3184],[4.6117,52.3136],[4.5882,52.2802],[4.5683,52.2686],[4.5623,52.2338],[4.5505,52.2267],[4.5566,52.2193],[4.6184,52.2145],[4.6703,52.2308],[4.6767,52.2259],[4.7242,52.2324],[4.7247,52.2126],[4.7344,52.2066],[4.7811,52.2287],[4.7948,52.2267],[4.8026,52.2017],[4.8922,52.1618],[4.8736,52.1561],[4.8745,52.1388],[4.8205,52.1422],[4.7921,52.1223],[4.8253,52.1072],[4.8298,52.0668],[4.8732,52.0687],[4.8295,52.0498],[4.7987,52.0223],[4.8034,52.0141],[4.8472,52.018],[4.8571,52.006],[4.8178,51.9998],[4.8604,51.968],[4.8778,51.938],[4.9295,51.9502],[4.9392,51.9289],[4.9476,51.9337],[4.9562,51.9156],[4.9737,51.9077],[4.9734,51.8973],[4.995,51.9023],[4.9962,51.8731],[5.027,51.8819],[5.0218,51.8691],[5.0269,51.8586],[4.994,51.8612],[4.9993,51.8446],[5.0314,51.8411],[5.0264,51.8189],[4.927,51.8283],[4.846,51.7988],[4.7972,51.7998],[4.7652,51.7892],[4.7366,51.7556],[4.6752,51.7242],[4.6409,51.7234],[4.6364,51.7174],[4.6279,51.7255],[4.6277,51.72],[4.6186,51.7232],[4.558,51.7045],[4.5304,51.7012],[4.4062,51.7221],[4.3973,51.7065],[4.4036,51.6987],[4.3634,51.695],[4.368,51.6853],[4.3571,51.6712],[4.2806,51.6545],[4.2325,51.6614],[4.2202,51.6738],[4.1891,51.683],[4.1573,51.6825],[4.1625,51.6878],[4.1552,51.6966],[4.1227,51.7064],[4.0507,51.7117],[4.0348,51.7438],[4.0224,51.7433],[4.0172,51.7562],[4.0273,51.7577],[4.0192,51.7609],[4.0203,51.7793],[3.9922,51.8018],[3.9494,51.8034],[3.8907,51.7921],[3.8957,51.7849],[3.8695,51.7812],[3.8554,51.7579],[3.8632,51.7609],[3.8743,51.7549],[3.871,51.7508],[3.8392,51.7582],[3.8644,51.7781],[3.8547,51.8053],[3.8693,51.8196],[4.0089,51.8499],[4.0137,51.8365],[4.036,51.8236],[4.0333,51.8296],[4.0447,51.8292],[4.0675,51.8454],[4.0294,51.8864],[4.0523,51.9091],[4.0527,51.9184],[4.0401,51.9239],[3.9838,51.9181],[3.9624,51.9615],[3.9807,51.9836],[4.0417,51.986],[4.0471,51.9943],[4.0933,51.985],[4.1101,51.992],[4.1876,52.0564],[4.1917,52.0522],[4.2436,52.0883],[4.2552,52.0981],[4.2525,52.1039],[4.2642,52.0943],[4.2717,52.0996],[4.2672,52.0975],[4.2559,52.1039],[4.3026,52.1285],[4.3574,52.1718],[4.4004,52.2111],[4.494,52.3282],[4.5637,52.3093]],[[4.0738,51.8426],[4.0387,51.8212],[4.0426,51.8177],[4.0545,51.821],[4.1263,51.7894],[4.1934,51.7745],[4.2805,51.7182],[4.3294,51.7026],[4.3837,51.7021],[4.4035,51.7203],[4.3495,51.7433],[4.2487,51.7659],[4.2304,51.7804],[4.2466,51.7853],[4.182,51.8049],[4.1586,51.8218],[4.1283,51.8192],[4.1284,51.8296],[4.1278,51.8193],[4.1216,51.8269],[4.1194,51.8206],[4.0738,51.8426]]]]}},{"type":"Feature","properties":{"code":"NL010","name":"Zeeland"},"geometry":{"type":"MultiPolygon","coordinates":[[[[3.5194,51.4075],[3.551,51.406],[3.5471,51.4016],[3.5679,51.4006],[3.5628,51.3961],[3.6158,51.3805],[3.6874,51.3713],[3.7225,51.3496],[3.7581,51.3479],[3.755,51.3411],[3.7682,51.3363],[3.7718,51.3503],[3.789,51.3496],[3.8099,51.3435],[3.8157,51.3297],[3.814,51.3428],[3.8192,51.3363],[3.8273,51.3432],[3.8669,51.3364],[3.8756,51.3463],[3.9174,51.3613],[3.958,51.3652],[3.9682,51.3856],[3.9639,51.3994],[3.9743,51.4067],[4.0222,51.4006],[4.0495,51.367],[4.0962,51.3614],[4.1341,51.3366],[4.1149,51.363],[4.1309,51.3645],[4.158,51.3473],[4.1516,51.3664],[4.1728,51.3734],[4.1732,51.3607],[4.1914,51.3764],[4.2065,51.3745],[4.2347,51.3481],[4.1661,51.2929],[4.0618,51.2446],[4.0149,51.2451],[3.9586,51.2158],[3.936,51.2119],[3.9294,51.2203],[3.916,51.2146],[3.9186,51.2078],[3.8863,51.2002],[3.8776,51.208],[3.8902,51.214],[3.8887,51.223],[3.8596,51.2108],[3.7911,51.214],[3.7955,51.2561],[3.7738,51.264],[3.6939,51.276],[3.5899,51.3058],[3.5811,51.2983],[3.5879,51.293],[3.5818,51.2869],[3.5627,51.2959],[3.538,51.2837],[3.5154,51.2872],[3.5276,51.246],[3.4275,51.2447],[3.4171,51.2598],[3.4074,51.257],[3.3758,51.2771],[3.3808,51.287],[3.3661,51.2983],[3.3781,51.3027],[3.3584,51.315],[3.3853,51.3343],[3.3741,51.3485],[3.3701,51.3725],[3.3819,51.3805],[3.5194,51.4075]]],[[[3.8425,51.7563],[3.8275,51.7489],[3.8258,51.7388],[3.8916,51.7438],[3.9137,51.7275],[3.9713,51.7336],[3.9702,51.7267],[3.9787,51.7303],[3.9825,51.7177],[4.0071,51.7031],[4.0149,51.6867],[4.0442,51.6846],[4.0917,51.6671],[4.1142,51.6793],[4.1555,51.6834],[4.1633,51.6677],[4.1738,51.6672],[4.1619,51.6647],[4.1831,51.663],[4.1622,51.6604],[4.1827,51.6609],[4.1661,51.6584],[4.1824,51.6536],[4.181,51.6494],[4.1914,51.6445],[4.1956,51.6347],[4.2373,51.634],[4.205,51.6236],[4.1902,51.601],[4.2356,51.5527],[4.2189,51.5049],[4.2759,51.425],[4.2637,51.4164],[4.2663,51.3865],[4.2774,51.376],[4.2432,51.3748],[4.2316,51.3949],[4.1975,51.4069],[4.1539,51.3946],[4.0793,51.4075],[4.0513,51.42],[4.0508,51.4296],[4.0131,51.439],[4.0119,51.4545],[4.0098,51.44],[4.0063,51.4405],[3.9754,51.4624],[3.9226,51.4502],[3.9258,51.4345],[3.9006,51.395],[3.8714,51.3974],[3.8123,51.3856],[3.7772,51.4098],[3.7271,51.414],[3.7085,51.4347],[3.6749,51.4468],[3.6864,51.4573],[3.7046,51.4503],[3.7036,51.4417],[3.7192,51.4426],[3.7125,51.4509],[3.7255,51.4583],[3.7053,51.4532],[3.6927,51.4588],[3.7169,51.4645],[3.7199,51.4749],[3.7137,51.4707],[3.7044,51.4782],[3.7034,51.4674],[3.6562,51.4531],[3.6668,51.4495],[3.6091,51.4402],[3.5969,51.4517],[3.6009,51.4397],[3.5758,51.4382],[3.5338,51.4583],[3.4958,51.4937],[3.4338,51.5265],[3.4383,51.5424],[3.5524,51.5896],[3.5824,51.5947],[3.6299,51.588],[3.6808,51.6001],[3.6838,51.6149],[3.6741,51.6202],[3.6818,51.6173],[3.6828,51.6207],[3.6676,51.6219],[3.6825,51.6234],[3.6985,51.6426],[3.7137,51.6424],[3.7151,51.6538],[3.7226,51.656],[3.7224,51.6632],[3.6819,51.6877],[3.6793,51.7071],[3.6888,51.7199],[3.7243,51.7394],[3.71,51.7306],[3.7713,51.7434],[3.8198,51.7413],[3.8271,51.7529],[3.8425,51.7563]],[[3.8074,51.6973],[3.7863,51.689],[3.8057,51.6899],[3.7246,51.6685],[3.7232,51.656],[3.7292,51.6545],[3.7133,51.639],[3.7209,51.6342],[3.7096,51.6324],[3.7243,51.6274],[3.7307,51.6329],[3.723,51.6375],[3.7313,51.6336],[3.7317,51.6323],[3.7223,51.6249],[3.7085,51.6312],[3.7037,51.6219],[3.6975,51.6288],[3.6901,51.623],[3.699,51.6188],[3.6873,51.6217],[3.694,51.6165],[3.6843,51.6148],[3.6846,51.5978],[3.7168,51.5914],[3.8389,51.6059],[3.8687,51.5957],[3.9142,51.6292],[3.8955,51.6333],[3.9336,51.6484],[3.8901,51.6314],[3.8768,51.6671],[3.8574,51.6782],[3.818,51.6843],[3.8118,51.6872],[3.8235,51.6842],[3.8246,51.6909],[3.8074,51.6973]],[[4.0967,51.6666],[4.1053,51.6581],[4.071,51.6325],[4.0103,51.6179],[3.9681,51.6143],[3.9382,51.6358],[3.9144,51.6292],[3.8689,51.5956],[3.8996,51.5632],[3.8727,51.5552],[3.8652,51.5442],[3.9253,51.5445],[3.9405,51.5255],[3.957,51.5307],[4.0031,51.5217],[4.0057,51.5137],[4.0044,51.5215],[4.0176,51.5188],[4.0212,51.5124],[4.0568,51.5003],[4.0521,51.4961],[4.0589,51.4753],[4.0932,51.4463],[4.1331,51.4314],[4.1815,51.444],[4.2216,51.4372],[4.2165,51.4903],[4.1767,51.5019],[4.1606,51.5146],[4.1761,51.5151],[4.1639,51.5228],[4.077,51.5251],[4.0491,51.5526],[4.0275,51.5564],[4.0231,51.5674],[3.9839,51.5809],[3.99,51.5926],[4.0746,51.6135],[4.1015,51.6102],[4.1083,51.6026],[4.1735,51.6055],[4.1688,51.609],[4.1775,51.6164],[4.1263,51.6131],[4.1005,51.631],[4.0985,51.6434],[4.1203,51.6536],[4.1929,51.6347],[4.1906,51.6435],[4.1565,51.6538],[4.1577,51.6591],[4.1378,51.6574],[4.1601,51.6646],[4.1499,51.6784],[4.0967,51.6666]],[[3.7075,51.5168],[3.729,51.5234],[3.7324,51.5384],[3.7536,51.5476],[3.7925,51.5411],[3.8206,51.5493],[3.8659,51.5395],[3.8368,51.5559],[3.8051,51.555],[3.8101,51.5498],[3.8035,51.5478],[3.7604,51.5551],[3.703,51.5261],[3.7017,51.5418],[3.6885,51.5561],[3.7007,51.5664],[3.6864,51.5569],[3.6533,51.57],[3.6457,51.589],[3.6279,51.5841],[3.6303,51.5716],[3.6531,51.5584],[3.644,51.5598],[3.6697,51.5503],[3.6668,51.5425],[3.6725,51.5473],[3.6874,51.5241],[3.7075,51.5168]]]]}},{"type":"Feature","properties":{"code":"NL011","name":"Noord-Holland"},"geometry":{"type":"Polygon","coordinates":[[[5.1668,52.9993],[5.0441,52.9353],[5.0492,52.9297],[5.0389,52.9313],[5.0379,52.9215],[5.0486,52.9241],[5.1113,52.8543],[5.1041,52.7745],[5.1239,52.7649],[5.1235,52.7557],[5.1544,52.7385],[5.1803,52.7414],[5.1929,52.755],[5.2583,52.7535],[5.27,52.7475],[5.2584,52.7457],[5.2827,52.7423],[5.288,52.7148],[5.3078,52.7084],[5.2796,52.696],[5.2861,52.6904],[5.2465,52.6855],[5.2306,52.6528],[5.1593,52.6232],[5.1279,52.6199],[5.121,52.6326],[5.1065,52.6316],[5.0887,52.6425],[5.0681,52.6348],[5.0665,52.6408],[5.0604,52.6331],[5.0457,52.6416],[5.0189,52.6299],[5.0312,52.5675],[5.0857,52.5038],[5.06,52.4869],[5.0685,52.4688],[5.0336,52.4674],[5.0409,52.4582],[5.0552,52.4609],[5.0494,52.4394],[5.0888,52.4348],[5.0926,52.4517],[5.1049,52.4673],[5.1394,52.4597],[5.0949,52.4485],[5.0919,52.4374],[5.0868,52.4321],[5.0749,52.4287],[5.0673,52.4134],[5.0313,52.4007],[5.0249,52.3879],[5.0109,52.3831],[5.0117,52.3736],[4.974,52.3794],[4.9803,52.369],[4.9733,52.3676],[5.0095,52.3533],[5.0204,52.3565],[5.0151,52.3478],[5.0349,52.3445],[5.0262,52.3381],[5.0321,52.3335],[5.0827,52.3396],[5.1335,52.3274],[5.149,52.308],[5.1736,52.304],[5.2437,52.3121],[5.2422,52.3057],[5.2516,52.309],[5.25,52.3159],[5.2564,52.3068],[5.2914,52.2966],[5.309,52.3049],[5.3172,52.3006],[5.2955,52.29],[5.3065,52.2776],[5.2658,52.2816],[5.1926,52.1778],[5.1214,52.181],[5.0465,52.1659],[5.0416,52.1838],[5.0325,52.1841],[5.0371,52.1981],[5.0213,52.2019],[5.0366,52.2021],[5.0371,52.2253],[5.0577,52.2353],[5.0419,52.2566],[5.0321,52.2546],[5.0229,52.2725],[5.0655,52.2852],[5.0305,52.2885],[5.0225,52.2828],[5.0215,52.3025],[5.0118,52.3034],[4.9975,52.2891],[4.9835,52.2904],[4.9676,52.2796],[4.9264,52.2797],[4.9294,52.2684],[4.911,52.2527],[4.8701,52.2533],[4.8428,52.2353],[4.7948,52.2267],[4.781,52.2287],[4.7344,52.2066],[4.7247,52.2126],[4.7242,52.2324],[4.6767,52.2259],[4.6703,52.2308],[4.6184,52.2145],[4.5566,52.2193],[4.5505,52.2267],[4.5623,52.2338],[4.5683,52.2686],[4.5882,52.2802],[4.6117,52.3136],[4.5834,52.3184],[4.5637,52.3093],[4.494,52.3282],[4.5601,52.438],[4.5537,52.4608],[4.5403,52.4581],[4.538,52.4581],[4.5321,52.4638],[4.5401,52.4583],[4.5556,52.4625],[4.5671,52.4589],[4.5973,52.4683],[4.5985,52.4725],[4.5946,52.4733],[4.5672,52.4677],[4.5422,52.4674],[4.5644,52.4679],[4.593,52.5135],[4.6429,52.7507],[4.676,52.801],[4.7064,52.8749],[4.7194,52.9511],[4.7308,52.9626],[4.7842,52.9661],[4.7748,52.9606],[4.7773,52.9576],[4.7944,52.9555],[4.7982,52.9596],[4.7897,52.9628],[4.8013,52.9645],[4.7913,52.9362],[4.8067,52.9127],[4.8829,52.8889],[4.9351,52.9035],[4.9685,52.9303],[5.021,52.9349],[5.0246,52.9427],[5.0411,52.9343],[5.1668,52.9993]],[[5.0419,52.224],[5.0419,52.2241],[5.0394,52.2244],[5.0419,52.224]],[[5.0419,52.2241],[5.0428,52.224],[5.042,52.2243],[5.0419,52.2241]]]}},{"type":"Feature","properties":{"code":"NL012","name":"Limburg"},"geometry":{"type":"Polygon","coordinates":[[[5.9328,51.7419],[5.9533,51.748],[5.9553,51.7387],[5.9942,51.7383],[6.029,51.7258],[6.0449,51.7169],[6.0261,51.7087],[6.0315,51.6746],[6.1181,51.656],[6.0939,51.6222],[6.0914,51.6058],[6.157,51.5666],[6.1769,51.5386],[6.212,51.5134],[6.2237,51.4687],[6.2053,51.3995],[6.2267,51.4003],[6.2144,51.3896],[6.2264,51.3603],[6.1899,51.3395],[6.1942,51.3349],[6.169,51.333],[6.1245,51.2748],[6.0727,51.2426],[6.086,51.2227],[6.068,51.2206],[6.0731,51.1828],[6.0822,51.1716],[6.0997,51.1698],[6.1652,51.1944],[6.1807,51.1864],[6.1388,51.1733],[6.1754,51.1585],[6.1633,51.1487],[6.0918,51.1349],[6.087,51.1246],[6.0603,51.1159],[6.0365,51.0965],[5.9978,51.0842],[5.97,51.0605],[5.9692,51.0468],[5.9576,51.0347],[5.9381,51.0351],[5.9132,51.0669],[5.892,51.0531],[5.8664,51.0511],[5.878,51.0376],[5.8787,51.0182],[5.9055,51.0022],[5.9037,50.9871],[5.8928,50.9802],[5.8971,50.9749],[5.9552,50.9884],[5.968,50.9794],[6.0265,50.9833],[6.0052,50.9568],[6.0169,50.9526],[6.0182,50.9347],[6.0509,50.9299],[6.054,50.9222],[6.0941,50.9207],[6.0752,50.893],[6.0881,50.8724],[6.0742,50.8465],[6.056,50.8572],[6.0189,50.8463],[6.0248,50.8139],[6.0037,50.8015],[5.985,50.8104],[5.9757,50.8024],[6.0279,50.7738],[6.0184,50.7634],[6.021,50.7543],[5.9832,50.7528],[5.9607,50.7625],[5.9016,50.7514],[5.8897,50.7563],[5.8862,50.77],[5.8489,50.7534],[5.845,50.7654],[5.8088,50.7559],[5.7932,50.7702],[5.7845,50.7672],[5.7736,50.7832],[5.7471,50.7705],[5.7392,50.7571],[5.7203,50.7647],[5.6885,50.7557],[5.6828,50.7613],[5.6987,50.7796],[5.6939,50.8115],[5.6542,50.82],[5.6389,50.8477],[5.6417,50.8642],[5.6495,50.8683],[5.6442,50.8713],[5.6793,50.8805],[5.6983,50.9102],[5.7245,50.9106],[5.7269,50.9238],[5.7581,50.9508],[5.7505,50.9607],[5.7312,50.9549],[5.7201,50.9624],[5.7661,50.9977],[5.7764,51.0224],[5.758,51.0337],[5.7747,51.063],[5.8009,51.0621],[5.7966,51.0718],[5.8045,51.0805],[5.796,51.0915],[5.8324,51.0973],[5.8289,51.107],[5.8084,51.1112],[5.8099,51.1184],[5.8556,51.1447],[5.8243,51.1678],[5.815,51.1588],[5.8049,51.1629],[5.7776,51.1513],[5.7794,51.1633],[5.7696,51.1691],[5.7797,51.1718],[5.773,51.1734],[5.7767,51.1785],[5.7491,51.1887],[5.7093,51.1804],[5.658,51.1847],[5.6527,51.1977],[5.561,51.2224],[5.6188,51.2294],[5.626,51.2736],[5.6721,51.3151],[5.8745,51.3533],[5.9313,51.3848],[5.8717,51.4501],[5.8382,51.5664],[5.9067,51.552],[6.0043,51.5702],[6.0317,51.5523],[6.0481,51.5585],[6.0263,51.5956],[6.0227,51.6189],[5.9649,51.6527],[5.9554,51.7091],[5.888,51.7252],[5.8796,51.7499],[5.8645,51.7577],[5.8679,51.7755],[5.8934,51.7779],[5.9328,51.7419]]]}},{"type":"Feature","properties":{"code":"NL013","name":"Noord-Brabant"},"geometry":{"type":"Polygon","coordinates":[[[5.5356,51.8166],[5.5582,51.8275],[5.5888,51.8297],[5.6413,51.8179],[5.6634,51.7945],[5.7297,51.7729],[5.758,51.7542],[5.8644,51.7577],[5.8797,51.75],[5.888,51.7252],[5.9554,51.7091],[5.9649,51.6527],[6.0227,51.6189],[6.0263,51.5956],[6.0481,51.5585],[6.0317,51.5523],[6.0043,51.5702],[5.9067,51.552],[5.8382,51.5664],[5.8717,51.4501],[5.9313,51.3848],[5.8745,51.3533],[5.6721,51.3151],[5.626,51.2736],[5.6188,51.2294],[5.5944,51.2242],[5.5605,51.2223],[5.5562,51.2666],[5.5158,51.2952],[5.483,51.3002],[5.4174,51.2623],[5.3461,51.2758],[5.3365,51.2631],[5.2379,51.2614],[5.226,51.2683],[5.2422,51.3052],[5.2003,51.3227],[5.1626,51.3103],[5.1344,51.3155],[5.1317,51.3468],[5.0712,51.3935],[5.1046,51.4313],[5.0786,51.4714],[5.0459,51.4711],[5.0388,51.487],[5.0108,51.4723],[5.0044,51.4446],[4.921,51.3937],[4.9138,51.3951],[4.9243,51.3978],[4.9,51.4147],[4.7893,51.409],[4.7712,51.4149],[4.7666,51.4305],[4.7741,51.4316],[4.8364,51.4173],[4.8415,51.4224],[4.8282,51.4223],[4.8234,51.4486],[4.844,51.4591],[4.8361,51.4612],[4.8419,51.4807],[4.8211,51.4831],[4.8152,51.4948],[4.7807,51.5041],[4.7527,51.4998],[4.7169,51.4689],[4.7032,51.467],[4.6931,51.4517],[4.6666,51.4442],[4.6697,51.4264],[4.6413,51.422],[4.5747,51.4328],[4.5354,51.423],[4.5299,51.4495],[4.5482,51.4733],[4.5382,51.4824],[4.4765,51.4783],[4.3793,51.4468],[4.3965,51.4422],[4.3952,51.4269],[4.3837,51.4211],[4.4317,51.375],[4.4251,51.3713],[4.4314,51.3639],[4.3845,51.3544],[4.3414,51.3576],[4.3345,51.3776],[4.2774,51.376],[4.2663,51.3865],[4.2637,51.4164],[4.2759,51.425],[4.2189,51.5049],[4.2356,51.5527],[4.1902,51.601],[4.205,51.6236],[4.2373,51.634],[4.3371,51.6452],[4.3688,51.6571],[4.3764,51.6519],[4.3729,51.6569],[4.3922,51.6801],[4.4072,51.6879],[4.3897,51.6816],[4.4016,51.6889],[4.392,51.6909],[4.4036,51.6987],[4.4037,51.6921],[4.4295,51.7008],[4.4104,51.6925],[4.4367,51.6976],[4.4902,51.683],[4.5262,51.6858],[4.526,51.6803],[4.5265,51.6865],[4.6017,51.6969],[4.6387,51.7124],[4.6364,51.7174],[4.6473,51.7129],[4.644,51.7189],[4.6752,51.7242],[4.7246,51.7479],[4.7652,51.7894],[4.7973,51.7997],[4.8499,51.8001],[4.9273,51.8284],[5.0004,51.8214],[5.0699,51.7795],[5.1003,51.7872],[5.1376,51.7729],[5.1359,51.7603],[5.1427,51.7552],[5.1263,51.745],[5.128,51.738],[5.2164,51.7435],[5.2497,51.7336],[5.3003,51.7373],[5.3535,51.7555],[5.369,51.7898],[5.4061,51.8224],[5.4496,51.8097],[5.4742,51.8146],[5.4818,51.8271],[5.496,51.8306],[5.5356,51.8166]]]}},{"type":"Feature","properties":{"code":"NL014","name":"Gelderland"},"geometry":{"type":"Polygon","coordinates":[[[5.8873,52.5169],[5.9256,52.4741],[5.9515,52.4841],[5.9653,52.4764],[6.0279,52.5096],[6.0991,52.4703],[6.1023,52.4458],[6.1195,52.4329],[6.1108,52.4078],[6.1306,52.4],[6.1209,52.3795],[6.0782,52.369],[6.0948,52.3569],[6.0761,52.3506],[6.0665,52.3178],[6.0797,52.3176],[6.0841,52.3017],[6.1013,52.3012],[6.1301,52.2607],[6.1239,52.2515],[6.1533,52.2471],[6.1418,52.2343],[6.1641,52.2174],[6.1687,52.2207],[6.1625,52.2279],[6.1684,52.2273],[6.163,52.2285],[6.1784,52.2337],[6.2169,52.2265],[6.2145,52.2313],[6.3204,52.2257],[6.3387,52.2272],[6.3381,52.2362],[6.3497,52.2412],[6.3819,52.2461],[6.4164,52.2422],[6.4293,52.2231],[6.4924,52.1774],[6.59,52.1825],[6.6121,52.1632],[6.645,52.1742],[6.6713,52.1657],[6.6744,52.1428],[6.663,52.13],[6.7163,52.1183],[6.7606,52.1188],[6.7563,52.0969],[6.7448,52.0931],[6.7511,52.0855],[6.7355,52.0746],[6.6947,52.0698],[6.6879,52.0399],[6.753,52.0284],[6.8078,51.995],[6.8266,51.9935],[6.8324,51.97],[6.7989,51.9587],[6.794,51.9353],[6.77,51.9162],[6.722,51.8961],[6.6842,51.9176],[6.5603,51.8822],[6.5442,51.8846],[6.4725,51.8538],[6.4511,51.8652],[6.4324,51.8594],[6.3906,51.874],[6.388,51.8619],[6.409,51.8533],[6.4024,51.8445],[6.4075,51.8281],[6.4018,51.8273],[6.3633,51.8352],[6.3603,51.8458],[6.3452,51.851],[6.3062,51.8491],[6.299,51.8678],[6.2799,51.8741],[6.2151,51.8676],[6.1835,51.8825],[6.1911,51.8917],[6.1698,51.9013],[6.1179,51.9017],[6.1035,51.8925],[6.1371,51.8858],[6.1445,51.8697],[6.1669,51.8616],[6.1666,51.8407],[6.0995,51.8494],[6.0635,51.8655],[6.0514,51.8567],[6.0553,51.8524],[6.0023,51.8325],[5.9629,51.8369],[5.945,51.8235],[5.9582,51.8169],[5.9466,51.8135],[5.9791,51.7977],[5.9745,51.7851],[5.9904,51.7832],[5.9824,51.7737],[5.9921,51.7702],[5.9534,51.7481],[5.9328,51.742],[5.8934,51.7779],[5.8679,51.7755],[5.8645,51.7577],[5.7582,51.7541],[5.7296,51.773],[5.6634,51.7945],[5.6413,51.8179],[5.5888,51.8297],[5.5582,51.8275],[5.5356,51.8166],[5.496,51.8306],[5.4817,51.8272],[5.4742,51.8146],[5.4499,51.8097],[5.4062,51.8224],[5.369,51.7898],[5.3536,51.7556],[5.3003,51.7373],[5.2497,51.7336],[5.2163,51.7435],[5.128,51.7379],[5.1263,51.745],[5.1427,51.7552],[5.1359,51.7603],[5.1376,51.7729],[5.1003,51.7872],[5.0699,51.7795],[5.0002,51.8215],[5.0264,51.8189],[5.0314,51.8411],[4.9993,51.8446],[4.994,51.8612],[5.0592,51.8582],[5.0554,51.873],[5.0813,51.876],[5.0904,51.8887],[5.1127,51.8878],[5.1802,51.9674],[5.2135,51.9607],[5.237,51.9789],[5.3234,51.9551],[5.3556,51.9704],[5.391,51.9707],[5.4363,51.9852],[5.4862,51.9838],[5.6059,51.9431],[5.6273,51.9525],[5.6203,51.9666],[5.6261,51.9741],[5.586,52.0118],[5.59,52.0344],[5.5579,52.0489],[5.5627,52.0783],[5.5503,52.1054],[5.5315,52.1023],[5.5392,52.0978],[5.5371,52.0886],[5.5227,52.0775],[5.4839,52.0697],[5.4592,52.0802],[5.4861,52.0937],[5.4843,52.1055],[5.4939,52.1111],[5.4864,52.1154],[5.5077,52.1139],[5.4947,52.1247],[5.5141,52.1359],[5.4813,52.1505],[5.4843,52.1581],[5.4724,52.1629],[5.4799,52.1658],[5.4399,52.1712],[5.4406,52.2058],[5.3932,52.2206],[5.4036,52.2471],[5.4661,52.2555],[5.4714,52.2635],[5.4748,52.2571],[5.5274,52.2637],[5.5607,52.3182],[5.6075,52.3427],[5.6143,52.3568],[5.6248,52.3514],[5.614,52.3623],[5.6271,52.357],[5.6282,52.3644],[5.6405,52.3634],[5.6307,52.3659],[5.6533,52.3648],[5.6776,52.3787],[5.6999,52.3812],[5.8111,52.4357],[5.8219,52.446],[5.8162,52.4559],[5.828,52.4693],[5.8273,52.4576],[5.8409,52.4672],[5.8658,52.5187],[5.8873,52.5169]]]}},{"type":"Feature","properties":{"code":"NL015","name":"Utrecht"},"geometry":{"type":"MultiPolygon","coordinates":[[[[5.0225,52.2828],[5.0305,52.2885],[5.0655,52.2852],[5.0229,52.2725],[5.0321,52.2546],[5.0419,52.2566],[5.0577,52.2353],[5.0371,52.2253],[5.0366,52.2021],[5.0213,52.2019],[5.0371,52.1981],[5.0325,52.1841],[5.0416,52.1838],[5.0465,52.1659],[5.1214,52.181],[5.1926,52.1778],[5.2658,52.2816],[5.3569,52.2698],[5.3825,52.2592],[5.4036,52.2471],[5.3932,52.2206],[5.4406,52.2058],[5.4399,52.1712],[5.4799,52.1658],[5.4724,52.1629],[5.4843,52.1581],[5.4813,52.1505],[5.5141,52.1359],[5.4947,52.1247],[5.5077,52.1139],[5.4864,52.1154],[5.4939,52.1111],[5.4843,52.1055],[5.4861,52.0937],[5.4592,52.0802],[5.4839,52.0697],[5.5227,52.0775],[5.5371,52.0886],[5.5392,52.0978],[5.5315,52.1023],[5.5503,52.1054],[5.5627,52.0783],[5.5579,52.0489],[5.59,52.0344],[5.586,52.0118],[5.6261,51.9741],[5.6203,51.9666],[5.6273,51.9525],[5.6059,51.9431],[5.4862,51.9838],[5.4362,51.9853],[5.391,51.9707],[5.3556,51.9704],[5.3234,51.9551],[5.2369,51.9788],[5.2135,51.9607],[5.1802,51.9674],[5.1127,51.8878],[5.0904,51.8887],[5.0813,51.876],[5.0554,51.873],[5.0593,51.8582],[5.0263,51.8598],[5.0218,51.8691],[5.027,51.8819],[4.9962,51.8731],[4.995,51.9023],[4.9734,51.8973],[4.9737,51.9077],[4.9562,51.9156],[4.9476,51.9337],[4.9392,51.9289],[4.9295,51.9502],[4.8778,51.938],[4.8604,51.968],[4.8178,51.9998],[4.8571,52.006],[4.8472,52.018],[4.8034,52.0141],[4.7987,52.0223],[4.8295,52.0498],[4.8732,52.0687],[4.8298,52.0668],[4.8253,52.1072],[4.7921,52.1223],[4.8205,52.1422],[4.8745,52.1388],[4.8736,52.1561],[4.8922,52.1618],[4.8026,52.2017],[4.7946,52.2267],[4.8428,52.2353],[4.8701,52.2533],[4.911,52.2527],[4.9294,52.2684],[4.9264,52.2797],[4.9676,52.2796],[4.9835,52.2904],[4.9975,52.2891],[5.0118,52.3034],[5.0215,52.3025],[5.0225,52.2828]]],[[[5.0394,52.2244],[5.0419,52.2241],[5.0419,52.224],[5.0394,52.2244]]],[[[5.042,52.2243],[5.0428,52.224],[5.0419,52.2241],[5.042,52.2243]]]]}},{"type":"Feature","properties":{"code":"NL016","name":"Overijssel"},"geometry":{"type":"Polygon","coordinates":[[[6.1198,52.8542],[6.2017,52.7937],[6.1685,52.7671],[6.1216,52.7542],[6.1566,52.692],[6.1697,52.6861],[6.163,52.6801],[6.1831,52.6751],[6.1805,52.6816],[6.1942,52.6766],[6.2166,52.6864],[6.2701,52.6648],[6.3269,52.6692],[6.3263,52.659],[6.3641,52.6431],[6.3841,52.6123],[6.4313,52.6284],[6.4423,52.6158],[6.4535,52.614],[6.47,52.625],[6.5186,52.6141],[6.5139,52.6463],[6.5528,52.6656],[6.6145,52.674],[6.7083,52.6488],[6.7009,52.6283],[6.7098,52.6278],[6.7273,52.6149],[6.7188,52.5886],[6.7667,52.5635],[6.7259,52.5632],[6.7163,52.5485],[6.6809,52.5533],[6.7053,52.521],[6.6976,52.4863],[6.7527,52.4641],[6.8543,52.4597],[6.8525,52.4499],[6.9417,52.4354],[6.9618,52.4436],[6.9876,52.4698],[7.0108,52.4291],[7.0361,52.4027],[7.0587,52.3994],[7.0722,52.3728],[7.0721,52.3519],[7.0262,52.2873],[7.0424,52.2561],[7.0658,52.2412],[7.0379,52.2274],[6.985,52.225],[6.9512,52.1811],[6.9067,52.1751],[6.8805,52.156],[6.8735,52.1303],[6.8555,52.1205],[6.8227,52.1184],[6.7163,52.1183],[6.663,52.13],[6.6744,52.1428],[6.6713,52.1657],[6.645,52.1742],[6.6121,52.1632],[6.59,52.1825],[6.4924,52.1774],[6.4293,52.2231],[6.4164,52.2422],[6.3518,52.2417],[6.3381,52.2362],[6.3387,52.2272],[6.3204,52.2257],[6.2145,52.2313],[6.2169,52.2265],[6.1784,52.2337],[6.163,52.2285],[6.1684,52.2273],[6.1625,52.2279],[6.1687,52.2207],[6.1641,52.2174],[6.1418,52.2343],[6.1533,52.2471],[6.1239,52.2515],[6.1301,52.2607],[6.1013,52.3012],[6.0841,52.3017],[6.0797,52.3176],[6.0665,52.3178],[6.0761,52.3506],[6.0948,52.3569],[6.0782,52.369],[6.1209,52.3795],[6.1306,52.4],[6.1108,52.4078],[6.1195,52.4329],[6.1023,52.4458],[6.0991,52.4703],[6.0279,52.5096],[5.9653,52.4764],[5.9515,52.4841],[5.9256,52.4741],[5.8873,52.5169],[5.8629,52.5209],[5.8572,52.5528],[5.8321,52.5769],[5.8143,52.5824],[5.8416,52.5838],[5.8317,52.5915],[5.8406,52.6104],[5.8992,52.6183],[5.9314,52.6139],[5.9584,52.6248],[5.9865,52.6232],[6.0222,52.6395],[5.9669,52.6666],[5.9331,52.6713],[5.9648,52.6981],[5.9426,52.715],[5.9218,52.7512],[5.8621,52.781],[5.8188,52.7847],[5.7929,52.8051],[5.8197,52.8173],[5.8361,52.806],[5.8796,52.8012],[5.9242,52.8236],[5.9302,52.835],[5.9558,52.8332],[5.97,52.8424],[5.9965,52.8166],[6.0246,52.8225],[6.0312,52.815],[6.06,52.8261],[6.0526,52.8373],[6.081,52.8387],[6.1198,52.8542]]]}},{"type":"Feature","properties":{"code":"NL017","name":"Friesland"},"geometry":{"type":"Polygon","coordinates":[[[6.191,53.411],[6.159,53.4082],[6.1552,53.3922],[6.1611,53.3834],[6.1556,53.3826],[6.164,53.3782],[6.154,53.3774],[6.1642,53.3777],[6.1652,53.346],[6.1778,53.3397],[6.1741,53.3341],[6.1782,53.3205],[6.1592,53.3169],[6.181,53.3207],[6.1753,53.3326],[6.1811,53.3385],[6.2008,53.3339],[6.175,53.3498],[6.1808,53.3573],[6.1968,53.3527],[6.198,53.3402],[6.2067,53.3547],[6.2379,53.3351],[6.2229,53.3459],[6.2227,53.3515],[6.236,53.3414],[6.2536,53.348],[6.2928,53.335],[6.2805,53.3126],[6.294,53.3084],[6.2693,53.2903],[6.2543,53.2886],[6.2549,53.2685],[6.2322,53.2567],[6.2311,53.2451],[6.218,53.2419],[6.225,53.2386],[6.2146,53.2337],[6.23,53.2178],[6.1996,53.1984],[6.1773,53.167],[6.1757,53.1351],[6.2056,53.1155],[6.261,53.1143],[6.3152,53.0941],[6.3053,53.0812],[6.3678,53.0674],[6.3625,53.034],[6.4276,52.9718],[6.3934,52.9328],[6.3333,52.9064],[6.303,52.925],[6.2566,52.9276],[6.2069,52.8907],[6.081,52.8387],[6.0526,52.8373],[6.06,52.8261],[6.0312,52.815],[6.0246,52.8225],[5.9965,52.8166],[5.97,52.8424],[5.9558,52.8332],[5.9302,52.835],[5.9242,52.8236],[5.8796,52.8012],[5.8361,52.806],[5.8197,52.8173],[5.793,52.805],[5.7488,52.8397],[5.7247,52.844],[5.7296,52.8337],[5.7132,52.838],[5.7153,52.8433],[5.6694,52.841],[5.6576,52.8437],[5.6572,52.854],[5.6446,52.8604],[5.5853,52.8494],[5.5674,52.8342],[5.545,52.8331],[5.4537,52.8547],[5.4149,52.8503],[5.3651,52.8728],[5.3537,52.886],[5.3613,52.8876],[5.3521,52.8864],[5.4068,52.9101],[5.4093,52.9215],[5.3959,52.943],[5.4091,52.9479],[5.4045,52.9598],[5.4108,52.9605],[5.4322,52.971],[5.4113,52.9613],[5.3995,52.99],[5.3968,53.0028],[5.4084,53.0185],[5.3961,53.0286],[5.4029,53.0316],[5.4011,53.0377],[5.4068,53.0331],[5.4046,53.0472],[5.3987,53.0325],[5.3742,53.0443],[5.3802,53.0479],[5.3761,53.0547],[5.4038,53.0517],[5.3794,53.0917],[5.3381,53.0727],[5.3398,53.065],[5.3351,53.0737],[5.3404,53.0634],[5.3337,53.0723],[5.2971,53.0672],[5.1659,52.9999],[5.2932,53.0666],[5.3236,53.0728],[5.323,53.0791],[5.3274,53.073],[5.3329,53.0803],[5.3349,53.0742],[5.3485,53.0777],[5.3779,53.0949],[5.379,53.1081],[5.4009,53.1175],[5.4097,53.1374],[5.4158,53.1646],[5.4125,53.1764],[5.4488,53.2203],[5.5273,53.2573],[5.587,53.3005],[5.8854,53.3887],[5.8784,53.3956],[5.9331,53.3883],[6.0156,53.4029],[6.0839,53.4031],[6.0922,53.4096],[6.1391,53.4035],[6.1769,53.4147],[6.191,53.411]]]}},{"type":"Feature","properties":{"code":"NL018","name":"Drenthe"},"geometry":{"type":"Polygon","coordinates":[[[6.4857,53.2038],[6.5305,53.1956],[6.5637,53.1576],[6.5815,53.1635],[6.5878,53.1459],[6.6144,53.1356],[6.6348,53.1062],[6.6954,53.1212],[6.7433,53.1166],[6.9366,52.9928],[7.0157,52.9248],[7.0455,52.9159],[7.0148,52.873],[7.0403,52.8728],[7.0627,52.8515],[7.0762,52.85],[7.0724,52.8385],[7.0927,52.8382],[7.0716,52.8104],[7.0557,52.6435],[7.0417,52.6327],[6.976,52.6463],[6.9386,52.6379],[6.8972,52.6514],[6.7899,52.6528],[6.742,52.6453],[6.7285,52.6345],[6.7009,52.6283],[6.7083,52.6488],[6.6145,52.674],[6.5528,52.6656],[6.5139,52.6463],[6.5186,52.6141],[6.47,52.625],[6.4535,52.614],[6.4423,52.6158],[6.4313,52.6284],[6.3841,52.6123],[6.3641,52.6431],[6.3263,52.659],[6.3269,52.6692],[6.2701,52.6648],[6.2166,52.6864],[6.1942,52.6766],[6.1805,52.6816],[6.1831,52.6751],[6.163,52.6801],[6.1697,52.6861],[6.1566,52.692],[6.1216,52.7542],[6.1685,52.7671],[6.2017,52.7937],[6.1198,52.8542],[6.2069,52.8907],[6.2566,52.9276],[6.303,52.925],[6.3333,52.9064],[6.3934,52.9328],[6.4276,52.9718],[6.3625,53.034],[6.3678,53.0674],[6.3053,53.0812],[6.3152,53.0941],[6.3444,53.0872],[6.3636,53.1076],[6.3815,53.1534],[6.408,53.1781],[6.4635,53.2001],[6.4857,53.2038]]]}},{"type":"Feature","properties":{"code":"NL019","name":"Waddeneilanden"},"geometry":{"type":"MultiPolygon","coordinates":[[[[4.6669,52.9832],[4.6851,52.9877],[4.7108,52.9751],[4.6745,52.9599],[4.6628,52.9686],[4.6669,52.9832]]],[[[4.9059,53.1313],[4.8972,53.0786],[4.8732,53.0649],[4.8731,53.0554],[4.8472,53.034],[4.8195,53.029],[4.7922,53.0021],[4.7465,53.0102],[4.7737,52.9963],[4.7305,52.9837],[4.7135,52.9973],[4.7086,53.0224],[4.7235,53.0676],[4.8409,53.1833],[4.8611,53.183],[4.9059,53.1313]]],[[[5.1007,53.3031],[4.972,53.2648],[4.9794,53.2489],[4.9194,53.2162],[4.8796,53.2149],[4.8694,53.2045],[4.845,53.2081],[4.8536,53.222],[5.0011,53.2894],[5.064,53.3078],[5.1007,53.3031]]],[[[5.5487,53.4356],[5.4763,53.4175],[5.4749,53.4108],[5.4824,53.4121],[5.4698,53.4065],[5.3839,53.402],[5.2935,53.3704],[5.2597,53.373],[5.2213,53.3651],[5.2162,53.3562],[5.1913,53.3476],[5.1515,53.3502],[5.1855,53.3879],[5.2014,53.3946],[5.4947,53.4442],[5.5262,53.4435],[5.5487,53.4356]]],[[[5.9306,53.4683],[5.9595,53.4628],[5.7732,53.4327],[5.7725,53.4395],[5.73,53.443],[5.6804,53.4247],[5.6431,53.4271],[5.6135,53.4464],[5.6157,53.4534],[5.6602,53.4715],[5.6949,53.4617],[5.7503,53.4605],[5.9306,53.4683]]],[[[6.3292,53.5073],[6.3348,53.5026],[6.2522,53.478],[6.1968,53.4724],[6.202,53.4682],[6.1606,53.4719],[6.1424,53.4577],[6.1363,53.4604],[6.1444,53.4652],[6.1362,53.4674],[6.1154,53.4629],[6.1189,53.4829],[6.1503,53.4971],[6.3926,53.5148],[6.3613,53.5048],[6.3292,53.5073]]],[[[6.5318,53.5338],[6.5059,53.5376],[6.4869,53.5506],[6.4824,53.5462],[6.5095,53.534],[6.4732,53.5358],[6.4885,53.5234],[6.4789,53.514],[6.4606,53.5406],[6.481,53.5522],[6.5002,53.5536],[6.512,53.5394],[6.5318,53.5338]]]]}},{"type":"Feature","properties":{"code":"NL801","name":"Vlissingen"},"geometry":{"type":"Polygon","coordinates":[[[3.8413,51.7809],[3.8174,51.7568],[3.4648,51.5554],[3.4412,51.5257],[3.5163,51.4702],[3.5565,51.4475],[3.5945,51.4348],[3.8078,51.3868],[4.2484,51.3763],[4.2202,51.3473],[3.3933,51.3682],[3.3576,51.363],[3.3572,51.3984],[3.3482,51.428],[3.3354,51.4509],[2.9445,51.6261],[2.924,51.651],[3.3638,51.9858],[3.3877,51.9966],[3.8089,51.8044],[3.8413,51.7809]]]}},{"type":"Feature","properties":{"code":"NL802","name":"Hoek van Holland"},"geometry":{"type":"Polygon","coordinates":[[[4.4782,52.3277],[4.4675,52.2933],[4.4269,52.2433],[4.3577,52.172],[3.9815,51.8472],[3.897,51.7998],[3.8753,51.7761],[3.8413,51.7809],[3.8089,51.8044],[3.3877,51.9966],[3.4072,52.0186],[3.7353,52.2661],[3.9332,52.4377],[3.9642,52.457],[4.4343,52.3419],[4.4782,52.3277]]]}},{"type":"Feature","properties":{"code":"NL803","name":"IJmuiden"},"geometry":{"type":"Polygon","coordinates":[[[4.6561,52.766],[4.6086,52.5782],[4.5042,52.352],[4.4782,52.3277],[4.4343,52.3419],[3.9642,52.457],[3.9876,52.4905],[4.0863,52.7431],[4.1063,52.8176],[4.1314,52.8104],[4.6192,52.7805],[4.6561,52.766]]]}},{"type":"Feature","properties":{"code":"NL804","name":"Texel"},"geometry":{"type":"Polygon","coordinates":[[[5.4186,53.754],[5.5705,53.4762],[5.5756,53.4442],[5.4915,53.4339],[5.4259,53.4318],[5.2124,53.3965],[5.1793,53.3805],[5.1497,53.3475],[5.0904,53.2996],[5.0236,53.2894],[4.968,53.2579],[4.9396,53.2577],[4.8643,53.2141],[4.8593,53.1812],[4.8275,53.1649],[4.7637,53.111],[4.7401,53.0837],[4.7165,53.0457],[4.7216,53.0103],[4.7327,52.9847],[4.7694,52.9368],[4.7131,52.9034],[4.6561,52.766],[4.6192,52.7805],[4.1314,52.8104],[4.1063,52.8176],[4.154,53.055],[4.1674,53.092],[4.3238,53.3138],[4.3503,53.3428],[4.5824,53.5143],[4.6095,53.5322],[5.0193,53.6991],[5.3771,53.7583],[5.4186,53.754]]]}},{"type":"Feature","properties":{"code":"NL805","name":"Rottum"},"geometry":{"type":"Polygon","coordinates":[[[6.3911,53.8793],[6.528,53.5792],[6.5395,53.5442],[6.5031,53.5406],[6.4489,53.5433],[6.4259,53.5249],[6.2702,53.4958],[6.2385,53.5032],[6.1744,53.5049],[6.0522,53.484],[5.9807,53.4627],[5.9014,53.4598],[5.7796,53.4449],[5.7098,53.4603],[5.636,53.4611],[5.5756,53.4442],[5.5705,53.4762],[5.4186,53.754],[5.4414,53.7688],[5.5726,53.7896],[6.1205,53.8454],[6.3589,53.8842],[6.3911,53.8793]]]}},{"type":"Feature","properties":{"code":"NL806","name":"Waddenzee"},"geometry":{"type":"MultiPolygon","coordinates":[[[[4.7064,53.02],[4.7108,53.044],[4.7234,53.0721],[4.8105,53.1603],[4.8354,53.1772],[4.8463,53.2155],[4.8528,53.223],[4.9717,53.2778],[5.1506,53.3508],[5.1651,53.3706],[5.1936,53.3928],[5.1515,53.3502],[5.1913,53.3476],[5.2162,53.3562],[5.2213,53.3651],[5.2597,53.373],[5.2935,53.3704],[5.3839,53.402],[5.4698,53.4065],[5.4824,53.4121],[5.4749,53.4108],[5.4763,53.4175],[5.5487,53.4356],[5.5262,53.4435],[5.4751,53.4415],[5.6554,53.4718],[5.9561,53.4718],[6.1508,53.4975],[6.1189,53.4829],[6.1154,53.4629],[6.1362,53.4674],[6.1444,53.4652],[6.1363,53.4604],[6.1424,53.4577],[6.1606,53.4719],[6.202,53.4682],[6.1968,53.4724],[6.2522,53.478],[6.3348,53.5026],[6.3292,53.5073],[6.3613,53.5048],[6.3926,53.5148],[6.1511,53.4974],[6.4009,53.5247],[6.4676,53.547],[6.4611,53.5391],[6.4805,53.5143],[6.4885,53.5234],[6.4732,53.5358],[6.5095,53.534],[6.4824,53.5462],[6.4869,53.5506],[6.5059,53.5376],[6.5323,53.533],[6.512,53.5394],[6.5002,53.5536],[6.4874,53.5536],[6.5089,53.5607],[6.6604,53.5553],[6.7938,53.5405],[6.959,53.4748],[6.9801,53.3656],[7.0049,53.3344],[7.0521,53.3206],[7.2201,53.3144],[7.2095,53.2993],[7.2199,53.2851],[7.2084,53.2601],[7.2081,53.2317],[7.0848,53.2614],[7.0782,53.2708],[7.0842,53.2976],[7.0984,53.3087],[7.0767,53.3003],[7.027,53.3025],[7.0103,53.3061],[7.0102,53.3158],[7.0006,53.3094],[6.9281,53.3277],[6.9363,53.334],[6.9021,53.3475],[6.8881,53.396],[6.8742,53.408],[6.8835,53.4408],[6.8416,53.4604],[6.8384,53.4469],[6.8554,53.4413],[6.8129,53.4508],[6.8321,53.4507],[6.8172,53.4574],[6.8347,53.4559],[6.8349,53.4625],[6.7984,53.455],[6.746,53.466],[6.6958,53.462],[6.5676,53.4317],[6.3677,53.4158],[6.306,53.3927],[6.2493,53.4155],[6.2031,53.4079],[6.1769,53.4147],[6.1391,53.4035],[6.0922,53.4096],[6.0839,53.4031],[6.0156,53.4029],[5.9331,53.3883],[5.8784,53.3956],[5.8854,53.3887],[5.5785,53.296],[5.5273,53.2573],[5.4488,53.2203],[5.4125,53.1764],[5.4158,53.1646],[5.4097,53.1374],[5.4009,53.1175],[5.379,53.1081],[5.3779,53.0949],[5.3485,53.0777],[5.3349,53.0742],[5.3329,53.0803],[5.3274,53.073],[5.323,53.0791],[5.3236,53.0728],[5.2932,53.0666],[5.0411,52.9343],[5.0246,52.9427],[5.021,52.9349],[4.9685,52.9303],[4.9351,52.9035],[4.883,52.8888],[4.8067,52.9127],[4.7913,52.9362],[4.8013,52.9645],[4.7897,52.9628],[4.7982,52.9596],[4.7944,52.9555],[4.7748,52.9606],[4.7842,52.9661],[4.7309,52.9626],[4.7129,52.9889],[4.7064,53.02]],[[4.9083,53.133],[4.8776,53.1578],[4.8797,53.164],[4.8611,53.183],[4.8409,53.1833],[4.8311,53.1718],[4.7581,53.1059],[4.7235,53.0676],[4.7086,53.0224],[4.7135,52.9973],[4.7305,52.9837],[4.7737,52.9963],[4.7465,53.0102],[4.7931,53.0024],[4.8195,53.029],[4.8472,53.034],[4.8731,53.0554],[4.8732,53.0649],[4.8997,53.0834],[4.9002,53.125],[4.9083,53.133]],[[5.0926,53.2955],[5.1007,53.3031],[5.064,53.3078],[5.0363,53.302],[4.8536,53.222],[4.845,53.2081],[4.8694,53.2045],[4.8796,53.2149],[4.9194,53.2162],[4.9794,53.2489],[4.972,53.2648],[5.063,53.294],[5.0926,53.2955]],[[5.9306,53.4683],[5.7517,53.4602],[5.6949,53.4617],[5.6602,53.4715],[5.6157,53.4534],[5.6135,53.4464],[5.6431,53.4271],[5.6804,53.4247],[5.73,53.443],[5.7725,53.4395],[5.7732,53.4327],[5.9595,53.4628],[5.9306,53.4683]]],[[[5.4695,53.4406],[5.376,53.4231],[5.2294,53.4],[5.2512,53.4043],[5.4695,53.4406]]],[[[6.1911,53.411],[6.2364,53.3915],[6.2216,53.3882],[6.1848,53.4033],[6.1794,53.3945],[6.2017,53.3856],[6.1845,53.3785],[6.2337,53.3732],[6.2097,53.3672],[6.2377,53.3692],[6.2418,53.365],[6.2339,53.3602],[6.2574,53.3589],[6.2323,53.3522],[6.2331,53.3442],[6.2498,53.3493],[6.2586,53.3488],[6.2992,53.3395],[6.2928,53.335],[6.2536,53.348],[6.236,53.3414],[6.2227,53.3515],[6.2379,53.3351],[6.2067,53.3547],[6.198,53.3402],[6.1968,53.3527],[6.1808,53.3573],[6.175,53.3498],[6.2008,53.3339],[6.1811,53.3385],[6.1753,53.3326],[6.181,53.3207],[6.1592,53.3169],[6.1783,53.3206],[6.1741,53.3341],[6.1776,53.3397],[6.1652,53.346],[6.1642,53.3777],[6.154,53.3774],[6.164,53.3782],[6.1556,53.3826],[6.1611,53.3834],[6.1549,53.3923],[6.159,53.4082],[6.1911,53.411]]]]}},{"type":"Feature","properties":{"code":"NL807","name":"IJsselmeer"},"geometry":{"type":"MultiPolygon","coordinates":[[[[5.042,52.9352],[5.0411,52.9343],[5.0405,52.9345],[5.042,52.9352]]],[[[5.0494,52.939],[5.048,52.9376],[5.043,52.9357],[5.0494,52.939]]],[[[5.2971,53.0672],[5.3336,53.0724],[5.3371,53.0649],[5.3404,53.0634],[5.3351,53.0737],[5.3398,53.065],[5.3381,53.0727],[5.3794,53.0917],[5.4038,53.0517],[5.3761,53.0547],[5.3802,53.0479],[5.3742,53.0443],[5.3987,53.0325],[5.4046,53.0472],[5.4068,53.0331],[5.4011,53.0377],[5.4029,53.0316],[5.3961,53.0286],[5.4084,53.0185],[5.3968,53.0028],[5.3995,52.99],[5.4113,52.9613],[5.4322,52.971],[5.4108,52.9605],[5.4045,52.9598],[5.4091,52.9479],[5.3959,52.943],[5.4093,52.9215],[5.4068,52.9101],[5.3521,52.8864],[5.3613,52.8876],[5.3537,52.886],[5.3651,52.8728],[5.4149,52.8503],[5.4537,52.8547],[5.5449,52.8331],[5.5673,52.8342],[5.5853,52.8494],[5.6445,52.8604],[5.6572,52.854],[5.6576,52.8437],[5.7166,52.8426],[5.7132,52.838],[5.6633,52.8302],[5.5952,52.7626],[5.5915,52.661],[5.6159,52.6506],[5.6493,52.6147],[5.5587,52.5923],[5.4974,52.5544],[5.4545,52.5514],[5.4349,52.5276],[5.4263,52.528],[5.4398,52.5555],[5.4484,52.5616],[5.4644,52.5657],[5.4686,52.5696],[5.4564,52.5936],[5.4158,52.6371],[5.4132,52.636],[5.3995,52.6494],[5.3612,52.6744],[5.3537,52.6777],[5.3021,52.6916],[5.2875,52.6911],[5.2796,52.696],[5.3078,52.7084],[5.288,52.7148],[5.2827,52.7423],[5.2584,52.7457],[5.27,52.7475],[5.2583,52.7535],[5.1929,52.755],[5.1803,52.7414],[5.1546,52.7384],[5.1235,52.7557],[5.1239,52.7649],[5.1041,52.7745],[5.1113,52.8543],[5.0486,52.9241],[5.0379,52.9215],[5.0389,52.9313],[5.0492,52.9297],[5.0441,52.9353],[5.2971,53.0672]]],[[[5.1389,52.3261],[5.0824,52.3396],[5.0321,52.3335],[5.0262,52.3381],[5.0349,52.3445],[5.0151,52.3478],[5.0204,52.3565],[5.0095,52.3533],[4.9733,52.3676],[4.9803,52.369],[4.974,52.3794],[5.0117,52.3736],[5.0109,52.3831],[5.0249,52.3879],[5.0313,52.4007],[5.0673,52.4134],[5.0749,52.4287],[5.0868,52.4321],[5.0919,52.4374],[5.0949,52.4485],[5.1394,52.4597],[5.1049,52.4673],[5.0926,52.4517],[5.0888,52.4348],[5.0494,52.4394],[5.0552,52.4609],[5.0409,52.4582],[5.0336,52.4674],[5.0685,52.4688],[5.06,52.4869],[5.0857,52.5038],[5.0312,52.5675],[5.0189,52.6299],[5.0457,52.6416],[5.0522,52.6414],[5.0604,52.6331],[5.0582,52.6368],[5.063,52.6335],[5.0665,52.6408],[5.0681,52.6348],[5.0887,52.6425],[5.1065,52.6316],[5.121,52.6326],[5.1279,52.6199],[5.1593,52.6232],[5.2306,52.6528],[5.2465,52.6855],[5.3018,52.691],[5.3528,52.6773],[5.399,52.6488],[5.4555,52.5936],[5.4674,52.5693],[5.4642,52.5662],[5.4516,52.5633],[5.4435,52.5595],[5.4385,52.5549],[5.4272,52.538],[5.425,52.5208],[5.4341,52.5264],[5.4406,52.5178],[5.4346,52.5112],[5.1243,52.3805],[5.1342,52.348],[5.1297,52.3399],[5.1449,52.3314],[5.1389,52.3261]]]]}}]}