{"type":"FeatureCollection","features":[{"type":"Feature","properties":{"code":"PT001","name":"Portugal"},"geometry":{"type":"MultiPolygon","coordinates":[[[[-31.1134,39.6693],[-31.0865,39.6866],[-31.0826,39.6961],[-31.0815,39.707],[-31.0872,39.719],[-31.102,39.7255],[-31.1146,39.7243],[-31.1281,39.7023],[-31.1165,39.6797],[-31.1217,39.6715],[-31.1134,39.6693]]],[[[-31.2301,39.3712],[-31.2199,39.3759],[-31.1918,39.3729],[-31.1717,39.377],[-31.1596,39.3856],[-31.1475,39.4082],[-31.15,39.4182],[-31.1415,39.426],[-31.1426,39.4375],[-31.1241,39.4539],[-31.1278,39.4643],[-31.1355,39.4633],[-31.148,39.4751],[-31.1569,39.5029],[-31.1722,39.4977],[-31.2017,39.5084],[-31.2075,39.5251],[-31.2129,39.5204],[-31.2363,39.5207],[-31.232,39.5144],[-31.2571,39.489],[-31.2581,39.4605],[-31.2654,39.4588],[-31.2671,39.4501],[-31.2593,39.4365],[-31.264,39.4282],[-31.2623,39.4191],[-31.2513,39.406],[-31.2584,39.3982],[-31.2558,39.3886],[-31.2471,39.3757],[-31.2301,39.3712]]]]}},{"type":"Feature","properties":{"code":"PT002","name":"Portugal"},"geometry":{"type":"MultiPolygon","coordinates":[[[[-27.7763,38.5643],[-27.903,38.6145],[-27.9159,38.6157],[-27.9269,38.6272],[-27.961,38.6376],[-27.9636,38.643],[-27.9765,38.644],[-28.0234,38.6718],[-28.0458,38.6729],[-28.0495,38.6809],[-28.0565,38.6768],[-28.0783,38.6812],[-28.2876,38.7519],[-28.3163,38.753],[-28.2685,38.7158],[-28.2303,38.7014],[-28.2205,38.6846],[-28.1992,38.6795],[-28.1949,38.6706],[-28.1843,38.6644],[-28.1046,38.6321],[-28.0698,38.628],[-28.0238,38.6015],[-27.985,38.5941],[-27.9706,38.5968],[-27.9425,38.5895],[-27.9193,38.5737],[-27.8266,38.5334],[-27.7737,38.5362],[-27.7523,38.5477],[-27.7763,38.5643]]],[[[-27.2151,38.6507],[-27.2064,38.6548],[-27.1935,38.6515],[-27.1729,38.6548],[-27.141,38.6445],[-27.1038,38.6444],[-27.0972,38.6485],[-27.0884,38.6426],[-27.0789,38.6454],[-27.0729,38.6715],[-27.0559,38.6784],[-27.0578,38.6829],[-27.0415,38.6964],[-27.0507,38.7112],[-27.0616,38.7155],[-27.0608,38.7286],[-27.0518,38.73],[-27.0495,38.7377],[-27.0604,38.7475],[-27.0608,38.7595],[-27.1033,38.7857],[-27.1296,38.7811],[-27.1326,38.7864],[-27.1532,38.7866],[-27.1822,38.7964],[-27.2023,38.7957],[-27.214,38.8005],[-27.2158,38.7934],[-27.2293,38.7914],[-27.2326,38.798],[-27.2558,38.8033],[-27.3052,38.7991],[-27.3321,38.794],[-27.3622,38.7811],[-27.3793,38.7465],[-27.3781,38.7319],[-27.3688,38.707],[-27.3516,38.6875],[-27.2768,38.6523],[-27.2671,38.657],[-27.2298,38.6558],[-27.2342,38.6441],[-27.2251,38.639],[-27.2174,38.6424],[-27.2205,38.6534],[-27.2151,38.6507]]],[[[-28.0937,38.3997],[-28.0292,38.4115],[-28.0282,38.4157],[-28.0349,38.4288],[-28.0556,38.4381],[-28.0586,38.4435],[-28.1336,38.4509],[-28.1914,38.4626],[-28.2007,38.4758],[-28.232,38.4872],[-28.2405,38.498],[-28.2571,38.4969],[-28.2816,38.507],[-28.2907,38.5055],[-28.3295,38.5363],[-28.3881,38.5578],[-28.4146,38.5613],[-28.4479,38.5552],[-28.4769,38.5605],[-28.5191,38.5455],[-28.5369,38.5299],[-28.5417,38.5085],[-28.5394,38.4852],[-28.5211,38.4651],[-28.515,38.4512],[-28.4607,38.4311],[-28.4462,38.4209],[-28.4259,38.4215],[-28.4197,38.4273],[-28.4025,38.426],[-28.3635,38.4123],[-28.3515,38.4158],[-28.3029,38.4106],[-28.2724,38.4125],[-28.256,38.4037],[-28.2557,38.391],[-28.2376,38.3824],[-28.1967,38.395],[-28.1868,38.4067],[-28.172,38.4096],[-28.1179,38.4061],[-28.0937,38.3997]]],[[[-28.6258,38.5339],[-28.6196,38.5427],[-28.605,38.5436],[-28.6032,38.5488],[-28.6115,38.5614],[-28.6035,38.5696],[-28.6082,38.5793],[-28.598,38.592],[-28.6214,38.611],[-28.6478,38.6171],[-28.6617,38.6297],[-28.6844,38.6386],[-28.7147,38.6441],[-28.7569,38.6103],[-28.7912,38.6118],[-28.8303,38.6039],[-28.8219,38.5865],[-28.7806,38.5651],[-28.7673,38.5665],[-28.758,38.5593],[-28.7458,38.5242],[-28.7199,38.5174],[-28.6266,38.5261],[-28.6323,38.5175],[-28.6194,38.519],[-28.6258,38.5339]]],[[[-27.9485,39.0213],[-27.9561,39.0401],[-27.9697,39.0498],[-27.9701,39.0575],[-27.996,39.0883],[-28.0083,39.088],[-28.0336,39.097],[-28.0443,39.0956],[-28.0707,39.0702],[-28.0508,39.0403],[-28.0322,39.0221],[-28.0177,39.0246],[-27.9986,39.0144],[-27.9701,39.0086],[-27.9512,39.0137],[-27.9485,39.0213]]]]}},{"type":"Feature","properties":{"code":"PT003","name":"Portugal"},"geometry":{"type":"MultiPolygon","coordinates":[[[[-25.1997,37.7362],[-25.1726,37.7419],[-25.1496,37.7584],[-25.1389,37.781],[-25.1417,37.8002],[-25.1342,37.8075],[-25.1472,37.8481],[-25.1648,37.8558],[-25.1937,37.8596],[-25.2429,37.8538],[-25.2775,37.8604],[-25.2975,37.8551],[-25.3241,37.8626],[-25.327,37.8549],[-25.3376,37.8491],[-25.4261,37.8228],[-25.4275,37.83],[-25.4398,37.8238],[-25.4695,37.8248],[-25.491,37.8438],[-25.5223,37.8256],[-25.5537,37.8155],[-25.5862,37.8138],[-25.6247,37.8313],[-25.6395,37.8286],[-25.6788,37.837],[-25.6805,37.8446],[-25.6929,37.8446],[-25.6987,37.864],[-25.7043,37.8655],[-25.7084,37.8769],[-25.7206,37.8873],[-25.7806,37.9105],[-25.8025,37.8968],[-25.8197,37.9003],[-25.8241,37.8857],[-25.8312,37.8782],[-25.84,37.8774],[-25.84,37.8726],[-25.8545,37.8607],[-25.8407,37.8282],[-25.8177,37.8115],[-25.7878,37.7984],[-25.7755,37.7828],[-25.768,37.7825],[-25.7295,37.7543],[-25.6875,37.733],[-25.6381,37.7438],[-25.6308,37.7502],[-25.58,37.7405],[-25.5673,37.7436],[-25.5293,37.7157],[-25.5188,37.7175],[-25.5111,37.7078],[-25.4825,37.7185],[-25.4431,37.7117],[-25.393,37.7167],[-25.3679,37.7136],[-25.3515,37.7244],[-25.3184,37.7247],[-25.2761,37.744],[-25.252,37.7471],[-25.2175,37.7368],[-25.1997,37.7362]]],[[[-25.0161,36.9593],[-25.055,36.9887],[-25.052,37.0107],[-25.059,37.0153],[-25.0744,37.0098],[-25.0855,37.016],[-25.1095,37.0121],[-25.1192,37.0036],[-25.1288,37.0084],[-25.1338,37.0027],[-25.1459,37.0074],[-25.1454,37.0122],[-25.1583,37.0046],[-25.1638,37.0069],[-25.1737,36.9981],[-25.1813,36.9974],[-25.1846,36.9829],[-25.1743,36.9686],[-25.1681,36.9454],[-25.1575,36.9399],[-25.1482,36.9462],[-25.1401,36.9388],[-25.1272,36.9469],[-25.1029,36.952],[-25.0832,36.9445],[-25.0784,36.9356],[-25.0667,36.9286],[-25.028,36.9333],[-25.018,36.9293],[-25.0132,36.9405],[-25.0217,36.9544],[-25.0161,36.9593]]]]}},{"type":"Feature","properties":{"code":"PT005","name":"Portugal"},"geometry":{"type":"Polygon","coordinates":[[[-7.1078,38.188],[-7.1245,38.1848],[-7.1315,38.171],[-7.1524,38.1735],[-7.1596,38.1599],[-7.1834,38.2056],[-7.1984,38.2224],[-7.1902,38.2464],[-7.2441,38.2631],[-7.2602,38.2819],[-7.2611,38.2965],[-7.2788,38.3201],[-7.2804,38.3301],[-7.3118,38.3246],[-7.3203,38.3169],[-7.3352,38.3213],[-7.3558,38.2993],[-7.3846,38.3022],[-7.4135,38.264],[-7.4321,38.2607],[-7.4381,38.243],[-7.4536,38.2347],[-7.461,38.2199],[-7.4977,38.2045],[-7.4916,38.1901],[-7.4978,38.1885],[-7.5585,38.1944],[-7.566,38.1888],[-7.5802,38.1938],[-7.5881,38.2033],[-7.6098,38.2027],[-7.635,38.2095],[-7.6696,38.2002],[-7.7112,38.2141],[-7.7341,38.2334],[-7.759,38.2465],[-7.7807,38.2488],[-7.7906,38.2548],[-7.8036,38.2463],[-7.8178,38.2446],[-7.8212,38.252],[-7.8395,38.2518],[-7.9434,38.3053],[-7.9805,38.3171],[-7.9957,38.3025],[-8.0199,38.3007],[-8.0436,38.3261],[-8.0551,38.3283],[-8.072,38.3184],[-8.1115,38.3197],[-8.1311,38.3129],[-8.1422,38.315],[-8.1492,38.3272],[-8.1618,38.3271],[-8.1644,38.3198],[-8.1431,38.2978],[-8.1297,38.2663],[-8.1299,38.224],[-8.1654,38.2176],[-8.2031,38.2007],[-8.2186,38.2031],[-8.2297,38.197],[-8.2397,38.1795],[-8.2664,38.1801],[-8.2843,38.1866],[-8.2899,38.1704],[-8.2871,38.162],[-8.2915,38.155],[-8.2911,38.1387],[-8.308,38.1373],[-8.3336,38.1552],[-8.3384,38.141],[-8.3561,38.1374],[-8.3545,38.119],[-8.364,38.1036],[-8.3863,38.1161],[-8.3943,38.1075],[-8.4007,38.0791],[-8.4097,38.0724],[-8.3948,38.0529],[-8.3713,38.0406],[-8.3744,38.0317],[-8.3531,38.0274],[-8.3475,38.0172],[-8.3278,38.0239],[-8.3144,38.0164],[-8.3057,37.9991],[-8.2954,37.9932],[-8.2959,37.951],[-8.3071,37.9299],[-8.3001,37.9241],[-8.3093,37.9117],[-8.2994,37.8992],[-8.3126,37.8917],[-8.3111,37.8818],[-8.3362,37.8646],[-8.3308,37.847],[-8.3678,37.861],[-8.3858,37.8603],[-8.4347,37.8709],[-8.4405,37.86],[-8.4621,37.8656],[-8.4793,37.855],[-8.5327,37.8549],[-8.5513,37.8474],[-8.5481,37.8183],[-8.5691,37.817],[-8.5838,37.7994],[-8.582,37.7896],[-8.5885,37.7814],[-8.5871,37.7568],[-8.6084,37.7594],[-8.6173,37.7495],[-8.6605,37.7683],[-8.6835,37.7532],[-8.6901,37.7586],[-8.6951,37.7758],[-8.7073,37.7789],[-8.7265,37.8086],[-8.7366,37.8149],[-8.7827,37.8072],[-8.7855,37.8179],[-8.793,37.8196],[-8.8017,37.7955],[-8.802,37.7805],[-8.8071,37.7748],[-8.8098,37.7415],[-8.7971,37.7364],[-8.7924,37.7202],[-8.7873,37.7178],[-8.8119,37.6099],[-8.8193,37.5984],[-8.7857,37.5328],[-8.7967,37.4988],[-8.795,37.4816],[-8.8004,37.473],[-8.7969,37.4642],[-8.8018,37.4462],[-8.7928,37.4364],[-8.7693,37.4366],[-8.7535,37.4303],[-8.7486,37.4159],[-8.7391,37.4145],[-8.7372,37.4039],[-8.7285,37.3985],[-8.6593,37.3979],[-8.6538,37.3865],[-8.6392,37.3755],[-8.6234,37.3994],[-8.5849,37.4035],[-8.5692,37.4109],[-8.5203,37.3816],[-8.4942,37.386],[-8.4564,37.375],[-8.4508,37.3831],[-8.4409,37.3864],[-8.4302,37.3834],[-8.4216,37.395],[-8.4243,37.4108],[-8.4163,37.42],[-8.3642,37.4303],[-8.343,37.4257],[-8.337,37.4326],[-8.3235,37.4269],[-8.3199,37.4369],[-8.2849,37.4309],[-8.2776,37.4246],[-8.2784,37.4138],[-8.2646,37.408],[-8.2758,37.4025],[-8.2746,37.3883],[-8.2485,37.3846],[-8.2461,37.3779],[-8.1885,37.3416],[-8.1026,37.3264],[-8.0829,37.3288],[-8.0658,37.3189],[-8.0273,37.3547],[-8.017,37.3543],[-7.9983,37.3643],[-8.0049,37.3863],[-8.0003,37.3975],[-7.9868,37.3961],[-7.9789,37.4065],[-7.9653,37.409],[-7.9419,37.4035],[-7.9191,37.4077],[-7.8916,37.4219],[-7.8968,37.4265],[-7.8906,37.4346],[-7.8763,37.4323],[-7.8719,37.4386],[-7.8613,37.4357],[-7.8524,37.4493],[-7.8335,37.4482],[-7.8005,37.4627],[-7.7919,37.4713],[-7.7773,37.4731],[-7.7606,37.4867],[-7.754,37.4799],[-7.7424,37.4918],[-7.7212,37.4931],[-7.713,37.5018],[-7.6595,37.5018],[-7.6461,37.4949],[-7.6415,37.5002],[-7.6202,37.4899],[-7.609,37.5025],[-7.5955,37.5047],[-7.5966,37.5128],[-7.5791,37.5174],[-7.5744,37.5291],[-7.5649,37.5225],[-7.5125,37.5263],[-7.5123,37.5378],[-7.5227,37.5531],[-7.52,37.5591],[-7.5065,37.5584],[-7.5075,37.5668],[-7.4975,37.5906],[-7.5037,37.6038],[-7.4902,37.6033],[-7.4863,37.6123],[-7.4713,37.6242],[-7.471,37.6349],[-7.4566,37.6459],[-7.4448,37.6639],[-7.4489,37.6747],[-7.4438,37.6892],[-7.4476,37.6979],[-7.4318,37.72],[-7.4276,37.7416],[-7.419,37.7435],[-7.4226,37.7546],[-7.4092,37.7666],[-7.3952,37.7651],[-7.3765,37.7838],[-7.3213,37.8187],[-7.2796,37.877],[-7.2822,37.8976],[-7.2738,37.8988],[-7.2679,37.9126],[-7.2548,37.9237],[-7.2576,37.9321],[-7.2485,37.9543],[-7.2497,37.9669],[-7.2618,37.9775],[-7.2456,37.9918],[-7.2267,37.9881],[-7.2008,38.0032],[-7.1861,38.0021],[-7.1734,37.9928],[-7.1287,38.0017],[-7.1272,38.0306],[-7.1162,38.0317],[-7.1083,38.0409],[-7.0985,38.0438],[-7.0622,38.0269],[-7.0634,38.0196],[-7.0447,38.014],[-7.0242,38.0248],[-7.0072,38.0208],[-6.999,38.0348],[-7.0002,38.049],[-6.9905,38.0544],[-6.9898,38.09],[-6.9594,38.1335],[-6.958,38.1563],[-6.9692,38.1605],[-6.9536,38.1863],[-6.9338,38.2019],[-6.9423,38.2181],[-6.9564,38.217],[-6.9719,38.2021],[-6.9804,38.2113],[-6.9955,38.2038],[-7.0118,38.2033],[-7.0286,38.1825],[-7.0435,38.1873],[-7.0525,38.1795],[-7.0583,38.1866],[-7.0841,38.1694],[-7.0895,38.1787],[-7.0972,38.179],[-7.1078,38.188]]]}},{"type":"Feature","properties":{"code":"PT006","name":"Portugal"},"geometry":{"type":"Polygon","coordinates":[[[-8.1687,41.8072],[-8.1618,41.861],[-8.1693,41.8765],[-8.1934,41.8764],[-8.2154,41.8988],[-8.2169,41.9132],[-8.1979,41.9395],[-8.1749,41.9551],[-8.163,41.9827],[-8.1408,41.9887],[-8.1303,42.0036],[-8.115,42.0049],[-8.086,42.0165],[-8.0845,42.0473],[-8.0966,42.0723],[-8.1187,42.0823],[-8.138,42.0758],[-8.1496,42.0793],[-8.182,42.065],[-8.1935,42.1291],[-8.1879,42.1366],[-8.1954,42.1482],[-8.2257,42.1329],[-8.2401,42.1391],[-8.2536,42.1367],[-8.2556,42.1273],[-8.2631,42.1209],[-8.2737,42.1241],[-8.3039,42.1039],[-8.3237,42.1003],[-8.3253,42.0895],[-8.3319,42.0838],[-8.3566,42.0903],[-8.371,42.0883],[-8.3816,42.0763],[-8.4048,42.0804],[-8.4297,42.0724],[-8.4398,42.0814],[-8.4512,42.0827],[-8.5181,42.0796],[-8.5283,42.0726],[-8.5254,42.0637],[-8.5468,42.054],[-8.5857,42.0524],[-8.5954,42.0569],[-8.6368,42.0475],[-8.6592,42.026],[-8.6614,42.0033],[-8.6773,41.9921],[-8.7161,41.9802],[-8.746,41.9645],[-8.7477,41.9431],[-8.7563,41.9331],[-8.7857,41.9174],[-8.8184,41.9113],[-8.8525,41.8752],[-8.8715,41.8639],[-8.8687,41.8452],[-8.8761,41.8404],[-8.8741,41.8203],[-8.8646,41.813],[-8.8744,41.7981],[-8.8728,41.7737],[-8.8811,41.7527],[-8.8568,41.7005],[-8.8306,41.6778],[-8.8195,41.6265],[-8.8116,41.6116],[-8.8014,41.6065],[-8.7758,41.616],[-8.7568,41.6144],[-8.7567,41.6215],[-8.7324,41.6217],[-8.7242,41.6338],[-8.7049,41.6331],[-8.6964,41.6407],[-8.664,41.6423],[-8.6552,41.634],[-8.6463,41.6328],[-8.6478,41.6452],[-8.6433,41.6544],[-8.6286,41.6508],[-8.6041,41.6343],[-8.5851,41.6439],[-8.5773,41.643],[-8.565,41.6253],[-8.5407,41.6313],[-8.5427,41.6377],[-8.5364,41.6495],[-8.5429,41.6714],[-8.5302,41.6805],[-8.5218,41.6796],[-8.5137,41.7213],[-8.5183,41.7263],[-8.4935,41.7415],[-8.4873,41.7398],[-8.486,41.7272],[-8.4615,41.7322],[-8.4306,41.7536],[-8.3826,41.7614],[-8.3749,41.7704],[-8.3497,41.7598],[-8.3367,41.7646],[-8.3068,41.7612],[-8.2915,41.7819],[-8.271,41.7714],[-8.2317,41.7874],[-8.1967,41.8122],[-8.1687,41.8072]]]}},{"type":"Feature","properties":{"code":"PT007","name":"Portugal"},"geometry":{"type":"Polygon","coordinates":[[[-7.2005,41.8795],[-7.2331,41.8673],[-7.2578,41.8659],[-7.3153,41.8425],[-7.3564,41.8405],[-7.3639,41.8528],[-7.39,41.8423],[-7.3976,41.8264],[-7.4088,41.8167],[-7.4306,41.8214],[-7.4284,41.8328],[-7.4438,41.8394],[-7.4525,41.8651],[-7.4853,41.8613],[-7.4913,41.8712],[-7.5133,41.8621],[-7.5056,41.8508],[-7.5207,41.8422],[-7.5739,41.8297],[-7.5988,41.8331],[-7.6113,41.8292],[-7.6115,41.8467],[-7.5833,41.8787],[-7.6076,41.8795],[-7.6184,41.8851],[-7.6254,41.8799],[-7.6539,41.8812],[-7.7041,41.9073],[-7.7334,41.8923],[-7.7635,41.899],[-7.7784,41.8869],[-7.8452,41.8813],[-7.8419,41.866],[-7.8663,41.8589],[-7.8729,41.8466],[-7.8882,41.8661],[-7.8837,41.9184],[-7.888,41.9268],[-7.9063,41.9271],[-7.9213,41.8818],[-7.9488,41.871],[-7.9746,41.8753],[-7.9887,41.8675],[-8.0126,41.8335],[-8.0512,41.8195],[-8.0451,41.8104],[-8.0487,41.7997],[-8.0573,41.7981],[-8.0636,41.7737],[-8.0611,41.7626],[-8.0765,41.7498],[-8.0819,41.7246],[-8.0943,41.7074],[-8.109,41.7019],[-8.1185,41.6923],[-8.1124,41.6878],[-8.0738,41.6955],[-8.048,41.6928],[-8.0389,41.7006],[-8.0247,41.698],[-8.0177,41.6891],[-7.9941,41.6865],[-7.9817,41.6777],[-7.9989,41.6531],[-8.003,41.6209],[-7.9966,41.6031],[-7.9665,41.6039],[-7.9527,41.5931],[-7.9321,41.5953],[-7.9056,41.587],[-7.8908,41.5933],[-7.8794,41.5882],[-7.8573,41.6014],[-7.8509,41.6151],[-7.8295,41.6022],[-7.8107,41.5733],[-7.822,41.5559],[-7.8326,41.5569],[-7.8378,41.5393],[-7.8529,41.5272],[-7.864,41.5244],[-7.8614,41.5118],[-7.8886,41.509],[-7.9026,41.4893],[-7.9257,41.4888],[-7.9382,41.4774],[-7.9387,41.4606],[-7.9438,41.4526],[-7.9374,41.4459],[-7.9417,41.43],[-7.9667,41.4121],[-7.9726,41.4027],[-7.9673,41.3893],[-7.9742,41.3752],[-7.9726,41.3603],[-7.9479,41.3535],[-7.9653,41.3322],[-7.9582,41.3244],[-7.9295,41.3181],[-7.9138,41.3055],[-7.9214,41.2903],[-7.9141,41.2805],[-7.9151,41.2743],[-7.8964,41.2675],[-7.8942,41.2487],[-7.8756,41.242],[-7.8941,41.2092],[-7.888,41.1891],[-7.8989,41.1729],[-7.8896,41.1629],[-7.9037,41.1547],[-7.9012,41.1473],[-7.9136,41.135],[-7.9119,41.1199],[-7.8974,41.1241],[-7.8967,41.1326],[-7.8871,41.1345],[-7.8764,41.1562],[-7.8602,41.1585],[-7.8139,41.1457],[-7.8052,41.1586],[-7.7928,41.1609],[-7.7767,41.1521],[-7.6963,41.1419],[-7.6647,41.1627],[-7.5901,41.1563],[-7.5565,41.1731],[-7.5494,41.1872],[-7.5223,41.18],[-7.5082,41.1972],[-7.4642,41.2018],[-7.4512,41.2144],[-7.4319,41.2108],[-7.4215,41.2203],[-7.4231,41.2391],[-7.4151,41.2477],[-7.3898,41.2425],[-7.3947,41.2626],[-7.387,41.2737],[-7.3914,41.2858],[-7.3732,41.293],[-7.3622,41.3043],[-7.3755,41.3144],[-7.3573,41.3307],[-7.3142,41.3415],[-7.3481,41.3516],[-7.3623,41.3668],[-7.3536,41.3756],[-7.3614,41.382],[-7.3581,41.3883],[-7.3663,41.3969],[-7.3669,41.4152],[-7.3596,41.4244],[-7.3653,41.4404],[-7.3446,41.4527],[-7.3331,41.451],[-7.3304,41.4592],[-7.3077,41.4613],[-7.2974,41.4992],[-7.284,41.5156],[-7.2291,41.5228],[-7.2584,41.5632],[-7.2588,41.5734],[-7.2533,41.5808],[-7.2584,41.5903],[-7.2522,41.6125],[-7.2453,41.6172],[-7.2482,41.6297],[-7.2429,41.6422],[-7.2138,41.6812],[-7.2089,41.7118],[-7.1962,41.7198],[-7.1884,41.7353],[-7.1759,41.7373],[-7.1712,41.7699],[-7.1943,41.7835],[-7.1984,41.8025],[-7.2088,41.8092],[-7.2017,41.858],[-7.1949,41.8663],[-7.2029,41.873],[-7.2005,41.8795]]]}},{"type":"Feature","properties":{"code":"PT008","name":"Portugal"},"geometry":{"type":"Polygon","coordinates":[[[-6.9314,41.0294],[-6.915,41.0384],[-6.8685,41.0269],[-6.8338,41.0285],[-6.8089,41.0365],[-6.8081,41.0455],[-6.7899,41.0576],[-6.7542,41.1041],[-6.7708,41.124],[-6.7679,41.1348],[-6.7542,41.1397],[-6.7015,41.1803],[-6.6889,41.1998],[-6.6915,41.207],[-6.6605,41.2339],[-6.6529,41.2354],[-6.6484,41.2475],[-6.6287,41.2428],[-6.5867,41.2524],[-6.5805,41.2391],[-6.5508,41.2465],[-6.5471,41.258],[-6.5174,41.2745],[-6.5128,41.2653],[-6.4987,41.2652],[-6.4788,41.275],[-6.4913,41.2849],[-6.4896,41.2893],[-6.4688,41.3013],[-6.4493,41.2989],[-6.4376,41.3053],[-6.4384,41.315],[-6.4332,41.3208],[-6.4181,41.3262],[-6.426,41.3349],[-6.4153,41.348],[-6.3921,41.3499],[-6.3797,41.3563],[-6.3935,41.3699],[-6.3905,41.3841],[-6.365,41.3868],[-6.3525,41.3783],[-6.3154,41.3901],[-6.3201,41.4009],[-6.3333,41.4066],[-6.3269,41.4164],[-6.31,41.4194],[-6.2949,41.4352],[-6.3053,41.4497],[-6.287,41.4654],[-6.284,41.479],[-6.27,41.4865],[-6.2643,41.4988],[-6.2511,41.5017],[-6.258,41.5119],[-6.2369,41.5214],[-6.2173,41.5431],[-6.2117,41.5592],[-6.1892,41.5748],[-6.197,41.5895],[-6.2087,41.5991],[-6.2358,41.6071],[-6.2545,41.633],[-6.3023,41.6618],[-6.3547,41.6764],[-6.3745,41.6737],[-6.4406,41.6844],[-6.4524,41.6809],[-6.4574,41.6666],[-6.4694,41.6662],[-6.4887,41.6575],[-6.5126,41.6612],[-6.5277,41.6753],[-6.5483,41.6856],[-6.5537,41.7017],[-6.5425,41.7012],[-6.5539,41.7175],[-6.5647,41.7515],[-6.5548,41.7582],[-6.5558,41.7643],[-6.5439,41.7837],[-6.5425,41.8044],[-6.5323,41.8199],[-6.5224,41.8541],[-6.5257,41.8592],[-6.5159,41.87],[-6.5176,41.8751],[-6.5712,41.8835],[-6.546,41.9308],[-6.5494,41.9445],[-6.5749,41.9608],[-6.5892,41.9629],[-6.5995,41.9483],[-6.6074,41.949],[-6.6173,41.9411],[-6.7,41.9333],[-6.7506,41.9436],[-6.7687,41.9841],[-6.8113,41.9925],[-6.81,41.9695],[-6.8216,41.946],[-6.8489,41.9424],[-6.8695,41.9485],[-6.8851,41.9403],[-6.9443,41.9447],[-6.9578,41.9689],[-6.9794,41.9738],[-6.9988,41.9628],[-7.0062,41.9506],[-7.0364,41.9511],[-7.0424,41.955],[-7.0537,41.9491],[-7.077,41.9519],[-7.0875,41.9735],[-7.1415,41.9908],[-7.1644,41.9794],[-7.1798,41.9793],[-7.1867,41.9694],[-7.1822,41.9518],[-7.1875,41.9475],[-7.1839,41.933],[-7.1736,41.9189],[-7.1823,41.9122],[-7.1852,41.8964],[-7.2029,41.873],[-7.1949,41.8663],[-7.2017,41.858],[-7.2088,41.8092],[-7.1984,41.8025],[-7.1943,41.7835],[-7.1712,41.7699],[-7.1759,41.7373],[-7.1884,41.7353],[-7.1962,41.7198],[-7.2089,41.7118],[-7.2138,41.6812],[-7.2429,41.6422],[-7.2482,41.6297],[-7.2453,41.6172],[-7.2522,41.6125],[-7.2584,41.5903],[-7.2533,41.5808],[-7.2588,41.5734],[-7.2584,41.5632],[-7.2291,41.5228],[-7.284,41.5156],[-7.2974,41.4992],[-7.3077,41.4613],[-7.3304,41.4592],[-7.3331,41.451],[-7.3446,41.4527],[-7.3653,41.4404],[-7.3596,41.4244],[-7.3669,41.4152],[-7.3663,41.3969],[-7.3581,41.3883],[-7.3614,41.382],[-7.3536,41.3756],[-7.3623,41.3668],[-7.3481,41.3516],[-7.3142,41.3415],[-7.3573,41.3307],[-7.3755,41.3144],[-7.3622,41.3043],[-7.3732,41.293],[-7.3914,41.2858],[-7.387,41.2737],[-7.3947,41.2626],[-7.3898,41.2425],[-7.4151,41.2477],[-7.4231,41.2391],[-7.4215,41.2203],[-7.4319,41.2108],[-7.3886,41.1929],[-7.3825,41.178],[-7.3726,41.1686],[-7.375,41.1592],[-7.3612,41.1566],[-7.3578,41.1482],[-7.3409,41.1439],[-7.3074,41.1459],[-7.3046,41.1395],[-7.2829,41.1355],[-7.2495,41.145],[-7.2112,41.1363],[-7.1973,41.1281],[-7.1638,41.1261],[-7.1585,41.1435],[-7.148,41.1563],[-7.1324,41.1603],[-7.1249,41.1771],[-7.1128,41.1759],[-7.1147,41.1508],[-7.1299,41.1425],[-7.1228,41.1343],[-7.0879,41.1319],[-7.0856,41.1204],[-7.1013,41.106],[-7.1056,41.0915],[-7.1013,41.0799],[-7.0515,41.0577],[-7.0495,41.0477],[-7.0268,41.0382],[-7.0105,41.0408],[-6.9955,41.0348],[-6.9932,41.0256],[-6.9836,41.0263],[-6.9738,41.035],[-6.9314,41.0294]]]}},{"type":"Feature","properties":{"code":"PT009","name":"Portugal"},"geometry":{"type":"Polygon","coordinates":[[[-7.9742,41.3752],[-7.9896,41.3466],[-8.0038,41.342],[-8.029,41.3191],[-8.0357,41.3188],[-8.049,41.3318],[-8.0577,41.3331],[-8.0654,41.3433],[-8.0865,41.3293],[-8.0957,41.3383],[-8.1301,41.3486],[-8.1308,41.3553],[-8.1461,41.3642],[-8.1404,41.3784],[-8.1588,41.3812],[-8.1658,41.4003],[-8.1757,41.3993],[-8.1855,41.41],[-8.223,41.4099],[-8.2204,41.3977],[-8.244,41.393],[-8.2658,41.3773],[-8.2743,41.3649],[-8.2784,41.3458],[-8.3037,41.3431],[-8.3164,41.3513],[-8.3281,41.3658],[-8.3261,41.3769],[-8.3572,41.3651],[-8.3942,41.3619],[-8.394,41.3737],[-8.3844,41.3809],[-8.3994,41.3843],[-8.4231,41.3658],[-8.4406,41.3635],[-8.4551,41.3756],[-8.5015,41.3683],[-8.5173,41.354],[-8.5184,41.3457],[-8.6024,41.3456],[-8.6106,41.3411],[-8.6229,41.3839],[-8.5923,41.395],[-8.6052,41.4127],[-8.6225,41.4099],[-8.6347,41.4187],[-8.6501,41.4197],[-8.6574,41.4363],[-8.6681,41.4446],[-8.6832,41.4492],[-8.7008,41.4422],[-8.7123,41.4545],[-8.7295,41.4536],[-8.7463,41.4686],[-8.7526,41.4661],[-8.7764,41.472],[-8.78,41.4424],[-8.7889,41.4167],[-8.7551,41.3546],[-8.7552,41.3425],[-8.7414,41.3366],[-8.7414,41.3109],[-8.7241,41.2562],[-8.7267,41.2447],[-8.7159,41.2199],[-8.7164,41.2032],[-8.668,41.142],[-8.6709,41.1315],[-8.6575,41.0907],[-8.658,41.0636],[-8.645,41.016],[-8.606,41.0257],[-8.5949,41.0146],[-8.5661,41.0138],[-8.5572,41.0156],[-8.555,41.0265],[-8.5456,41.0337],[-8.5279,41.0361],[-8.5144,41.0147],[-8.5056,41.0093],[-8.4892,41.0134],[-8.4919,41.0222],[-8.4775,41.0248],[-8.4757,41.034],[-8.4926,41.0396],[-8.4863,41.0526],[-8.46,41.0452],[-8.4487,41.0535],[-8.4331,41.0389],[-8.433,41.0292],[-8.4266,41.0207],[-8.3968,41.0124],[-8.3842,41.0037],[-8.3856,41.0198],[-8.4009,41.0332],[-8.3986,41.0486],[-8.3685,41.0501],[-8.3522,41.0401],[-8.3428,41.0429],[-8.3258,41.0584],[-8.3147,41.0584],[-8.2941,41.0801],[-8.2872,41.0789],[-8.2799,41.0674],[-8.264,41.0659],[-8.2188,41.0816],[-8.2086,41.093],[-8.1332,41.0844],[-8.0984,41.1006],[-8.0827,41.0917],[-8.0491,41.0905],[-8.0133,41.1045],[-7.9686,41.1158],[-7.9621,41.1136],[-7.9512,41.1228],[-7.9119,41.1199],[-7.9136,41.135],[-7.9012,41.1473],[-7.9037,41.1547],[-7.8896,41.1629],[-7.8989,41.1729],[-7.888,41.1891],[-7.8941,41.2092],[-7.8756,41.242],[-7.8942,41.2487],[-7.8964,41.2675],[-7.9151,41.2743],[-7.9141,41.2805],[-7.9214,41.2903],[-7.9138,41.3055],[-7.9295,41.3181],[-7.9582,41.3244],[-7.9653,41.3322],[-7.9479,41.3535],[-7.9726,41.3603],[-7.9742,41.3752]]]}},{"type":"Feature","properties":{"code":"PT010","name":"Portugal"},"geometry":{"type":"Polygon","coordinates":[[[-8.264,41.0659],[-8.2799,41.0674],[-8.2872,41.0789],[-8.2941,41.0801],[-8.3147,41.0584],[-8.3258,41.0584],[-8.3428,41.0429],[-8.3522,41.0401],[-8.3685,41.0501],[-8.3986,41.0486],[-8.4009,41.0332],[-8.3856,41.0198],[-8.3842,41.0037],[-8.3968,41.0124],[-8.4266,41.0207],[-8.433,41.0292],[-8.4331,41.0389],[-8.4487,41.0535],[-8.46,41.0452],[-8.4863,41.0526],[-8.4926,41.0396],[-8.4757,41.034],[-8.4775,41.0248],[-8.4919,41.0222],[-8.4892,41.0134],[-8.5056,41.0093],[-8.5144,41.0147],[-8.5279,41.0361],[-8.5456,41.0337],[-8.555,41.0265],[-8.5572,41.0156],[-8.5661,41.0138],[-8.5949,41.0146],[-8.606,41.0257],[-8.645,41.016],[-8.6607,40.9292],[-8.6968,40.8124],[-8.7563,40.6472],[-8.7491,40.6443],[-8.752,40.6223],[-8.784,40.5204],[-8.7018,40.4592],[-8.6778,40.4349],[-8.6479,40.4241],[-8.6346,40.4268],[-8.6316,40.4658],[-8.6206,40.4821],[-8.5853,40.4796],[-8.5748,40.4649],[-8.5711,40.4506],[-8.5782,40.4428],[-8.5794,40.4124],[-8.5724,40.4003],[-8.5418,40.4065],[-8.5177,40.4205],[-8.5047,40.4191],[-8.5081,40.4075],[-8.483,40.3888],[-8.4833,40.3628],[-8.4918,40.3457],[-8.485,40.3153],[-8.5138,40.3123],[-8.5299,40.3156],[-8.5259,40.294],[-8.5094,40.2893],[-8.4882,40.2922],[-8.4544,40.2792],[-8.4476,40.2893],[-8.4486,40.3176],[-8.4294,40.3237],[-8.4096,40.3239],[-8.4013,40.3419],[-8.404,40.3499],[-8.3753,40.3413],[-8.3579,40.3474],[-8.3584,40.3756],[-8.3502,40.3969],[-8.3549,40.4089],[-8.3458,40.4105],[-8.3381,40.4188],[-8.3445,40.4249],[-8.3273,40.4397],[-8.3176,40.4412],[-8.319,40.4574],[-8.3346,40.4753],[-8.3303,40.493],[-8.2994,40.4991],[-8.2828,40.5092],[-8.2639,40.5035],[-8.2501,40.5112],[-8.2731,40.537],[-8.2853,40.5397],[-8.2892,40.5688],[-8.2995,40.5778],[-8.3084,40.5964],[-8.3033,40.6016],[-8.2498,40.6118],[-8.2454,40.6164],[-8.2799,40.6331],[-8.2932,40.6337],[-8.2948,40.6457],[-8.2888,40.669],[-8.2981,40.6758],[-8.2976,40.6943],[-8.3067,40.6925],[-8.3138,40.7038],[-8.3263,40.7112],[-8.3236,40.7195],[-8.3336,40.737],[-8.2878,40.7517],[-8.2691,40.7673],[-8.255,40.7914],[-8.2571,40.7984],[-8.2434,40.8073],[-8.2368,40.8275],[-8.2551,40.8559],[-8.2315,40.8647],[-8.2053,40.8481],[-8.1905,40.8461],[-8.1659,40.8659],[-8.1354,40.8498],[-8.1064,40.8552],[-8.103,40.8669],[-8.1101,40.8736],[-8.1156,40.8903],[-8.128,40.8982],[-8.1204,40.9179],[-8.132,40.942],[-8.1315,40.9506],[-8.1222,40.9547],[-8.0892,40.9876],[-8.0911,41.009],[-8.0991,41.0134],[-8.1038,41.0021],[-8.1185,40.9971],[-8.124,40.9847],[-8.1331,40.9787],[-8.1429,40.9786],[-8.1609,40.9895],[-8.1781,40.9882],[-8.192,40.9972],[-8.207,40.9943],[-8.2118,41.0031],[-8.208,41.0135],[-8.2372,41.0178],[-8.23,41.0359],[-8.2371,41.0577],[-8.2521,41.0588],[-8.264,41.0659]]]}},{"type":"Feature","properties":{"code":"PT011","name":"Portugal"},"geometry":{"type":"Polygon","coordinates":[[[-7.3046,41.1395],[-7.3074,41.1459],[-7.3409,41.1439],[-7.3578,41.1482],[-7.3612,41.1566],[-7.375,41.1592],[-7.3726,41.1686],[-7.3825,41.178],[-7.3886,41.1929],[-7.4512,41.2144],[-7.4642,41.2018],[-7.5082,41.1972],[-7.5223,41.18],[-7.5494,41.1872],[-7.5565,41.1731],[-7.5901,41.1563],[-7.6647,41.1627],[-7.6963,41.1419],[-7.7767,41.1521],[-7.7928,41.1609],[-7.8052,41.1586],[-7.8139,41.1457],[-7.8602,41.1585],[-7.8764,41.1562],[-7.8871,41.1345],[-7.8967,41.1326],[-7.8974,41.1241],[-7.9119,41.1199],[-7.9512,41.1228],[-7.9621,41.1136],[-7.9686,41.1158],[-8.0133,41.1045],[-8.0491,41.0905],[-8.0827,41.0917],[-8.0984,41.1006],[-8.1332,41.0844],[-8.2086,41.093],[-8.2188,41.0816],[-8.264,41.0659],[-8.2521,41.0588],[-8.2371,41.0577],[-8.23,41.0359],[-8.2372,41.0178],[-8.208,41.0135],[-8.2118,41.0031],[-8.207,40.9943],[-8.192,40.9972],[-8.1781,40.9882],[-8.1609,40.9895],[-8.1429,40.9786],[-8.1331,40.9787],[-8.124,40.9847],[-8.1185,40.9971],[-8.1038,41.0021],[-8.0991,41.0134],[-8.0911,41.009],[-8.0892,40.9876],[-8.1222,40.9547],[-8.1315,40.9506],[-8.132,40.942],[-8.1204,40.9179],[-8.128,40.8982],[-8.1156,40.8903],[-8.1101,40.8736],[-8.103,40.8669],[-8.1064,40.8552],[-8.1249,40.8495],[-8.1492,40.8552],[-8.1659,40.8659],[-8.1905,40.8461],[-8.2053,40.8481],[-8.2315,40.8647],[-8.2551,40.8559],[-8.2368,40.8275],[-8.2434,40.8073],[-8.2571,40.7984],[-8.255,40.7914],[-8.2691,40.7673],[-8.2878,40.7517],[-8.3336,40.737],[-8.3236,40.7195],[-8.3263,40.7112],[-8.3138,40.7038],[-8.3067,40.6925],[-8.2976,40.6943],[-8.2981,40.6758],[-8.2888,40.669],[-8.2948,40.6457],[-8.2932,40.6337],[-8.2799,40.6331],[-8.2454,40.6164],[-8.2498,40.6118],[-8.3033,40.6016],[-8.3084,40.5964],[-8.2995,40.5778],[-8.2892,40.5688],[-8.2853,40.5397],[-8.2731,40.537],[-8.2501,40.5112],[-8.2639,40.5035],[-8.2828,40.5092],[-8.2994,40.4991],[-8.3303,40.493],[-8.3346,40.4753],[-8.319,40.4574],[-8.3176,40.4412],[-8.3273,40.4397],[-8.3445,40.4249],[-8.3381,40.4188],[-8.3458,40.4105],[-8.3549,40.4089],[-8.3502,40.3969],[-8.3584,40.3756],[-8.3562,40.3672],[-8.3423,40.3695],[-8.3345,40.3591],[-8.31,40.3615],[-8.2931,40.3543],[-8.2765,40.3357],[-8.2633,40.3337],[-8.2525,40.3236],[-8.2086,40.3414],[-8.1891,40.342],[-8.1785,40.3357],[-8.1721,40.3441],[-8.152,40.3375],[-8.1304,40.3433],[-8.1218,40.3388],[-8.088,40.3611],[-8.0747,40.3634],[-8.0659,40.3742],[-8.057,40.372],[-8.0395,40.3866],[-8.0037,40.3916],[-7.973,40.4059],[-7.9538,40.424],[-7.9306,40.4291],[-7.9175,40.4466],[-7.9049,40.4528],[-7.8842,40.4731],[-7.8468,40.4956],[-7.8394,40.4935],[-7.8283,40.4985],[-7.8228,40.5079],[-7.7836,40.5074],[-7.7583,40.527],[-7.7451,40.5259],[-7.7252,40.533],[-7.7132,40.5435],[-7.6901,40.546],[-7.6353,40.568],[-7.5951,40.5681],[-7.5866,40.5761],[-7.5891,40.5855],[-7.5618,40.6359],[-7.5658,40.6453],[-7.5421,40.6594],[-7.5528,40.6677],[-7.5514,40.6771],[-7.5351,40.6903],[-7.5426,40.6959],[-7.5627,40.6944],[-7.5927,40.7157],[-7.5968,40.7287],[-7.5707,40.7475],[-7.5841,40.7655],[-7.6254,40.784],[-7.621,40.7955],[-7.6074,40.8058],[-7.5914,40.8297],[-7.5879,40.8499],[-7.5768,40.8628],[-7.5585,40.8732],[-7.5141,40.8693],[-7.5108,40.8594],[-7.5002,40.8571],[-7.4791,40.832],[-7.4638,40.826],[-7.4644,40.8215],[-7.4514,40.8135],[-7.436,40.8243],[-7.4014,40.8794],[-7.3893,40.8788],[-7.3763,40.887],[-7.3742,40.9125],[-7.3568,40.9288],[-7.3362,40.9341],[-7.3253,40.972],[-7.3708,40.9919],[-7.3791,41.0043],[-7.379,41.0134],[-7.3375,41.0143],[-7.3332,41.0241],[-7.3442,41.0375],[-7.3428,41.0575],[-7.33,41.0783],[-7.3229,41.1191],[-7.3046,41.1395]],[[-7.4095,40.9218],[-7.3934,40.9097],[-7.3816,40.9075],[-7.3789,40.9012],[-7.3881,40.8851],[-7.4048,40.88],[-7.4255,40.8867],[-7.4301,40.9034],[-7.4179,40.9218],[-7.4095,40.9218]]]}},{"type":"Feature","properties":{"code":"PT012","name":"Portugal"},"geometry":{"type":"MultiPolygon","coordinates":[[[[-7.4095,40.9218],[-7.4179,40.9218],[-7.4301,40.9034],[-7.4255,40.8867],[-7.4048,40.88],[-7.3881,40.8851],[-7.3789,40.9012],[-7.3816,40.9075],[-7.3934,40.9097],[-7.4095,40.9218]]],[[[-6.9314,41.0294],[-6.9738,41.035],[-6.9836,41.0263],[-6.9932,41.0256],[-6.9955,41.0348],[-7.0105,41.0408],[-7.0268,41.0382],[-7.0495,41.0477],[-7.0515,41.0577],[-7.1013,41.0799],[-7.1056,41.0915],[-7.1013,41.106],[-7.0856,41.1204],[-7.0879,41.1319],[-7.1228,41.1343],[-7.1299,41.1425],[-7.1147,41.1508],[-7.1128,41.1759],[-7.1249,41.1771],[-7.1324,41.1603],[-7.148,41.1563],[-7.1585,41.1435],[-7.1638,41.1261],[-7.1973,41.1281],[-7.2112,41.1363],[-7.2495,41.145],[-7.2829,41.1355],[-7.3046,41.1395],[-7.3229,41.1191],[-7.33,41.0783],[-7.3428,41.0575],[-7.3442,41.0375],[-7.3332,41.0241],[-7.3375,41.0143],[-7.379,41.0134],[-7.3791,41.0043],[-7.3708,40.9919],[-7.3253,40.972],[-7.3362,40.9341],[-7.3568,40.9288],[-7.3742,40.9125],[-7.3763,40.887],[-7.3893,40.8788],[-7.4014,40.8794],[-7.436,40.8243],[-7.4514,40.8135],[-7.4644,40.8215],[-7.4638,40.826],[-7.4791,40.832],[-7.5002,40.8571],[-7.5108,40.8594],[-7.5141,40.8693],[-7.5585,40.8732],[-7.5768,40.8628],[-7.5879,40.8499],[-7.5914,40.8297],[-7.6074,40.8058],[-7.621,40.7955],[-7.6254,40.784],[-7.5841,40.7655],[-7.5707,40.7475],[-7.5968,40.7287],[-7.5927,40.7157],[-7.5627,40.6944],[-7.5426,40.6959],[-7.5351,40.6903],[-7.5514,40.6771],[-7.5528,40.6677],[-7.5421,40.6594],[-7.5658,40.6453],[-7.5618,40.6359],[-7.5891,40.5855],[-7.5866,40.5761],[-7.6059,40.5653],[-7.6353,40.568],[-7.6901,40.546],[-7.7132,40.5435],[-7.7252,40.533],[-7.7451,40.5259],[-7.7583,40.527],[-7.7836,40.5074],[-7.8228,40.5079],[-7.8283,40.4985],[-7.8273,40.4818],[-7.7969,40.4574],[-7.8108,40.4394],[-7.82,40.4414],[-7.8426,40.4333],[-7.8451,40.4141],[-7.8269,40.4032],[-7.7972,40.405],[-7.7971,40.362],[-7.8046,40.3577],[-7.8051,40.3493],[-7.7874,40.346],[-7.7776,40.3358],[-7.7602,40.3359],[-7.7651,40.3166],[-7.7804,40.3181],[-7.8013,40.3094],[-7.8182,40.2822],[-7.8169,40.2717],[-7.8259,40.2651],[-7.8216,40.2567],[-7.8038,40.2563],[-7.7824,40.2299],[-7.7703,40.2372],[-7.7337,40.2369],[-7.71,40.2608],[-7.6859,40.2702],[-7.6624,40.2708],[-7.6453,40.2802],[-7.6187,40.2997],[-7.6129,40.3219],[-7.603,40.3244],[-7.5866,40.3198],[-7.5813,40.3113],[-7.5709,40.3199],[-7.5372,40.3178],[-7.5176,40.345],[-7.5165,40.3665],[-7.4871,40.3948],[-7.4616,40.4018],[-7.4473,40.3868],[-7.4289,40.3916],[-7.4062,40.381],[-7.3811,40.3824],[-7.3595,40.3924],[-7.3455,40.3862],[-7.3425,40.4001],[-7.3276,40.4108],[-7.3171,40.4104],[-7.3068,40.4035],[-7.2928,40.4161],[-7.2704,40.4081],[-7.2702,40.3876],[-7.277,40.372],[-7.2758,40.3394],[-7.3093,40.3027],[-7.3326,40.2939],[-7.3191,40.2807],[-7.2968,40.2715],[-7.2852,40.2723],[-7.2736,40.2657],[-7.2577,40.2675],[-7.2438,40.2591],[-7.2357,40.262],[-7.2157,40.2849],[-7.2056,40.2858],[-7.1736,40.2755],[-7.1686,40.2678],[-7.136,40.2829],[-7.1313,40.3091],[-7.1174,40.3234],[-7.1023,40.3206],[-7.0868,40.2901],[-7.0937,40.2844],[-7.0836,40.2785],[-7.0323,40.2783],[-7.0139,40.2901],[-6.9832,40.2726],[-6.962,40.2681],[-6.9514,40.2576],[-6.9073,40.2539],[-6.868,40.2643],[-6.8622,40.2792],[-6.8639,40.2962],[-6.818,40.325],[-6.804,40.3244],[-6.7903,40.3342],[-6.7934,40.3565],[-6.7812,40.3638],[-6.8219,40.3956],[-6.8387,40.4147],[-6.8497,40.4515],[-6.8352,40.4754],[-6.8227,40.4832],[-6.8108,40.5052],[-6.7953,40.5114],[-6.8055,40.5394],[-6.8009,40.5504],[-6.8454,40.566],[-6.8368,40.5846],[-6.8387,40.5927],[-6.8209,40.6105],[-6.794,40.6613],[-6.8046,40.6671],[-6.8018,40.6778],[-6.8132,40.7084],[-6.8108,40.7169],[-6.8305,40.743],[-6.8312,40.7528],[-6.8255,40.7853],[-6.817,40.7969],[-6.8239,40.8325],[-6.8033,40.8462],[-6.8019,40.8607],[-6.81,40.8829],[-6.8196,40.881],[-6.8381,40.8901],[-6.8491,40.9028],[-6.8478,40.9251],[-6.86,40.9508],[-6.8754,40.9608],[-6.9099,40.9996],[-6.9216,41.0025],[-6.9316,41.0168],[-6.9314,41.0294]]]]}},{"type":"Feature","properties":{"code":"PT013","name":"Portugal"},"geometry":{"type":"Polygon","coordinates":[[[-8.3562,40.3672],[-8.3579,40.3474],[-8.3753,40.3413],[-8.404,40.3499],[-8.4013,40.3419],[-8.4096,40.3239],[-8.4294,40.3237],[-8.4486,40.3176],[-8.4476,40.2893],[-8.4544,40.2792],[-8.4882,40.2922],[-8.5094,40.2893],[-8.5259,40.294],[-8.5299,40.3156],[-8.5138,40.3123],[-8.485,40.3153],[-8.4918,40.3457],[-8.4833,40.3628],[-8.483,40.3888],[-8.5081,40.4075],[-8.5047,40.4191],[-8.5177,40.4205],[-8.5418,40.4065],[-8.5724,40.4003],[-8.5794,40.4124],[-8.5782,40.4428],[-8.5711,40.4506],[-8.5748,40.4649],[-8.5853,40.4796],[-8.6206,40.4821],[-8.6316,40.4658],[-8.6346,40.4268],[-8.6479,40.4241],[-8.6778,40.4349],[-8.7018,40.4592],[-8.784,40.5204],[-8.8431,40.335],[-8.9092,40.1865],[-8.9049,40.1779],[-8.8751,40.1618],[-8.8716,40.1469],[-8.863,40.1401],[-8.8703,40.1057],[-8.8949,40.0455],[-8.8706,40.0348],[-8.8687,40.0234],[-8.8493,40.0233],[-8.8388,40.0283],[-8.8005,40.0126],[-8.7843,40.0363],[-8.7625,40.0412],[-8.7334,40.0319],[-8.6907,40.0266],[-8.6743,40.0295],[-8.6664,40.0164],[-8.6401,40.0097],[-8.6447,40.0024],[-8.6429,39.9904],[-8.6162,39.9916],[-8.5983,40.0225],[-8.5895,40.0281],[-8.5626,40.0282],[-8.5524,40.024],[-8.5489,39.9844],[-8.5517,39.9616],[-8.5388,39.9488],[-8.5232,39.9667],[-8.5228,39.9836],[-8.4906,39.9861],[-8.4865,39.9925],[-8.4479,40.0139],[-8.4333,40.003],[-8.4248,40.0068],[-8.4369,40.0155],[-8.426,40.0266],[-8.4022,40.0009],[-8.3989,39.9882],[-8.4026,39.9791],[-8.3799,39.9554],[-8.3904,39.9512],[-8.393,39.9377],[-8.4071,39.9347],[-8.4073,39.9297],[-8.3857,39.9239],[-8.3734,39.9327],[-8.3593,39.9356],[-8.3264,39.9639],[-8.3187,39.9747],[-8.3191,39.9849],[-8.3119,39.9888],[-8.3071,39.9743],[-8.2853,39.9655],[-8.2721,39.9754],[-8.2775,39.9899],[-8.298,40.0094],[-8.2969,40.0156],[-8.2811,40.0308],[-8.2758,40.0454],[-8.2641,40.0531],[-8.2493,40.0547],[-8.2421,40.0673],[-8.2334,40.0671],[-8.2097,40.0521],[-8.204,40.0642],[-8.1791,40.0897],[-8.163,40.0832],[-8.1426,40.0651],[-8.1568,40.0274],[-8.1324,39.9929],[-8.1196,39.9867],[-8.11,39.9715],[-8.1083,39.9632],[-8.1129,39.954],[-8.1327,39.9376],[-8.1187,39.9341],[-8.1208,39.9412],[-8.1119,39.948],[-8.099,39.9412],[-8.0878,39.9425],[-8.0875,39.9531],[-8.0618,39.9559],[-8.0558,39.9696],[-8.0487,39.9632],[-8.0299,39.9653],[-8.0365,39.9769],[-8.0282,39.9785],[-8.0163,39.9713],[-8.0074,39.9792],[-7.9975,39.9781],[-7.9923,39.9866],[-7.9773,39.9891],[-7.9678,39.9795],[-7.9548,39.9921],[-7.9529,40.0024],[-7.9202,39.9985],[-7.9061,40.0088],[-7.9159,40.0328],[-7.9,40.0434],[-7.892,40.0414],[-7.8703,40.0503],[-7.8611,40.059],[-7.8251,40.0507],[-7.8125,40.0382],[-7.8013,40.045],[-7.8091,40.0523],[-7.8004,40.0614],[-7.8106,40.0736],[-7.7983,40.0879],[-7.7923,40.0857],[-7.7854,40.0723],[-7.7764,40.0686],[-7.7435,40.0915],[-7.745,40.0979],[-7.7334,40.1039],[-7.7361,40.124],[-7.7739,40.145],[-7.7761,40.1576],[-7.7943,40.1595],[-7.8076,40.1817],[-7.7957,40.2016],[-7.7843,40.2082],[-7.7824,40.2299],[-7.8038,40.2563],[-7.8216,40.2567],[-7.8259,40.2651],[-7.8169,40.2717],[-7.8182,40.2822],[-7.8013,40.3094],[-7.7804,40.3181],[-7.7651,40.3166],[-7.7602,40.3359],[-7.7776,40.3358],[-7.7874,40.346],[-7.8051,40.3493],[-7.8046,40.3577],[-7.7971,40.362],[-7.7972,40.405],[-7.8269,40.4032],[-7.8451,40.4141],[-7.8426,40.4333],[-7.82,40.4414],[-7.8108,40.4394],[-7.7969,40.4574],[-7.8273,40.4818],[-7.8283,40.4985],[-7.8394,40.4935],[-7.8468,40.4956],[-7.8842,40.4731],[-7.9049,40.4528],[-7.9175,40.4466],[-7.9306,40.4291],[-7.9538,40.424],[-7.973,40.4059],[-8.0037,40.3916],[-8.0395,40.3866],[-8.057,40.372],[-8.0659,40.3742],[-8.0747,40.3634],[-8.088,40.3611],[-8.1218,40.3388],[-8.1304,40.3433],[-8.152,40.3375],[-8.1721,40.3441],[-8.1785,40.3357],[-8.1891,40.342],[-8.2086,40.3414],[-8.2525,40.3236],[-8.2633,40.3337],[-8.2765,40.3357],[-8.2931,40.3543],[-8.31,40.3615],[-8.3345,40.3591],[-8.3423,40.3695],[-8.3562,40.3672]]]}},{"type":"Feature","properties":{"code":"PT014","name":"Portugal"},"geometry":{"type":"Polygon","coordinates":[[[-6.9514,40.2576],[-6.962,40.2681],[-6.9832,40.2726],[-7.0139,40.2901],[-7.0323,40.2783],[-7.0836,40.2785],[-7.0937,40.2844],[-7.0868,40.2901],[-7.1023,40.3206],[-7.1174,40.3234],[-7.1313,40.3091],[-7.136,40.2829],[-7.1686,40.2678],[-7.1736,40.2755],[-7.2056,40.2858],[-7.2157,40.2849],[-7.2357,40.262],[-7.2438,40.2591],[-7.2577,40.2675],[-7.2736,40.2657],[-7.2852,40.2723],[-7.2968,40.2715],[-7.3191,40.2807],[-7.3326,40.2939],[-7.3093,40.3027],[-7.2758,40.3394],[-7.277,40.372],[-7.2702,40.3876],[-7.2704,40.4081],[-7.2928,40.4161],[-7.3068,40.4035],[-7.3171,40.4104],[-7.3276,40.4108],[-7.3425,40.4001],[-7.3455,40.3862],[-7.3595,40.3924],[-7.3811,40.3824],[-7.4062,40.381],[-7.4289,40.3916],[-7.4473,40.3868],[-7.4616,40.4018],[-7.4871,40.3948],[-7.5165,40.3665],[-7.5176,40.345],[-7.5372,40.3178],[-7.5709,40.3199],[-7.5813,40.3113],[-7.5866,40.3198],[-7.603,40.3244],[-7.6129,40.3219],[-7.6187,40.2997],[-7.6624,40.2708],[-7.6859,40.2702],[-7.71,40.2608],[-7.7337,40.2369],[-7.7703,40.2372],[-7.7824,40.2299],[-7.7843,40.2082],[-7.7957,40.2016],[-7.8076,40.1817],[-7.7943,40.1595],[-7.7761,40.1576],[-7.7739,40.145],[-7.7361,40.124],[-7.7334,40.1039],[-7.745,40.0979],[-7.7435,40.0915],[-7.7764,40.0686],[-7.7854,40.0723],[-7.7923,40.0857],[-7.7983,40.0879],[-7.8106,40.0736],[-7.8004,40.0614],[-7.8091,40.0523],[-7.8013,40.045],[-7.8125,40.0382],[-7.8251,40.0507],[-7.8611,40.059],[-7.8703,40.0503],[-7.892,40.0414],[-7.9,40.0434],[-7.9159,40.0328],[-7.9061,40.0088],[-7.9202,39.9985],[-7.9529,40.0024],[-7.9548,39.9921],[-7.9678,39.9795],[-7.9773,39.9891],[-7.9923,39.9866],[-7.9975,39.9781],[-8.0074,39.9792],[-8.0163,39.9713],[-8.0282,39.9785],[-8.0365,39.9769],[-8.0299,39.9653],[-8.0487,39.9632],[-8.0558,39.9696],[-8.0618,39.9559],[-8.0875,39.9531],[-8.0878,39.9425],[-8.099,39.9412],[-8.1119,39.948],[-8.1208,39.9412],[-8.1187,39.9341],[-8.1287,39.9257],[-8.1492,39.8853],[-8.164,39.8826],[-8.1716,39.8754],[-8.1857,39.8815],[-8.1863,39.872],[-8.1998,39.8649],[-8.1993,39.8568],[-8.2119,39.8504],[-8.2259,39.8558],[-8.2341,39.8466],[-8.2737,39.8431],[-8.2774,39.8368],[-8.2704,39.8247],[-8.2929,39.8087],[-8.2851,39.7958],[-8.2824,39.7779],[-8.2637,39.7687],[-8.2445,39.7793],[-8.2321,39.7628],[-8.2279,39.7429],[-8.2373,39.7306],[-8.2317,39.7252],[-8.2381,39.7097],[-8.2301,39.6969],[-8.2319,39.6465],[-8.2186,39.6366],[-8.1899,39.6332],[-8.1751,39.6247],[-8.1532,39.6237],[-8.1453,39.614],[-8.1343,39.6113],[-8.0845,39.614],[-8.0695,39.6208],[-8.054,39.617],[-8.0774,39.6586],[-8.0714,39.6687],[-8.0608,39.6684],[-8.0621,39.6935],[-8.0505,39.7178],[-8.0555,39.7327],[-8.0395,39.7466],[-8.0235,39.7402],[-8.0047,39.7433],[-8.0,39.7335],[-7.9909,39.7286],[-7.9734,39.7375],[-7.9701,39.746],[-7.9604,39.7426],[-7.9543,39.7207],[-7.9506,39.6863],[-7.9591,39.6645],[-7.9497,39.6611],[-7.9147,39.6684],[-7.8489,39.6237],[-7.8495,39.6133],[-7.8407,39.5999],[-7.8167,39.585],[-7.8186,39.5781],[-7.8103,39.5711],[-7.8219,39.5593],[-7.8251,39.5374],[-7.7999,39.544],[-7.7699,39.5642],[-7.7549,39.5883],[-7.7208,39.5951],[-7.7127,39.6085],[-7.7148,39.6267],[-7.7052,39.6354],[-7.6731,39.6489],[-7.6485,39.6248],[-7.6374,39.6227],[-7.5967,39.6396],[-7.5941,39.651],[-7.5791,39.6588],[-7.5516,39.6576],[-7.5338,39.6672],[-7.4542,39.6622],[-7.4164,39.6488],[-7.3994,39.6465],[-7.3752,39.6508],[-7.3312,39.641],[-7.2839,39.6613],[-7.2515,39.6668],[-7.1513,39.6531],[-7.128,39.6627],[-7.0888,39.6633],[-7.0732,39.6582],[-7.0155,39.6704],[-6.9997,39.7137],[-6.9877,39.7285],[-6.9938,39.7415],[-6.9872,39.7632],[-6.9769,39.772],[-6.9872,39.81],[-6.9808,39.8201],[-6.9705,39.8252],[-6.948,39.8279],[-6.944,39.8356],[-6.9353,39.8383],[-6.9315,39.8522],[-6.9143,39.8588],[-6.9036,39.8707],[-6.902,39.8866],[-6.906,39.8903],[-6.8992,39.9016],[-6.9066,39.9238],[-6.8855,39.9401],[-6.8878,39.9645],[-6.88,39.9732],[-6.8867,39.9794],[-6.8758,39.9923],[-6.8743,40.0239],[-6.8825,40.0334],[-6.8809,40.0417],[-6.9079,40.0662],[-6.9179,40.0681],[-6.9188,40.0827],[-6.9335,40.1033],[-6.9426,40.1036],[-6.9542,40.1156],[-6.9992,40.119],[-7.0189,40.1426],[-7.0144,40.158],[-7.0217,40.167],[-7.0165,40.1765],[-7.0299,40.184],[-7.0203,40.1959],[-7.0089,40.2273],[-6.979,40.2407],[-6.9624,40.2387],[-6.9514,40.2576]]]}},{"type":"Feature","properties":{"code":"PT015","name":"Portugal"},"geometry":{"type":"Polygon","coordinates":[[[-8.1187,39.9341],[-8.1327,39.9376],[-8.1129,39.954],[-8.1083,39.9632],[-8.11,39.9715],[-8.1196,39.9867],[-8.1324,39.9929],[-8.1568,40.0274],[-8.1426,40.0651],[-8.163,40.0832],[-8.1791,40.0897],[-8.204,40.0642],[-8.2097,40.0521],[-8.2334,40.0671],[-8.2421,40.0673],[-8.2493,40.0547],[-8.2641,40.0531],[-8.2758,40.0454],[-8.2811,40.0308],[-8.2969,40.0156],[-8.298,40.0094],[-8.2775,39.9899],[-8.2721,39.9754],[-8.2853,39.9655],[-8.3071,39.9743],[-8.3119,39.9888],[-8.3191,39.9849],[-8.3187,39.9747],[-8.3264,39.9639],[-8.3593,39.9356],[-8.3734,39.9327],[-8.3857,39.9239],[-8.4073,39.9297],[-8.4071,39.9347],[-8.393,39.9377],[-8.3904,39.9512],[-8.3799,39.9554],[-8.4026,39.9791],[-8.3989,39.9882],[-8.4022,40.0009],[-8.426,40.0266],[-8.4369,40.0155],[-8.4248,40.0068],[-8.4333,40.003],[-8.4479,40.0139],[-8.4865,39.9925],[-8.4906,39.9861],[-8.5228,39.9836],[-8.5232,39.9667],[-8.5388,39.9488],[-8.5517,39.9616],[-8.5489,39.9844],[-8.5524,40.024],[-8.5626,40.0282],[-8.5895,40.0281],[-8.5983,40.0225],[-8.6162,39.9916],[-8.6429,39.9904],[-8.6447,40.0024],[-8.6401,40.0097],[-8.6664,40.0164],[-8.6743,40.0295],[-8.6907,40.0266],[-8.7334,40.0319],[-8.7625,40.0412],[-8.7843,40.0363],[-8.8005,40.0126],[-8.8388,40.0283],[-8.8493,40.0233],[-8.8687,40.0234],[-8.8706,40.0348],[-8.8949,40.0455],[-9.0512,39.7186],[-9.0508,39.7013],[-9.0855,39.6148],[-9.085,39.6051],[-9.0756,39.6027],[-9.0748,39.5918],[-9.1254,39.5377],[-9.1287,39.5287],[-9.1411,39.5205],[-9.1355,39.5083],[-9.1455,39.503],[-9.1536,39.5095],[-9.1718,39.5009],[-9.227,39.4365],[-9.2891,39.3926],[-9.3589,39.3604],[-9.3855,39.3713],[-9.3973,39.3704],[-9.4088,39.3591],[-9.3674,39.3503],[-9.361,39.3403],[-9.358,39.3206],[-9.3486,39.3139],[-9.3406,39.2919],[-9.3071,39.2898],[-9.2987,39.2838],[-9.2881,39.2977],[-9.2576,39.3163],[-9.2459,39.3054],[-9.2028,39.303],[-9.196,39.2807],[-9.1884,39.2736],[-9.2024,39.2477],[-9.1988,39.2348],[-9.1865,39.227],[-9.188,39.2206],[-9.178,39.2116],[-9.1717,39.2196],[-9.1595,39.2215],[-9.1518,39.2335],[-9.1436,39.2286],[-9.1232,39.2507],[-9.1231,39.2687],[-9.1062,39.2794],[-9.1012,39.2897],[-9.0927,39.2901],[-9.0669,39.3089],[-9.0394,39.3103],[-9.0265,39.2932],[-9.0039,39.2914],[-8.9945,39.2967],[-8.9866,39.3177],[-8.9991,39.3332],[-9.0015,39.3548],[-8.9917,39.3732],[-8.9714,39.3932],[-8.9457,39.3911],[-8.9324,39.4232],[-8.9034,39.466],[-8.8926,39.4653],[-8.8809,39.4744],[-8.8465,39.4725],[-8.8023,39.483],[-8.7657,39.4763],[-8.7297,39.4818],[-8.7429,39.509],[-8.7464,39.5292],[-8.7375,39.537],[-8.7145,39.5208],[-8.6952,39.5323],[-8.6877,39.5507],[-8.6715,39.5618],[-8.6851,39.5739],[-8.6895,39.5888],[-8.6875,39.6099],[-8.7022,39.636],[-8.7,39.641],[-8.6773,39.6469],[-8.6466,39.664],[-8.6419,39.6743],[-8.646,39.6805],[-8.6347,39.6933],[-8.64,39.7012],[-8.6739,39.7098],[-8.6805,39.7177],[-8.6729,39.731],[-8.6815,39.7485],[-8.6763,39.7739],[-8.6349,39.7899],[-8.6111,39.7885],[-8.6042,39.7799],[-8.5931,39.7769],[-8.5455,39.7982],[-8.5276,39.8162],[-8.5242,39.8277],[-8.5175,39.828],[-8.5064,39.815],[-8.501,39.824],[-8.4764,39.8377],[-8.4742,39.8209],[-8.4625,39.8044],[-8.4626,39.7734],[-8.4508,39.7553],[-8.455,39.7444],[-8.4515,39.7369],[-8.4306,39.7411],[-8.4239,39.7531],[-8.4032,39.7605],[-8.3924,39.7604],[-8.3803,39.7519],[-8.3601,39.7688],[-8.3405,39.7727],[-8.3326,39.7609],[-8.3258,39.7662],[-8.3302,39.7748],[-8.327,39.7901],[-8.3365,39.7999],[-8.3219,39.8006],[-8.3043,39.7932],[-8.2851,39.7958],[-8.2929,39.8087],[-8.2704,39.8247],[-8.2774,39.8368],[-8.2737,39.8431],[-8.2341,39.8466],[-8.2259,39.8558],[-8.2119,39.8504],[-8.1993,39.8568],[-8.1998,39.8649],[-8.1863,39.872],[-8.1857,39.8815],[-8.1716,39.8754],[-8.164,39.8826],[-8.1492,39.8853],[-8.1287,39.9257],[-8.1187,39.9341]]]}},{"type":"Feature","properties":{"code":"PT016","name":"Portugal"},"geometry":{"type":"Polygon","coordinates":[[[-8.9945,39.2967],[-9.0039,39.2914],[-9.0265,39.2932],[-9.0394,39.3103],[-9.0669,39.3089],[-9.0927,39.2901],[-9.1012,39.2897],[-9.1062,39.2794],[-9.1231,39.2687],[-9.1232,39.2507],[-9.1436,39.2286],[-9.1518,39.2335],[-9.1595,39.2215],[-9.1717,39.2196],[-9.178,39.2116],[-9.188,39.2206],[-9.1865,39.227],[-9.1988,39.2348],[-9.2024,39.2477],[-9.1884,39.2736],[-9.196,39.2807],[-9.2028,39.303],[-9.2459,39.3054],[-9.2576,39.3163],[-9.2881,39.2977],[-9.2987,39.2838],[-9.3071,39.2898],[-9.3406,39.2919],[-9.3356,39.2755],[-9.3462,39.2044],[-9.36,39.1703],[-9.422,39.0747],[-9.4162,39.0636],[-9.4161,39.0436],[-9.425,39.0191],[-9.4257,38.996],[-9.4192,38.9872],[-9.4152,38.9494],[-9.4557,38.8511],[-9.5005,38.7807],[-9.4918,38.7639],[-9.472,38.7502],[-9.4722,38.7367],[-9.4862,38.7081],[-9.4595,38.6949],[-9.4397,38.6958],[-9.4271,38.6896],[-9.4137,38.6932],[-9.418,38.6992],[-9.4055,38.7036],[-9.3922,38.702],[-9.3187,38.6749],[-9.3142,38.6832],[-9.279,38.6987],[-9.2413,38.6987],[-9.23,38.6947],[-9.2379,38.6826],[-9.2296,38.68],[-9.2078,38.6815],[-9.1958,38.689],[-9.16,38.6955],[-9.1465,38.6944],[-9.1158,38.7077],[-9.0998,38.7249],[-9.09,38.7546],[-9.0863,38.7962],[-9.0734,38.8117],[-9.0285,38.8484],[-9.009,38.811],[-9.001,38.8082],[-8.9959,38.7933],[-8.9758,38.8146],[-8.9634,38.8371],[-8.9475,38.8466],[-8.9119,38.8877],[-8.9118,38.9021],[-8.8907,38.9279],[-8.8932,38.9408],[-8.8872,38.9475],[-8.8507,38.9599],[-8.8766,38.9695],[-8.8767,38.9748],[-8.8636,38.9796],[-8.8647,38.9895],[-8.8594,39.0001],[-8.8471,39.0109],[-8.8479,39.0186],[-8.8605,39.0289],[-8.8256,39.0278],[-8.8148,39.0325],[-8.801,39.0539],[-8.7819,39.0584],[-8.8052,39.0905],[-8.7978,39.0958],[-8.8076,39.1045],[-8.8258,39.1156],[-8.8297,39.1119],[-8.8447,39.1162],[-8.8733,39.1325],[-8.8816,39.1489],[-8.9044,39.1624],[-8.8913,39.1835],[-8.8718,39.1875],[-8.8552,39.1787],[-8.8223,39.1897],[-8.8207,39.2048],[-8.8353,39.2253],[-8.861,39.2298],[-8.8753,39.2505],[-8.8937,39.2486],[-8.9116,39.2349],[-8.9375,39.2399],[-8.9627,39.2555],[-8.9813,39.2494],[-8.9839,39.2535],[-8.9752,39.2871],[-8.9837,39.2869],[-8.9945,39.2967]]]}},{"type":"Feature","properties":{"code":"PT017","name":"Portugal"},"geometry":{"type":"Polygon","coordinates":[[[-8.2851,39.7958],[-8.3043,39.7932],[-8.3219,39.8006],[-8.3365,39.7999],[-8.327,39.7901],[-8.3302,39.7748],[-8.3258,39.7662],[-8.3326,39.7609],[-8.3405,39.7727],[-8.3601,39.7688],[-8.3803,39.7519],[-8.3924,39.7604],[-8.4032,39.7605],[-8.4239,39.7531],[-8.4306,39.7411],[-8.4515,39.7369],[-8.455,39.7444],[-8.4508,39.7553],[-8.4626,39.7734],[-8.4625,39.8044],[-8.4742,39.8209],[-8.4764,39.8377],[-8.501,39.824],[-8.5064,39.815],[-8.5175,39.828],[-8.5242,39.8277],[-8.5276,39.8162],[-8.5455,39.7982],[-8.5931,39.7769],[-8.6042,39.7799],[-8.6111,39.7885],[-8.6349,39.7899],[-8.6763,39.7739],[-8.6815,39.7485],[-8.6729,39.731],[-8.6805,39.7177],[-8.6739,39.7098],[-8.64,39.7012],[-8.6347,39.6933],[-8.646,39.6805],[-8.6419,39.6743],[-8.6466,39.664],[-8.6773,39.6469],[-8.7,39.641],[-8.7022,39.636],[-8.6875,39.6099],[-8.6895,39.5888],[-8.6851,39.5739],[-8.6715,39.5618],[-8.6877,39.5507],[-8.6952,39.5323],[-8.7145,39.5208],[-8.7375,39.537],[-8.7464,39.5292],[-8.7429,39.509],[-8.7297,39.4818],[-8.7657,39.4763],[-8.8023,39.483],[-8.8465,39.4725],[-8.8809,39.4744],[-8.8926,39.4653],[-8.9034,39.466],[-8.9324,39.4232],[-8.9457,39.3911],[-8.9714,39.3932],[-8.9917,39.3732],[-9.0015,39.3548],[-8.9991,39.3332],[-8.9866,39.3177],[-8.9945,39.2967],[-8.9837,39.2869],[-8.9752,39.2871],[-8.9839,39.2535],[-8.9813,39.2494],[-8.9627,39.2555],[-8.9375,39.2399],[-8.9116,39.2349],[-8.8937,39.2486],[-8.8753,39.2505],[-8.861,39.2298],[-8.8353,39.2253],[-8.8207,39.2048],[-8.8223,39.1897],[-8.8552,39.1787],[-8.8718,39.1875],[-8.8913,39.1835],[-8.9044,39.1624],[-8.8816,39.1489],[-8.8733,39.1325],[-8.8447,39.1162],[-8.8297,39.1119],[-8.8258,39.1156],[-8.8076,39.1045],[-8.7978,39.0958],[-8.8052,39.0905],[-8.7819,39.0584],[-8.801,39.0539],[-8.8148,39.0325],[-8.8256,39.0278],[-8.8605,39.0289],[-8.8479,39.0186],[-8.8471,39.0109],[-8.8594,39.0001],[-8.8647,38.9895],[-8.8636,38.9796],[-8.8767,38.9748],[-8.8766,38.9695],[-8.8507,38.9599],[-8.8872,38.9475],[-8.8932,38.9408],[-8.8907,38.9279],[-8.9118,38.9021],[-8.9119,38.8877],[-8.9685,38.8278],[-8.9418,38.8004],[-8.9241,38.7509],[-8.9083,38.7418],[-8.904,38.7469],[-8.8924,38.7413],[-8.8683,38.748],[-8.8508,38.7585],[-8.8335,38.7611],[-8.7916,38.7341],[-8.7536,38.7428],[-8.7439,38.7775],[-8.7094,38.8259],[-8.704,38.84],[-8.6969,38.8404],[-8.6865,38.8269],[-8.6475,38.8095],[-8.6307,38.8221],[-8.6293,38.8307],[-8.5983,38.8404],[-8.6067,38.8083],[-8.6054,38.7918],[-8.6125,38.786],[-8.6072,38.7774],[-8.5845,38.7667],[-8.5779,38.7719],[-8.5468,38.7634],[-8.5004,38.8075],[-8.4838,38.8041],[-8.4711,38.794],[-8.4439,38.8134],[-8.4387,38.8275],[-8.4192,38.8377],[-8.418,38.8267],[-8.4091,38.823],[-8.3818,38.8409],[-8.3893,38.8472],[-8.38,38.8535],[-8.3424,38.8388],[-8.3213,38.8593],[-8.31,38.85],[-8.3014,38.8603],[-8.2697,38.8422],[-8.2694,38.8316],[-8.2494,38.8178],[-8.2218,38.8286],[-8.1973,38.808],[-8.2049,38.7993],[-8.1918,38.7949],[-8.1819,38.8031],[-8.1736,38.801],[-8.1782,38.7914],[-8.1756,38.7827],[-8.142,38.7726],[-8.1401,38.7881],[-8.1243,38.805],[-8.1414,38.8181],[-8.1546,38.8092],[-8.168,38.83],[-8.1879,38.8381],[-8.1861,38.8507],[-8.1587,38.8664],[-8.1816,38.8794],[-8.1954,38.8729],[-8.2009,38.8793],[-8.2722,38.9074],[-8.2429,38.9382],[-8.2344,38.9693],[-8.2425,38.9735],[-8.2195,38.9905],[-8.23,39.0046],[-8.2444,38.9993],[-8.2603,39.0123],[-8.268,39.0526],[-8.2815,39.0504],[-8.2907,39.0587],[-8.291,39.0788],[-8.3434,39.1003],[-8.3433,39.1101],[-8.3335,39.114],[-8.32,39.1291],[-8.305,39.1473],[-8.2988,39.1629],[-8.2443,39.1828],[-8.2339,39.1816],[-8.2207,39.1955],[-8.1849,39.2186],[-8.1817,39.2292],[-8.1514,39.2495],[-8.1559,39.2656],[-8.1531,39.2729],[-8.1345,39.2874],[-8.1203,39.2867],[-8.1107,39.2775],[-8.0779,39.2786],[-8.0756,39.2916],[-8.0574,39.3099],[-8.0502,39.3115],[-8.0412,39.3305],[-8.0265,39.3416],[-8.0282,39.3631],[-8.0012,39.3679],[-7.9911,39.3826],[-7.9684,39.3832],[-7.9585,39.3976],[-7.9395,39.41],[-7.9432,39.4202],[-7.9954,39.4483],[-8.0063,39.4618],[-8.0089,39.4732],[-7.998,39.4808],[-8.0052,39.4952],[-7.9949,39.5096],[-7.9856,39.5125],[-7.9696,39.5365],[-7.9697,39.5491],[-7.9596,39.561],[-7.9102,39.5482],[-7.9067,39.5413],[-7.8473,39.5108],[-7.8391,39.5147],[-7.8251,39.5374],[-7.8219,39.5593],[-7.8103,39.5711],[-7.8186,39.5781],[-7.8167,39.585],[-7.8407,39.5999],[-7.8495,39.6133],[-7.8489,39.6237],[-7.8899,39.649],[-7.8977,39.6591],[-7.9081,39.6612],[-7.9147,39.6684],[-7.9497,39.6611],[-7.9591,39.6645],[-7.9506,39.6863],[-7.9543,39.7207],[-7.9604,39.7426],[-7.9701,39.746],[-7.9734,39.7375],[-7.9909,39.7286],[-8.0,39.7335],[-8.0047,39.7433],[-8.0235,39.7402],[-8.0395,39.7466],[-8.0555,39.7327],[-8.0505,39.7178],[-8.0621,39.6935],[-8.0608,39.6684],[-8.0714,39.6687],[-8.0774,39.6586],[-8.054,39.617],[-8.0695,39.6208],[-8.0845,39.614],[-8.1343,39.6113],[-8.1453,39.614],[-8.1532,39.6237],[-8.1751,39.6247],[-8.1899,39.6332],[-8.2186,39.6366],[-8.2319,39.6465],[-8.2301,39.6969],[-8.2381,39.7097],[-8.2317,39.7252],[-8.2373,39.7306],[-8.2279,39.7429],[-8.2321,39.7628],[-8.2445,39.7793],[-8.2637,39.7687],[-8.2824,39.7779],[-8.2851,39.7958]]]}},{"type":"Feature","properties":{"code":"PT018","name":"Portugal"},"geometry":{"type":"Polygon","coordinates":[[[-7.2037,38.7515],[-7.1968,38.765],[-7.1617,38.7814],[-7.1478,38.8003],[-7.1254,38.8153],[-7.0964,38.816],[-7.0682,38.8544],[-7.0392,38.8647],[-7.033,38.8788],[-7.0522,38.907],[-7.0263,38.9245],[-7.0217,38.938],[-6.9511,39.0236],[-6.9678,39.0395],[-6.9594,39.0545],[-6.9809,39.0878],[-7.0303,39.1166],[-7.0537,39.1177],[-7.101,39.1045],[-7.1053,39.0992],[-7.144,39.1086],[-7.1494,39.1216],[-7.1436,39.1277],[-7.1404,39.1504],[-7.1322,39.1645],[-7.1351,39.1715],[-7.2216,39.1933],[-7.2415,39.2083],[-7.24,39.2179],[-7.2451,39.2259],[-7.242,39.2422],[-7.248,39.2534],[-7.2315,39.2783],[-7.2702,39.3042],[-7.2686,39.3087],[-7.3103,39.341],[-7.306,39.3511],[-7.3105,39.369],[-7.3229,39.382],[-7.31,39.3987],[-7.3014,39.4225],[-7.3086,39.4303],[-7.3056,39.4461],[-7.2943,39.4568],[-7.3251,39.4754],[-7.3771,39.4892],[-7.3904,39.5032],[-7.3888,39.5246],[-7.4,39.5338],[-7.4267,39.5327],[-7.4417,39.5432],[-7.4516,39.5617],[-7.4669,39.577],[-7.4994,39.5896],[-7.5101,39.6188],[-7.5274,39.6349],[-7.5276,39.6559],[-7.5417,39.6637],[-7.5516,39.6576],[-7.5791,39.6588],[-7.5941,39.651],[-7.5967,39.6396],[-7.6374,39.6227],[-7.6485,39.6248],[-7.6731,39.6489],[-7.7052,39.6354],[-7.7148,39.6267],[-7.7127,39.6085],[-7.7208,39.5951],[-7.7549,39.5883],[-7.7699,39.5642],[-7.7999,39.544],[-7.8251,39.5374],[-7.8391,39.5147],[-7.8473,39.5108],[-7.9067,39.5413],[-7.9102,39.5482],[-7.9596,39.561],[-7.9697,39.5491],[-7.9696,39.5365],[-7.9856,39.5125],[-7.9949,39.5096],[-8.0052,39.4952],[-7.998,39.4808],[-8.0089,39.4732],[-8.0063,39.4618],[-7.9954,39.4483],[-7.9432,39.4202],[-7.9395,39.41],[-7.9585,39.3976],[-7.9684,39.3832],[-7.9911,39.3826],[-8.0012,39.3679],[-8.0282,39.3631],[-8.0265,39.3416],[-8.0412,39.3305],[-8.0502,39.3115],[-8.0574,39.3099],[-8.0756,39.2916],[-8.0779,39.2786],[-8.1107,39.2775],[-8.1203,39.2867],[-8.1345,39.2874],[-8.1531,39.2729],[-8.1559,39.2656],[-8.1514,39.2495],[-8.1817,39.2292],[-8.1849,39.2186],[-8.2207,39.1955],[-8.2339,39.1816],[-8.2443,39.1828],[-8.2988,39.1629],[-8.305,39.1473],[-8.32,39.1291],[-8.3335,39.114],[-8.3433,39.1101],[-8.3434,39.1003],[-8.291,39.0788],[-8.2907,39.0587],[-8.2815,39.0504],[-8.268,39.0526],[-8.2603,39.0123],[-8.2444,38.9993],[-8.23,39.0046],[-8.2195,38.9905],[-8.2279,38.9874],[-8.2182,38.9806],[-8.1754,39.0197],[-8.1634,39.0151],[-8.152,39.0269],[-8.1404,39.0125],[-8.129,39.0122],[-8.131,39.023],[-8.1038,39.0227],[-8.1203,39.004],[-8.1033,38.9694],[-8.0873,38.9761],[-8.09,38.9902],[-8.0785,39.0138],[-8.071,39.0158],[-8.0553,39.0071],[-8.0476,39.0083],[-8.0357,38.9909],[-8.0137,38.9814],[-8.0204,38.964],[-8.0139,38.9584],[-8.0231,38.9498],[-8.0218,38.9409],[-8.0095,38.9452],[-7.9957,38.9422],[-7.968,38.9516],[-7.9579,38.9652],[-7.9233,38.9719],[-7.9072,38.9572],[-7.895,38.9314],[-7.8858,38.9247],[-7.877,38.9264],[-7.876,38.9084],[-7.8647,38.909],[-7.8527,38.9011],[-7.7899,38.8958],[-7.7855,38.9071],[-7.7723,38.9011],[-7.752,38.9082],[-7.742,38.9185],[-7.7329,38.9392],[-7.7137,38.9205],[-7.6981,38.9124],[-7.6834,38.9294],[-7.6542,38.9164],[-7.6409,38.9181],[-7.6341,38.9294],[-7.6043,38.9538],[-7.5646,38.9525],[-7.5666,38.9595],[-7.5423,38.968],[-7.5421,38.9791],[-7.5534,38.9919],[-7.5423,38.9939],[-7.5446,39.0027],[-7.5333,39.0084],[-7.5126,38.9861],[-7.492,38.9891],[-7.4529,38.9644],[-7.4638,38.955],[-7.4661,38.9409],[-7.4549,38.9337],[-7.4661,38.926],[-7.4229,38.9035],[-7.4278,38.888],[-7.4223,38.8659],[-7.4094,38.8581],[-7.4131,38.8441],[-7.3974,38.824],[-7.3903,38.8014],[-7.3817,38.8068],[-7.3689,38.8008],[-7.3533,38.8055],[-7.3468,38.7981],[-7.319,38.8095],[-7.3256,38.8252],[-7.3101,38.8291],[-7.2947,38.8406],[-7.2791,38.8279],[-7.2595,38.845],[-7.2453,38.8479],[-7.2264,38.8286],[-7.214,38.8314],[-7.2111,38.8078],[-7.2324,38.7852],[-7.2276,38.7668],[-7.2171,38.7642],[-7.2037,38.7515]]]}},{"type":"Feature","properties":{"code":"PT019","name":"Portugal"},"geometry":{"type":"Polygon","coordinates":[[[-7.2037,38.7515],[-7.2171,38.7642],[-7.2276,38.7668],[-7.2324,38.7852],[-7.2111,38.8078],[-7.214,38.8314],[-7.2264,38.8286],[-7.2453,38.8479],[-7.2595,38.845],[-7.2791,38.8279],[-7.2947,38.8406],[-7.3101,38.8291],[-7.3256,38.8252],[-7.319,38.8095],[-7.3468,38.7981],[-7.3533,38.8055],[-7.3689,38.8008],[-7.3817,38.8068],[-7.3903,38.8014],[-7.3974,38.824],[-7.4131,38.8441],[-7.4094,38.8581],[-7.4223,38.8659],[-7.4278,38.888],[-7.4229,38.9035],[-7.4661,38.926],[-7.4549,38.9337],[-7.4661,38.9409],[-7.4638,38.955],[-7.4529,38.9644],[-7.492,38.9891],[-7.5126,38.9861],[-7.5333,39.0084],[-7.5446,39.0027],[-7.5423,38.9939],[-7.5534,38.9919],[-7.5421,38.9791],[-7.5423,38.968],[-7.5666,38.9595],[-7.5646,38.9525],[-7.6043,38.9538],[-7.6341,38.9294],[-7.6409,38.9181],[-7.6542,38.9164],[-7.6834,38.9294],[-7.6981,38.9124],[-7.7137,38.9205],[-7.7329,38.9392],[-7.742,38.9185],[-7.752,38.9082],[-7.7723,38.9011],[-7.7855,38.9071],[-7.7899,38.8958],[-7.8527,38.9011],[-7.8647,38.909],[-7.876,38.9084],[-7.877,38.9264],[-7.8858,38.9247],[-7.895,38.9314],[-7.9072,38.9572],[-7.9233,38.9719],[-7.9579,38.9652],[-7.968,38.9516],[-7.9957,38.9422],[-8.0095,38.9452],[-8.0218,38.9409],[-8.0231,38.9498],[-8.0139,38.9584],[-8.0204,38.964],[-8.0137,38.9814],[-8.0357,38.9909],[-8.0476,39.0083],[-8.0553,39.0071],[-8.071,39.0158],[-8.0785,39.0138],[-8.09,38.9902],[-8.0873,38.9761],[-8.1033,38.9694],[-8.1203,39.004],[-8.1038,39.0227],[-8.131,39.023],[-8.129,39.0122],[-8.1404,39.0125],[-8.152,39.0269],[-8.1634,39.0151],[-8.1754,39.0197],[-8.1921,39.0079],[-8.2101,38.9845],[-8.2182,38.9806],[-8.2279,38.9874],[-8.2425,38.9735],[-8.2344,38.9693],[-8.2429,38.9382],[-8.2722,38.9074],[-8.2009,38.8793],[-8.1954,38.8729],[-8.1816,38.8794],[-8.1587,38.8664],[-8.1861,38.8507],[-8.1879,38.8381],[-8.168,38.83],[-8.1546,38.8092],[-8.1414,38.8181],[-8.1243,38.805],[-8.1401,38.7881],[-8.142,38.7726],[-8.1756,38.7827],[-8.1782,38.7914],[-8.1736,38.801],[-8.1819,38.8031],[-8.1918,38.7949],[-8.2049,38.7993],[-8.1973,38.808],[-8.2218,38.8286],[-8.2494,38.8178],[-8.2694,38.8316],[-8.2697,38.8422],[-8.3014,38.8603],[-8.31,38.85],[-8.3213,38.8593],[-8.3424,38.8388],[-8.38,38.8535],[-8.3893,38.8472],[-8.3818,38.8409],[-8.4091,38.823],[-8.418,38.8267],[-8.4192,38.8377],[-8.4387,38.8275],[-8.4439,38.8134],[-8.4711,38.794],[-8.4838,38.8041],[-8.5004,38.8075],[-8.5468,38.7634],[-8.491,38.7613],[-8.4917,38.7546],[-8.5056,38.7459],[-8.5114,38.7326],[-8.5009,38.7222],[-8.501,38.7155],[-8.5199,38.709],[-8.5312,38.6919],[-8.5583,38.6778],[-8.5662,38.6782],[-8.6015,38.6459],[-8.6125,38.6446],[-8.6367,38.6204],[-8.6565,38.6078],[-8.6482,38.5773],[-8.6409,38.5675],[-8.6391,38.5495],[-8.6158,38.5531],[-8.5899,38.5421],[-8.5752,38.5479],[-8.5725,38.5316],[-8.5324,38.5281],[-8.5287,38.5112],[-8.5069,38.5193],[-8.507,38.5265],[-8.5202,38.5429],[-8.4976,38.5488],[-8.4912,38.5289],[-8.4801,38.5332],[-8.4759,38.5168],[-8.4464,38.5261],[-8.4231,38.521],[-8.4104,38.5251],[-8.3997,38.5375],[-8.3691,38.5457],[-8.3582,38.5244],[-8.336,38.507],[-8.3103,38.4585],[-8.324,38.4523],[-8.3255,38.4433],[-8.3085,38.4371],[-8.292,38.4389],[-8.2862,38.4297],[-8.3014,38.423],[-8.2837,38.4121],[-8.3013,38.3997],[-8.3226,38.3722],[-8.3006,38.3755],[-8.2773,38.3715],[-8.2692,38.3536],[-8.1977,38.3426],[-8.1702,38.3194],[-8.1644,38.3198],[-8.1618,38.3271],[-8.1492,38.3272],[-8.1422,38.315],[-8.1311,38.3129],[-8.1115,38.3197],[-8.072,38.3184],[-8.0551,38.3283],[-8.0436,38.3261],[-8.0199,38.3007],[-7.9957,38.3025],[-7.9805,38.3171],[-7.9434,38.3053],[-7.8395,38.2518],[-7.8212,38.252],[-7.8178,38.2446],[-7.8036,38.2463],[-7.7906,38.2548],[-7.7807,38.2488],[-7.759,38.2465],[-7.7341,38.2334],[-7.7112,38.2141],[-7.6696,38.2002],[-7.635,38.2095],[-7.6098,38.2027],[-7.5881,38.2033],[-7.5802,38.1938],[-7.566,38.1888],[-7.5585,38.1944],[-7.4978,38.1885],[-7.4916,38.1901],[-7.4977,38.2045],[-7.461,38.2199],[-7.4536,38.2347],[-7.4381,38.243],[-7.4321,38.2607],[-7.4135,38.264],[-7.3846,38.3022],[-7.3558,38.2993],[-7.3352,38.3213],[-7.3203,38.3169],[-7.3118,38.3246],[-7.2804,38.3301],[-7.2788,38.3201],[-7.2611,38.2965],[-7.2602,38.2819],[-7.2441,38.2631],[-7.1902,38.2464],[-7.1984,38.2224],[-7.1834,38.2056],[-7.1596,38.1599],[-7.1524,38.1735],[-7.1315,38.171],[-7.1245,38.1848],[-7.1078,38.188],[-7.1177,38.2113],[-7.1428,38.2406],[-7.1429,38.2617],[-7.1559,38.2791],[-7.1755,38.2885],[-7.2023,38.329],[-7.2482,38.3695],[-7.2745,38.4],[-7.2843,38.4232],[-7.3179,38.4401],[-7.3143,38.459],[-7.3019,38.4653],[-7.2959,38.476],[-7.3009,38.483],[-7.3122,38.4745],[-7.3203,38.4757],[-7.3146,38.5139],[-7.3032,38.5201],[-7.3009,38.5269],[-7.3034,38.5431],[-7.286,38.5633],[-7.284,38.5759],[-7.2764,38.5751],[-7.2639,38.5879],[-7.2604,38.6088],[-7.2456,38.6271],[-7.2666,38.628],[-7.2725,38.6384],[-7.2671,38.6997],[-7.2579,38.7143],[-7.26,38.7229],[-7.2037,38.7515]]]}},{"type":"Feature","properties":{"code":"PT020","name":"Portugal"},"geometry":{"type":"Polygon","coordinates":[[[-8.5468,38.7634],[-8.5779,38.7719],[-8.5845,38.7667],[-8.6072,38.7774],[-8.6125,38.786],[-8.6054,38.7918],[-8.6067,38.8083],[-8.5983,38.8404],[-8.6293,38.8307],[-8.6307,38.8221],[-8.6475,38.8095],[-8.6865,38.8269],[-8.6969,38.8404],[-8.704,38.84],[-8.7094,38.8259],[-8.7439,38.7775],[-8.7536,38.7428],[-8.7916,38.7341],[-8.8335,38.7611],[-8.8508,38.7585],[-8.8683,38.748],[-8.8924,38.7413],[-8.904,38.7469],[-8.9083,38.7418],[-8.9241,38.7509],[-8.9418,38.8004],[-8.967,38.8261],[-8.9824,38.8025],[-8.9819,38.7936],[-8.96,38.797],[-8.9718,38.7847],[-8.9852,38.7851],[-9.0027,38.7775],[-9.0104,38.7649],[-9.0025,38.7601],[-8.9787,38.7608],[-8.9867,38.751],[-9.0182,38.7563],[-9.0311,38.7408],[-9.0241,38.7257],[-9.0463,38.7131],[-9.0498,38.6916],[-9.0448,38.6839],[-9.0615,38.6821],[-9.0592,38.6756],[-9.0938,38.6591],[-9.0997,38.6483],[-9.1384,38.6595],[-9.151,38.672],[-9.1427,38.6793],[-9.1476,38.6882],[-9.1801,38.6791],[-9.2406,38.6748],[-9.2447,38.6682],[-9.259,38.6631],[-9.2105,38.6029],[-9.1907,38.5603],[-9.1825,38.5215],[-9.1842,38.4894],[-9.194,38.4621],[-9.2176,38.428],[-9.221,38.4128],[-9.1997,38.4093],[-9.1688,38.4297],[-9.1378,38.4289],[-9.1136,38.4346],[-9.1075,38.4425],[-9.0639,38.4351],[-9.0419,38.4471],[-9.0279,38.447],[-9.0068,38.4559],[-8.9906,38.4651],[-8.9817,38.4787],[-8.9341,38.4883],[-8.9276,38.5038],[-8.9182,38.5108],[-8.9106,38.4873],[-8.8257,38.4194],[-8.8047,38.3828],[-8.7838,38.3218],[-8.7765,38.2622],[-8.7806,38.182],[-8.7933,38.1323],[-8.8195,38.062],[-8.8561,37.9916],[-8.8722,37.969],[-8.8824,37.9646],[-8.8839,37.95],[-8.8641,37.9497],[-8.8536,37.936],[-8.8392,37.9379],[-8.8154,37.9313],[-8.8066,37.923],[-8.7928,37.868],[-8.7961,37.8498],[-8.7899,37.8376],[-8.793,37.8196],[-8.7855,37.8179],[-8.7827,37.8072],[-8.7366,37.8149],[-8.7265,37.8086],[-8.7073,37.7789],[-8.6951,37.7758],[-8.6901,37.7586],[-8.6835,37.7532],[-8.6605,37.7683],[-8.6173,37.7495],[-8.6084,37.7594],[-8.5871,37.7568],[-8.5885,37.7814],[-8.582,37.7896],[-8.5838,37.7994],[-8.5691,37.817],[-8.5481,37.8183],[-8.5513,37.8474],[-8.5327,37.8549],[-8.4793,37.855],[-8.4621,37.8656],[-8.4405,37.86],[-8.4347,37.8709],[-8.3858,37.8603],[-8.3678,37.861],[-8.3308,37.847],[-8.3362,37.8646],[-8.3111,37.8818],[-8.3126,37.8917],[-8.2994,37.8992],[-8.3093,37.9117],[-8.3001,37.9241],[-8.3071,37.9299],[-8.2959,37.951],[-8.2954,37.9932],[-8.3057,37.9991],[-8.3144,38.0164],[-8.3278,38.0239],[-8.3475,38.0172],[-8.3531,38.0274],[-8.3744,38.0317],[-8.3713,38.0406],[-8.4062,38.0641],[-8.4097,38.0724],[-8.4007,38.0791],[-8.3943,38.1075],[-8.3863,38.1161],[-8.364,38.1036],[-8.3545,38.119],[-8.3561,38.1374],[-8.3384,38.141],[-8.3336,38.1552],[-8.308,38.1373],[-8.2911,38.1387],[-8.2915,38.155],[-8.2871,38.162],[-8.2899,38.1704],[-8.2843,38.1866],[-8.2664,38.1801],[-8.2397,38.1795],[-8.2297,38.197],[-8.2186,38.2031],[-8.2031,38.2007],[-8.1654,38.2176],[-8.1299,38.224],[-8.1297,38.2663],[-8.1431,38.2978],[-8.1644,38.3198],[-8.1702,38.3194],[-8.1977,38.3426],[-8.2692,38.3536],[-8.2773,38.3715],[-8.3006,38.3755],[-8.3226,38.3722],[-8.3013,38.3997],[-8.2837,38.4121],[-8.3014,38.423],[-8.2862,38.4297],[-8.292,38.4389],[-8.3085,38.4371],[-8.3255,38.4433],[-8.324,38.4523],[-8.3103,38.4585],[-8.336,38.507],[-8.3582,38.5244],[-8.3691,38.5457],[-8.3997,38.5375],[-8.4104,38.5251],[-8.4231,38.521],[-8.4464,38.5261],[-8.4759,38.5168],[-8.4801,38.5332],[-8.4912,38.5289],[-8.4976,38.5488],[-8.5202,38.5429],[-8.507,38.5265],[-8.5069,38.5193],[-8.5287,38.5112],[-8.5324,38.5281],[-8.5725,38.5316],[-8.5752,38.5479],[-8.5899,38.5421],[-8.6158,38.5531],[-8.6391,38.5495],[-8.6409,38.5675],[-8.6482,38.5773],[-8.6565,38.6078],[-8.6367,38.6204],[-8.6125,38.6446],[-8.6015,38.6459],[-8.5662,38.6782],[-8.5583,38.6778],[-8.5312,38.6919],[-8.5199,38.709],[-8.501,38.7155],[-8.5009,38.7222],[-8.5114,38.7326],[-8.5056,38.7459],[-8.4917,38.7546],[-8.491,38.7613],[-8.5468,38.7634]]]}},{"type":"Feature","properties":{"code":"PT021","name":"Portugal"},"geometry":{"type":"Polygon","coordinates":[[[-7.5125,37.5263],[-7.5649,37.5225],[-7.5744,37.5291],[-7.5791,37.5174],[-7.5966,37.5128],[-7.5955,37.5047],[-7.609,37.5025],[-7.6202,37.4899],[-7.6415,37.5002],[-7.6461,37.4949],[-7.6595,37.5018],[-7.713,37.5018],[-7.7212,37.4931],[-7.7424,37.4918],[-7.754,37.4799],[-7.7606,37.4867],[-7.7773,37.4731],[-7.7919,37.4713],[-7.8005,37.4627],[-7.8335,37.4482],[-7.8524,37.4493],[-7.8613,37.4357],[-7.8719,37.4386],[-7.8763,37.4323],[-7.8906,37.4346],[-7.8968,37.4265],[-7.8916,37.4219],[-7.9191,37.4077],[-7.9419,37.4035],[-7.9653,37.409],[-7.9789,37.4065],[-7.9868,37.3961],[-8.0003,37.3975],[-8.0049,37.3863],[-7.9983,37.3643],[-8.017,37.3543],[-8.0273,37.3547],[-8.0658,37.3189],[-8.0829,37.3288],[-8.1026,37.3264],[-8.1885,37.3416],[-8.2461,37.3779],[-8.2485,37.3846],[-8.2746,37.3883],[-8.2758,37.4025],[-8.2646,37.408],[-8.2784,37.4138],[-8.2776,37.4246],[-8.2849,37.4309],[-8.3199,37.4369],[-8.3235,37.4269],[-8.337,37.4326],[-8.343,37.4257],[-8.3642,37.4303],[-8.4163,37.42],[-8.4243,37.4108],[-8.4216,37.395],[-8.4302,37.3834],[-8.4409,37.3864],[-8.4508,37.3831],[-8.4564,37.375],[-8.4942,37.386],[-8.5203,37.3816],[-8.5692,37.4109],[-8.5849,37.4035],[-8.6234,37.3994],[-8.6392,37.3755],[-8.6538,37.3865],[-8.6593,37.3979],[-8.7285,37.3985],[-8.7372,37.4039],[-8.7391,37.4145],[-8.7486,37.4159],[-8.7535,37.4303],[-8.7693,37.4366],[-8.7928,37.4364],[-8.7963,37.4429],[-8.8086,37.4294],[-8.8085,37.4138],[-8.8509,37.3447],[-8.8771,37.3193],[-8.8768,37.2958],[-8.8644,37.2905],[-8.8662,37.278],[-8.8603,37.2698],[-8.8851,37.221],[-8.9096,37.1897],[-8.9108,37.1761],[-8.9033,37.1705],[-8.9208,37.136],[-8.9342,37.1139],[-8.9608,37.0872],[-8.9608,37.0739],[-8.9787,37.0561],[-8.9792,37.0443],[-8.9871,37.032],[-8.9605,37.0222],[-8.953,37.0108],[-8.9422,37.0046],[-8.9303,37.0029],[-8.9269,37.0189],[-8.9055,37.0244],[-8.8924,37.0414],[-8.8608,37.0444],[-8.855,37.0547],[-8.8257,37.0644],[-8.7907,37.0625],[-8.7278,37.0863],[-8.6857,37.0853],[-8.6701,37.0795],[-8.6671,37.1043],[-8.659,37.111],[-8.6401,37.1187],[-8.5919,37.122],[-8.57,37.1163],[-8.5593,37.1197],[-8.5295,37.1157],[-8.5042,37.1006],[-8.4368,37.0853],[-8.3965,37.0904],[-8.3711,37.1017],[-8.356,37.0998],[-8.3027,37.073],[-8.2835,37.0733],[-8.2583,37.0803],[-8.253,37.0866],[-8.2317,37.0826],[-8.1847,37.0906],[-8.0955,37.0641],[-7.9329,36.9707],[-7.9012,36.9634],[-7.8731,36.9642],[-7.8655,36.9731],[-7.8146,36.9961],[-7.7698,37.029],[-7.649,37.0927],[-7.6015,37.128],[-7.5732,37.1412],[-7.5062,37.1676],[-7.464,37.1764],[-7.4044,37.1708],[-7.4126,37.2215],[-7.4195,37.2376],[-7.4322,37.2465],[-7.4319,37.2594],[-7.422,37.2749],[-7.4411,37.3073],[-7.44,37.3316],[-7.4447,37.3474],[-7.4387,37.3539],[-7.4366,37.3681],[-7.4405,37.391],[-7.4618,37.4074],[-7.4594,37.4141],[-7.4456,37.4199],[-7.4575,37.4293],[-7.4562,37.4502],[-7.4696,37.4717],[-7.4667,37.491],[-7.4841,37.4983],[-7.4943,37.5233],[-7.5125,37.5263]]]}},{"type":"Feature","properties":{"code":"PT022","name":"Portugal"},"geometry":{"type":"Polygon","coordinates":[[[-7.9896,41.3466],[-7.9673,41.3893],[-7.9726,41.4027],[-7.9667,41.4121],[-7.9417,41.43],[-7.9374,41.4459],[-7.9438,41.4526],[-7.9387,41.4606],[-7.9382,41.4774],[-7.9257,41.4888],[-7.9026,41.4893],[-7.8886,41.509],[-7.8614,41.5118],[-7.864,41.5244],[-7.8529,41.5272],[-7.8378,41.5393],[-7.8326,41.5569],[-7.822,41.5559],[-7.8107,41.5733],[-7.8295,41.6022],[-7.8509,41.6151],[-7.8573,41.6014],[-7.8794,41.5882],[-7.8908,41.5933],[-7.9056,41.587],[-7.9321,41.5953],[-7.9527,41.5931],[-7.9665,41.6039],[-7.9966,41.6031],[-8.003,41.6209],[-7.9989,41.6531],[-7.9817,41.6777],[-7.9941,41.6865],[-8.0177,41.6891],[-8.0247,41.698],[-8.0389,41.7006],[-8.048,41.6928],[-8.0738,41.6955],[-8.1124,41.6878],[-8.1185,41.6923],[-8.109,41.7019],[-8.0943,41.7074],[-8.0819,41.7246],[-8.0765,41.7498],[-8.0611,41.7626],[-8.0636,41.7737],[-8.0573,41.7981],[-8.0487,41.7997],[-8.0451,41.8104],[-8.0512,41.8195],[-8.0939,41.808],[-8.1045,41.8118],[-8.1309,41.8089],[-8.165,41.8181],[-8.1687,41.8072],[-8.1967,41.8122],[-8.2317,41.7874],[-8.271,41.7714],[-8.2915,41.7819],[-8.3068,41.7612],[-8.3367,41.7646],[-8.3497,41.7598],[-8.3749,41.7704],[-8.3826,41.7614],[-8.4306,41.7536],[-8.4615,41.7322],[-8.486,41.7272],[-8.4873,41.7398],[-8.4935,41.7415],[-8.5183,41.7263],[-8.5137,41.7213],[-8.5218,41.6796],[-8.5302,41.6805],[-8.5429,41.6714],[-8.5364,41.6495],[-8.5427,41.6377],[-8.5407,41.6313],[-8.565,41.6253],[-8.5773,41.643],[-8.5851,41.6439],[-8.6041,41.6343],[-8.6286,41.6508],[-8.6433,41.6544],[-8.6478,41.6452],[-8.6463,41.6328],[-8.6552,41.634],[-8.664,41.6423],[-8.6964,41.6407],[-8.7049,41.6331],[-8.7242,41.6338],[-8.7324,41.6217],[-8.7567,41.6215],[-8.7568,41.6144],[-8.7758,41.616],[-8.8014,41.6065],[-8.8116,41.6116],[-8.787,41.5137],[-8.7909,41.5021],[-8.7774,41.4813],[-8.7764,41.472],[-8.7526,41.4661],[-8.7463,41.4686],[-8.7295,41.4536],[-8.7123,41.4545],[-8.7008,41.4422],[-8.6832,41.4492],[-8.6681,41.4446],[-8.6574,41.4363],[-8.6501,41.4197],[-8.6347,41.4187],[-8.6225,41.4099],[-8.6052,41.4127],[-8.5923,41.395],[-8.6229,41.3839],[-8.6106,41.3411],[-8.6024,41.3456],[-8.5184,41.3457],[-8.5173,41.354],[-8.5015,41.3683],[-8.4551,41.3756],[-8.4406,41.3635],[-8.4231,41.3658],[-8.3994,41.3843],[-8.3844,41.3809],[-8.394,41.3737],[-8.3942,41.3619],[-8.3572,41.3651],[-8.3261,41.3769],[-8.3281,41.3658],[-8.3164,41.3513],[-8.3037,41.3431],[-8.2784,41.3458],[-8.2743,41.3649],[-8.2658,41.3773],[-8.244,41.393],[-8.2204,41.3977],[-8.223,41.4099],[-8.1855,41.41],[-8.1757,41.3993],[-8.1658,41.4003],[-8.1588,41.3812],[-8.1404,41.3784],[-8.1461,41.3642],[-8.1308,41.3553],[-8.1301,41.3486],[-8.0957,41.3383],[-8.0865,41.3293],[-8.0654,41.3433],[-8.0577,41.3331],[-8.049,41.3318],[-8.0357,41.3188],[-8.029,41.3191],[-8.0038,41.342],[-7.9896,41.3466]]]}},{"type":"Feature","properties":{"code":"PT023","name":"Portugal"},"geometry":{"type":"Polygon","coordinates":[[[-16.8371,32.7179],[-16.8421,32.7254],[-16.8411,32.7397],[-16.8749,32.738],[-16.8816,32.7462],[-16.9083,32.7364],[-16.904,32.7482],[-16.886,32.7655],[-16.8905,32.772],[-16.8879,32.7806],[-16.9032,32.7898],[-16.9125,32.7847],[-16.9213,32.7871],[-16.9371,32.7771],[-16.9335,32.7957],[-16.94,32.7942],[-16.9386,32.8035],[-16.9513,32.8097],[-16.9551,32.7915],[-16.9639,32.7874],[-16.9679,32.7782],[-16.9615,32.7717],[-16.9656,32.7688],[-16.9739,32.7747],[-16.9887,32.7736],[-16.9872,32.7843],[-16.9788,32.7884],[-16.9867,32.8077],[-16.9978,32.7988],[-17.011,32.8085],[-17.0279,32.8052],[-17.0084,32.793],[-17.0096,32.7719],[-17.0014,32.7646],[-17.0114,32.7611],[-17.0252,32.7637],[-17.0364,32.7574],[-17.0428,32.7712],[-17.0486,32.7688],[-17.0512,32.7771],[-17.0654,32.7864],[-17.0554,32.7949],[-17.0661,32.8001],[-17.0777,32.7863],[-17.0754,32.8057],[-17.0835,32.8099],[-17.0927,32.8004],[-17.0944,32.8084],[-17.1056,32.812],[-17.1078,32.7937],[-17.118,32.7871],[-17.1222,32.7946],[-17.1211,32.8142],[-17.126,32.8212],[-17.142,32.8174],[-17.142,32.8263],[-17.1595,32.8288],[-17.1629,32.8215],[-17.156,32.8081],[-17.1496,32.8071],[-17.1388,32.7696],[-17.1496,32.7754],[-17.1542,32.7853],[-17.1638,32.7846],[-17.1613,32.7949],[-17.1787,32.8037],[-17.188,32.8223],[-17.1845,32.832],[-17.2011,32.8404],[-17.2178,32.8234],[-17.2205,32.8163],[-17.2143,32.8056],[-17.2244,32.8038],[-17.223,32.79],[-17.2163,32.7878],[-17.2079,32.7745],[-17.1965,32.772],[-17.1945,32.7644],[-17.1803,32.7616],[-17.1862,32.7566],[-17.1751,32.7543],[-17.1688,32.7621],[-17.1625,32.7625],[-17.1564,32.7539],[-17.1606,32.75],[-17.1348,32.7308],[-17.1181,32.7303],[-17.1144,32.7164],[-17.1016,32.7216],[-17.0931,32.7131],[-17.0772,32.7387],[-17.0806,32.7106],[-17.0721,32.7054],[-17.0637,32.7129],[-17.0537,32.7079],[-17.0459,32.716],[-17.0397,32.7159],[-17.0362,32.7288],[-17.0429,32.7313],[-17.0241,32.7494],[-17.0018,32.7464],[-17.0071,32.7321],[-16.9959,32.7293],[-16.9971,32.7254],[-17.0161,32.7255],[-17.0235,32.7206],[-17.0233,32.705],[-17.0292,32.6956],[-17.008,32.6888],[-17.0098,32.6817],[-17.0001,32.6803],[-17.0029,32.6885],[-16.9936,32.6938],[-16.9897,32.6875],[-16.9727,32.6865],[-16.9701,32.6988],[-16.9779,32.6987],[-16.9821,32.707],[-16.9771,32.7128],[-16.9838,32.7196],[-16.974,32.7207],[-16.9729,32.7454],[-16.9629,32.7438],[-16.9662,32.7372],[-16.9612,32.7177],[-16.9662,32.711],[-16.9546,32.6887],[-16.92,32.6883],[-16.9192,32.698],[-16.9075,32.6852],[-16.8975,32.6821],[-16.8963,32.6888],[-16.8904,32.6888],[-16.876,32.6746],[-16.8638,32.6736],[-16.8651,32.6789],[-16.8535,32.6838],[-16.8459,32.6987],[-16.8403,32.6967],[-16.8371,32.7179]]]}},{"type":"Feature","properties":{"code":"PT024","name":"Portugal"},"geometry":{"type":"MultiPolygon","coordinates":[[[[-16.491,32.4636],[-16.4924,32.4366],[-16.4845,32.4188],[-16.4789,32.4108],[-16.4624,32.4038],[-16.4853,32.4285],[-16.491,32.4636]]],[[[-16.4928,32.4763],[-16.4893,32.4894],[-16.4999,32.5199],[-16.5213,32.5537],[-16.5314,32.5621],[-16.5435,32.5911],[-16.5481,32.59],[-16.5361,32.557],[-16.5371,32.5414],[-16.5169,32.5283],[-16.4928,32.4763]]],[[[-16.8371,32.7179],[-16.8403,32.6967],[-16.8459,32.6987],[-16.8535,32.6838],[-16.8651,32.6789],[-16.8638,32.6736],[-16.876,32.6746],[-16.8904,32.6888],[-16.8963,32.6888],[-16.8975,32.6821],[-16.9075,32.6852],[-16.9192,32.698],[-16.92,32.6883],[-16.9546,32.6887],[-16.9662,32.711],[-16.9612,32.7177],[-16.9662,32.7372],[-16.9629,32.7438],[-16.9729,32.7454],[-16.974,32.7207],[-16.9838,32.7196],[-16.9771,32.7128],[-16.9821,32.707],[-16.9779,32.6987],[-16.9701,32.6988],[-16.9727,32.6865],[-16.9897,32.6875],[-16.9936,32.6938],[-17.0029,32.6885],[-17.0001,32.6803],[-17.0098,32.6817],[-17.008,32.6888],[-17.0292,32.6956],[-17.0233,32.705],[-17.0235,32.7206],[-17.0161,32.7255],[-16.9971,32.7254],[-16.9959,32.7293],[-17.0071,32.7321],[-17.0018,32.7464],[-17.0241,32.7494],[-17.0429,32.7313],[-17.0362,32.7288],[-17.0397,32.7159],[-17.0459,32.716],[-17.0537,32.7079],[-17.0637,32.7129],[-17.0721,32.7054],[-17.0806,32.7106],[-17.0772,32.7387],[-17.0931,32.7131],[-17.1016,32.7216],[-17.1144,32.7164],[-17.1181,32.7303],[-17.1348,32.7308],[-17.1606,32.75],[-17.1564,32.7539],[-17.1625,32.7625],[-17.1688,32.7621],[-17.1751,32.7543],[-17.1862,32.7566],[-17.1803,32.7616],[-17.1945,32.7644],[-17.1965,32.772],[-17.2079,32.7745],[-17.2163,32.7878],[-17.223,32.79],[-17.2244,32.8038],[-17.2659,32.8142],[-17.2513,32.8019],[-17.2435,32.7829],[-17.2446,32.7732],[-17.2163,32.7463],[-17.2128,32.7372],[-17.1912,32.7249],[-17.1386,32.7033],[-17.1038,32.6784],[-17.096,32.681],[-17.0719,32.6752],[-17.0646,32.6686],[-17.0163,32.6524],[-16.9746,32.6479],[-16.9541,32.6413],[-16.9464,32.6331],[-16.9259,32.6372],[-16.9111,32.6459],[-16.8961,32.6471],[-16.8523,32.6381],[-16.8295,32.642],[-16.8037,32.6629],[-16.7935,32.685],[-16.7736,32.6911],[-16.7615,32.7071],[-16.765,32.7155],[-16.7581,32.7178],[-16.7452,32.735],[-16.7164,32.7427],[-16.7034,32.7389],[-16.6973,32.7412],[-16.6959,32.7478],[-16.6737,32.7325],[-16.6561,32.7282],[-16.6959,32.7525],[-16.6989,32.7484],[-16.7095,32.7518],[-16.7183,32.7473],[-16.7405,32.752],[-16.8371,32.7179]]]]}},{"type":"Feature","properties":{"code":"PT025","name":"Portugal"},"geometry":{"type":"Polygon","coordinates":[[[-16.7405,32.752],[-16.7522,32.7572],[-16.778,32.7577],[-16.7892,32.7662],[-16.798,32.7625],[-16.8224,32.7681],[-16.8353,32.7866],[-16.8545,32.794],[-16.8654,32.8102],[-16.8868,32.8282],[-16.9043,32.8363],[-16.969,32.8266],[-16.9916,32.8296],[-17.0167,32.8154],[-17.0507,32.8084],[-17.0922,32.8152],[-17.1059,32.8268],[-17.1252,32.8276],[-17.167,32.8679],[-17.1965,32.8702],[-17.2659,32.8142],[-17.2244,32.8038],[-17.2143,32.8056],[-17.2205,32.8163],[-17.2178,32.8234],[-17.2011,32.8404],[-17.1845,32.832],[-17.188,32.8223],[-17.1787,32.8037],[-17.1613,32.7949],[-17.1638,32.7846],[-17.1542,32.7853],[-17.1496,32.7754],[-17.1388,32.7696],[-17.1496,32.8071],[-17.156,32.8081],[-17.1629,32.8215],[-17.1595,32.8288],[-17.142,32.8263],[-17.142,32.8174],[-17.126,32.8212],[-17.1211,32.8142],[-17.1222,32.7946],[-17.118,32.7871],[-17.1078,32.7937],[-17.1056,32.812],[-17.0944,32.8084],[-17.0927,32.8004],[-17.0835,32.8099],[-17.0754,32.8057],[-17.0777,32.7863],[-17.0661,32.8001],[-17.0554,32.7949],[-17.0654,32.7864],[-17.0512,32.7771],[-17.0486,32.7688],[-17.0428,32.7712],[-17.0364,32.7574],[-17.0252,32.7637],[-17.0114,32.7611],[-17.0014,32.7646],[-17.0096,32.7719],[-17.0084,32.793],[-17.0279,32.8052],[-17.011,32.8085],[-16.9978,32.7988],[-16.9867,32.8077],[-16.9788,32.7884],[-16.9872,32.7843],[-16.9887,32.7736],[-16.9739,32.7747],[-16.9656,32.7688],[-16.9615,32.7717],[-16.9679,32.7782],[-16.9639,32.7874],[-16.9551,32.7915],[-16.9513,32.8097],[-16.9386,32.8035],[-16.94,32.7942],[-16.9335,32.7957],[-16.9371,32.7771],[-16.9213,32.7871],[-16.9125,32.7847],[-16.9032,32.7898],[-16.8879,32.7806],[-16.8905,32.772],[-16.886,32.7655],[-16.904,32.7482],[-16.9083,32.7364],[-16.8816,32.7462],[-16.8749,32.738],[-16.8411,32.7397],[-16.8421,32.7254],[-16.8371,32.7179],[-16.7405,32.752]]]}},{"type":"Feature","properties":{"code":"PT026","name":"Portugal"},"geometry":{"type":"MultiPolygon","coordinates":[[[[-16.3833,33.021],[-16.394,33.0065],[-16.3796,32.9962],[-16.3835,33.006],[-16.3833,33.021]]],[[[-16.3759,33.0599],[-16.3958,33.04],[-16.3911,33.0311],[-16.3773,33.0249],[-16.3282,33.0606],[-16.293,33.0602],[-16.298,33.0697],[-16.2907,33.0764],[-16.299,33.0867],[-16.2933,33.0942],[-16.2953,33.1],[-16.3087,33.0971],[-16.3122,33.1026],[-16.3239,33.1045],[-16.3426,33.0975],[-16.3601,33.0832],[-16.3707,33.0819],[-16.3754,33.076],[-16.3759,33.0599]]]]}}]}