{"type":"FeatureCollection","features":[{"type":"Feature","properties":{"code":"SI006","name":"Northeast"},"geometry":{"type":"Polygon","coordinates":[[[16.5534,46.4926],[16.5194,46.4943],[16.3902,46.5311],[16.2788,46.517],[16.2376,46.5003],[15.6604,46.2169],[15.6113,46.1613],[15.6052,46.1144],[15.6263,46.0932],[15.6632,46.067],[15.6193,46.0595],[15.202,46.0758],[15.1738,46.1011],[15.1116,46.1782],[15.0691,46.1876],[14.92,46.1992],[14.8854,46.2127],[14.8796,46.2384],[14.8412,46.2499],[14.7224,46.2621],[14.6897,46.2765],[14.5839,46.3901],[14.6039,46.4079],[14.8049,46.5351],[14.9218,46.617],[15.0526,46.649],[15.4263,46.6532],[15.888,46.7209],[15.966,46.7454],[15.9871,46.7616],[15.9931,46.8022],[16.0143,46.8432],[16.062,46.8531],[16.1168,46.8721],[16.135,46.8502],[16.5291,46.5253],[16.5534,46.4926]]]}},{"type":"Feature","properties":{"code":"SI007","name":"Northwest"},"geometry":{"type":"Polygon","coordinates":[[[14.8796,46.2384],[14.8854,46.2127],[14.8019,46.1936],[14.575,46.2313],[14.54,46.2303],[14.3622,46.144],[14.1984,46.0379],[14.0721,45.8885],[14.0411,45.8906],[13.6545,46.1639],[13.6237,46.18],[13.6284,46.2193],[13.7071,46.51],[13.7478,46.517],[14.0721,46.4885],[14.5435,46.4022],[14.5839,46.3901],[14.6897,46.2765],[14.7224,46.2621],[14.8412,46.2499],[14.8796,46.2384]]]}},{"type":"Feature","properties":{"code":"SI008","name":"Southwest"},"geometry":{"type":"Polygon","coordinates":[[[14.0411,45.8906],[14.0721,45.8885],[14.1711,46.0012],[14.199,45.9798],[14.2212,45.9545],[14.2593,45.9284],[14.3888,45.8633],[14.4402,45.8582],[14.4754,45.8613],[14.5048,45.8549],[14.5787,45.6112],[14.5934,45.586],[14.4816,45.5666],[14.221,45.4904],[14.1312,45.4786],[13.5819,45.4818],[13.7255,45.6015],[13.7349,45.5986],[13.7621,45.6024],[13.7883,45.5873],[13.8214,45.5858],[13.8598,45.5961],[13.9131,45.6366],[13.8944,45.6625],[13.8021,45.736],[13.6771,45.7932],[13.6457,45.8226],[13.4981,45.9861],[13.4877,46.0131],[13.5006,46.0406],[13.5205,46.0732],[13.5957,46.1605],[13.6237,46.18],[13.6545,46.1639],[14.0411,45.8906]]]}},{"type":"Feature","properties":{"code":"SI009","name":"Central"},"geometry":{"type":"Polygon","coordinates":[[[14.575,46.2313],[14.8019,46.1936],[14.8854,46.2127],[14.92,46.1992],[15.0691,46.1876],[15.1116,46.1782],[15.1738,46.1011],[15.202,46.0758],[15.1724,46.0702],[15.0145,45.9615],[14.9857,45.9663],[14.8932,46.0011],[14.7663,46.0038],[14.7432,45.884],[14.5389,45.8667],[14.5048,45.8549],[14.4754,45.8613],[14.4402,45.8582],[14.3888,45.8633],[14.2593,45.9284],[14.2212,45.9545],[14.199,45.9798],[14.1711,46.0012],[14.1984,46.0379],[14.3622,46.144],[14.54,46.2303],[14.575,46.2313]]]}},{"type":"Feature","properties":{"code":"SI010","name":"Southeast"},"geometry":{"type":"Polygon","coordinates":[[[15.202,46.0758],[15.6193,46.0595],[15.6632,46.067],[15.6901,46.0472],[15.3566,45.7889],[15.3292,45.7596],[15.3101,45.7128],[15.2294,45.4563],[15.2224,45.418],[15.1864,45.4342],[14.6614,45.5914],[14.5934,45.586],[14.5787,45.6112],[14.5048,45.8549],[14.5389,45.8667],[14.7432,45.884],[14.7663,46.0038],[14.8932,46.0011],[14.9857,45.9663],[15.0145,45.9615],[15.1724,46.0702],[15.202,46.0758]]]}},{"type":"Feature","properties":{"code":"SI801","name":"Coast"},"geometry":{"type":"Polygon","coordinates":[[[13.7255,45.6015],[13.5819,45.4818],[13.3845,45.5659],[13.6287,45.6316],[13.7255,45.6015]]]}}]}