{"type":"FeatureCollection","features":[{"type":"Feature","properties":{"code":"BA001","name":"BIHAC"},"geometry":{"type":"Polygon","coordinates":[[[16.2571,45.1229],[16.2716,45.0902],[16.2862,44.8988],[16.2964,44.8658],[16.7661,44.7981],[16.792,44.7888],[16.8866,44.5648],[16.8911,44.5279],[16.8528,44.523],[16.5038,44.515],[16.4707,44.5048],[16.4367,44.5066],[16.2101,44.2684],[15.7594,44.9279],[15.7527,44.9654],[15.7566,45.074],[15.7975,45.1748],[15.8208,45.1996],[15.9173,45.2212],[15.9868,45.2176],[16.0112,45.2087],[16.0334,45.1922],[16.0679,45.1467],[16.1133,45.132],[16.2571,45.1229]]]}},{"type":"Feature","properties":{"code":"BA002","name":"PRIJEDOR"},"geometry":{"type":"Polygon","coordinates":[[[17.1061,45.1831],[17.1709,45.1482],[17.1987,45.1424],[17.8265,45.0467],[17.8646,45.0445],[17.9385,45.0717],[18.06,45.1033],[18.0972,45.1064],[18.2969,45.109],[18.5937,45.0834],[18.6366,45.0746],[18.6642,45.0598],[18.9617,44.8689],[18.9973,44.8554],[19.0308,44.8735],[19.0924,44.8948],[19.1292,44.9017],[19.1782,44.9191],[19.2074,44.919],[19.2997,44.9101],[19.3556,44.8985],[19.3823,44.8859],[19.3886,44.851],[19.3282,44.7115],[19.3073,44.6761],[19.2509,44.5966],[19.2281,44.5739],[19.1998,44.5562],[19.1759,44.5694],[19.0568,44.568],[19.0217,44.5629],[18.8247,44.5725],[18.4497,44.8836],[18.3763,44.8894],[18.1562,44.8828],[17.3989,44.9006],[16.8224,44.7905],[16.792,44.7888],[16.7661,44.7981],[16.2964,44.8658],[16.2862,44.8988],[16.2716,45.0902],[16.2571,45.1229],[16.3993,45.1137],[16.4386,45.1216],[16.7246,45.2007],[16.9027,45.264],[16.9335,45.2587],[17.0722,45.1943],[17.1061,45.1831]]]}},{"type":"Feature","properties":{"code":"BA003","name":"BANJA LUKA"},"geometry":{"type":"Polygon","coordinates":[[[18.413,44.8869],[18.3976,44.8654],[18.2754,44.7915],[18.2557,44.7663],[18.3837,44.6199],[18.3996,44.5941],[18.1372,44.5793],[18.1046,44.5842],[18.0504,44.6588],[18.0264,44.6764],[17.9323,44.6674],[17.9284,44.6337],[17.9364,44.5454],[17.931,44.4853],[17.6244,44.3398],[17.5882,44.3451],[17.3953,44.4633],[17.3698,44.4597],[17.2211,44.397],[17.1991,44.3755],[17.2951,44.2077],[17.3062,44.1726],[17.1816,44.0666],[17.1509,44.0538],[16.4893,44.4807],[16.4707,44.5048],[16.5038,44.515],[16.8528,44.523],[16.8911,44.5279],[16.8866,44.5648],[16.792,44.7888],[16.8224,44.7905],[17.3989,44.9006],[18.1562,44.8828],[18.3763,44.8894],[18.413,44.8869]]]}},{"type":"Feature","properties":{"code":"BA004","name":"TUZLA"},"geometry":{"type":"Polygon","coordinates":[[[19.0217,44.5629],[19.0032,44.5422],[18.7744,44.3445],[18.7743,44.306],[18.8079,44.2329],[18.8179,44.1871],[18.7876,44.1653],[18.6468,44.0904],[18.6185,44.0867],[17.5285,44.1541],[17.3062,44.1726],[17.2951,44.2077],[17.1991,44.3755],[17.2211,44.397],[17.3698,44.4597],[17.3953,44.4633],[17.5882,44.3451],[17.6244,44.3398],[17.931,44.4853],[17.9364,44.5454],[17.9284,44.6337],[17.9323,44.6674],[18.0264,44.6764],[18.0504,44.6588],[18.1046,44.5842],[18.1372,44.5793],[18.3996,44.5941],[18.3837,44.6199],[18.2557,44.7663],[18.2754,44.7915],[18.3976,44.8654],[18.413,44.8869],[18.4497,44.8836],[18.8247,44.5725],[19.0217,44.5629]]]}},{"type":"Feature","properties":{"code":"BA005","name":"LIVNO"},"geometry":{"type":"Polygon","coordinates":[[[16.4707,44.5048],[16.4893,44.4807],[17.1509,44.0538],[17.1816,44.0666],[17.2309,44.1069],[17.2505,44.0877],[17.5302,43.6138],[17.5058,43.6017],[17.4668,43.5918],[17.4205,43.5893],[17.1245,43.5458],[17.074,43.5343],[17.0391,43.556],[16.2761,44.1656],[16.2101,44.2684],[16.4367,44.5066],[16.4707,44.5048]]]}},{"type":"Feature","properties":{"code":"BA006","name":"SARAJEVO"},"geometry":{"type":"Polygon","coordinates":[[[18.6185,44.0867],[18.6018,44.062],[18.3662,43.8059],[18.3499,43.7832],[18.5115,43.7135],[18.5344,43.6937],[18.3564,43.4822],[18.3187,43.4758],[17.5822,43.4888],[17.5546,43.4957],[17.4835,43.5683],[17.4668,43.5918],[17.5058,43.6017],[17.5302,43.6138],[17.2505,44.0877],[17.2309,44.1069],[17.3062,44.1726],[17.3352,44.173],[17.5285,44.1541],[18.6185,44.0867]]]}},{"type":"Feature","properties":{"code":"BA007","name":"VISEGRAD"},"geometry":{"type":"Polygon","coordinates":[[[19.1998,44.5562],[19.1714,44.5288],[19.1536,44.4955],[19.1121,44.3857],[19.1176,44.3432],[19.2844,43.8644],[19.3021,43.8386],[19.3285,43.834],[19.352,43.8079],[19.4285,43.7835],[19.4628,43.7622],[19.4817,43.7423],[19.5234,43.6436],[19.521,43.6075],[19.5026,43.5845],[19.2232,43.5324],[19.1818,43.5176],[19.1459,43.5222],[19.0392,43.517],[19.0079,43.5051],[18.5647,43.6916],[18.5344,43.6937],[18.5115,43.7135],[18.3499,43.7832],[18.3662,43.8059],[18.6018,44.062],[18.6185,44.0867],[18.6468,44.0904],[18.7876,44.1653],[18.8179,44.1871],[18.8079,44.2329],[18.7743,44.306],[18.7744,44.3445],[19.0032,44.5422],[19.0217,44.5629],[19.0568,44.568],[19.1759,44.5694],[19.1998,44.5562]]]}},{"type":"Feature","properties":{"code":"BA008","name":"MOSTAR"},"geometry":{"type":"Polygon","coordinates":[[[18.0061,43.482],[18.0089,43.4243],[17.9997,43.2392],[17.9255,43.0596],[17.9186,43.0213],[18.1376,42.7688],[18.1354,42.742],[18.1008,42.6972],[17.6443,42.8897],[17.6191,42.9051],[17.5971,42.9278],[17.6112,42.9514],[17.6477,43.06],[17.627,43.088],[17.4899,43.1485],[17.366,43.2307],[17.3442,43.2495],[17.2866,43.3532],[17.0918,43.513],[17.074,43.5343],[17.1245,43.5458],[17.4205,43.5893],[17.4668,43.5918],[17.4835,43.5683],[17.5546,43.4957],[17.5822,43.4888],[18.0061,43.482]]]}},{"type":"Feature","properties":{"code":"BA009","name":"FOCA"},"geometry":{"type":"Polygon","coordinates":[[[19.0079,43.5051],[18.9867,43.4835],[18.6957,43.2607],[18.5394,43.0305],[18.5106,43.0354],[18.0425,43.2337],[17.9997,43.2392],[18.0089,43.4243],[18.0061,43.482],[18.3187,43.4758],[18.3564,43.4822],[18.5344,43.6937],[18.5647,43.6916],[19.0079,43.5051]]]}},{"type":"Feature","properties":{"code":"BA010","name":"TREBINJE"},"geometry":{"type":"Polygon","coordinates":[[[18.5394,43.0305],[18.5024,42.9748],[18.4908,42.9423],[18.4449,42.6298],[18.4533,42.5988],[18.4343,42.5665],[18.3979,42.5702],[18.1008,42.6972],[18.1354,42.742],[18.1376,42.7688],[17.9186,43.0213],[17.9255,43.0596],[17.9997,43.2392],[18.0425,43.2337],[18.5106,43.0354],[18.5394,43.0305]]]}}]}