{"type":"FeatureCollection","features":[{"type":"Feature","properties":{"code":"DK001","name":"Nordjylland"},"geometry":{"type":"MultiPolygon","coordinates":[[[[11.0716,57.2425],[10.9612,57.2401],[10.9088,57.2467],[10.8807,57.2591],[10.9095,57.2834],[10.9412,57.3],[11.1528,57.3268],[11.1847,57.314],[11.1467,57.3005],[11.1119,57.2956],[11.0858,57.2731],[11.0716,57.2425]]],[[[9.2624,56.9811],[9.4178,57.0115],[9.5326,57.0031],[9.613,56.9805],[9.6432,56.9853],[9.6832,57.0293],[9.7182,57.0392],[9.8072,57.0485],[9.8303,57.0616],[9.8507,57.0812],[9.8066,57.089],[9.6167,57.0748],[9.4692,57.0384],[9.3218,57.021],[9.2922,57.0122],[9.2624,56.9811],[9.2364,57.0056],[9.1494,57.0317],[9.0601,57.0264],[9.043,57.0641],[9.0374,57.1439],[9.0839,57.1457],[9.1838,57.1373],[9.2747,57.1432],[9.3869,57.158],[9.416,57.1676],[9.5162,57.2114],[9.5553,57.2347],[9.6425,57.3074],[9.7374,57.3957],[9.9928,57.5825],[10.031,57.5912],[10.2454,57.611],[10.4847,57.7066],[10.6104,57.7517],[10.6435,57.7438],[10.4862,57.6555],[10.4536,57.609],[10.4581,57.5698],[10.5217,57.4423],[10.5304,57.3708],[10.5275,57.3047],[10.5051,57.2377],[10.487,57.2017],[10.429,57.1527],[10.3301,57.0164],[10.3055,56.9894],[10.2722,56.9838],[10.292,56.9623],[10.2771,56.9404],[10.2661,56.9059],[10.2763,56.8081],[10.2855,56.7813],[10.3203,56.7149],[10.2779,56.7101],[9.7866,56.5645],[9.7555,56.561],[9.5769,56.7214],[9.5375,56.728],[9.2775,56.7138],[9.2373,56.7251],[9.2174,56.7719],[9.1876,56.807],[9.203,56.839],[9.1752,56.8993],[9.1931,56.9277],[9.2362,56.9557],[9.2624,56.9811]],[[10.0193,57.0717],[9.9978,57.091],[9.9717,57.0808],[10.0193,57.0717]]]]}},{"type":"Feature","properties":{"code":"DK002","name":"Midt- og Vestjylland"},"geometry":{"type":"MultiPolygon","coordinates":[[[[9.3159,56.7151],[9.5375,56.728],[9.5769,56.7214],[9.7555,56.561],[9.7627,56.5296],[9.7698,56.4485],[9.7683,56.3715],[9.7575,56.2886],[9.1864,55.92],[9.1001,55.8722],[9.0692,55.847],[9.041,55.8544],[8.203,55.8038],[8.1729,55.8102],[8.1413,55.9236],[8.1363,55.9561],[8.2103,55.895],[8.2535,55.8668],[8.2851,55.8607],[8.3187,55.8622],[8.3709,55.8924],[8.3635,55.9412],[8.3177,56.0024],[8.311,56.0299],[8.2968,56.0539],[8.16,56.1056],[8.1302,56.0493],[8.1331,56.0163],[8.108,56.0118],[8.0989,56.0481],[8.1192,56.5312],[8.1308,56.5719],[8.1653,56.6485],[8.1979,56.6264],[8.2843,56.5874],[8.3027,56.5677],[8.3834,56.5697],[8.4944,56.5443],[8.5323,56.5537],[8.5674,56.5514],[8.592,56.5176],[8.6396,56.4732],[8.6809,56.4729],[8.716,56.478],[8.7413,56.4905],[8.7484,56.5269],[8.7465,56.5592],[8.7101,56.5888],[8.728,56.6177],[8.7983,56.6845],[8.8361,56.6977],[8.8726,56.7197],[8.8938,56.7604],[8.9312,56.7907],[8.9501,56.8231],[8.9833,56.8361],[9.0607,56.8423],[9.0414,56.8173],[9.0889,56.7915],[9.1009,56.7606],[9.109,56.7062],[9.0967,56.6642],[9.0658,56.6363],[9.0477,56.6036],[9.048,56.5661],[9.092,56.5667],[9.1371,56.6188],[9.1697,56.627],[9.2344,56.6236],[9.2647,56.6152],[9.2475,56.5813],[9.2626,56.5516],[9.2955,56.5825],[9.323,56.6452],[9.3094,56.6808],[9.3159,56.7151]]],[[[8.5472,56.8014],[8.597,56.7953],[8.6401,56.7999],[8.6395,56.8279],[8.6651,56.8574],[8.6965,56.8822],[8.8145,56.908],[8.8685,56.9476],[8.9085,56.9446],[8.9055,56.9121],[8.892,56.8818],[8.8382,56.8558],[8.8617,56.7974],[8.7914,56.7173],[8.718,56.6787],[8.6733,56.6848],[8.6033,56.7124],[8.5702,56.7397],[8.5472,56.8014]]],[[[8.5472,56.8014],[8.5068,56.7969],[8.488,56.7667],[8.4756,56.7289],[8.492,56.7069],[8.5697,56.6567],[8.6223,56.6287],[8.5676,56.6002],[8.5356,56.5942],[8.4995,56.605],[8.4501,56.6505],[8.3811,56.681],[8.347,56.7014],[8.2957,56.7488],[8.2544,56.7457],[8.2077,56.7341],[8.2616,56.8414],[8.3259,56.9181],[8.3642,56.9545],[8.557,57.0881],[8.5958,57.0989],[9.0008,57.1541],[9.0374,57.1439],[9.043,57.0641],[9.0601,57.0264],[8.9219,56.9854],[8.8394,56.9828],[8.7978,56.9613],[8.7578,56.9485],[8.6846,56.9423],[8.5844,56.8238],[8.5472,56.8014]]]]}},{"type":"Feature","properties":{"code":"DK003","name":"Bornholm"},"geometry":{"type":"Polygon","coordinates":[[[15.0825,54.9896],[14.9721,55.0031],[14.8217,55.0445],[14.7862,55.0562],[14.7089,55.1017],[14.708,55.2099],[14.7291,55.2478],[14.7605,55.2788],[15.0505,55.1636],[15.0795,55.1445],[15.1513,55.0849],[15.144,55.055],[15.1264,55.0218],[15.1059,55.0027],[15.0825,54.9896]]]}},{"type":"Feature","properties":{"code":"DK004","name":"Østjylland"},"geometry":{"type":"MultiPolygon","coordinates":[[[[10.519,55.8223],[10.5253,55.8589],[10.5255,55.9765],[10.5554,55.9848],[10.5768,55.9538],[10.6516,55.7907],[10.6249,55.7691],[10.5943,55.7663],[10.5562,55.7711],[10.5305,55.7969],[10.519,55.8223]]],[[[10.7759,56.208],[10.7215,56.172],[10.6937,56.1607],[10.6568,56.1643],[10.6383,56.194],[10.6144,56.2187],[10.582,56.2054],[10.5524,56.1854],[10.5165,56.1876],[10.4883,56.2099],[10.5003,56.2551],[10.473,56.2736],[10.4152,56.2874],[10.3853,56.2865],[10.2256,56.1685],[10.2304,56.1366],[10.2715,56.0252],[10.2789,55.9845],[10.2842,55.9425],[10.2652,55.9187],[10.2365,55.8956],[10.1941,55.8744],[10.1107,55.8719],[10.0074,55.8793],[9.9338,55.8711],[9.8914,55.8556],[9.9201,55.8388],[10.0554,55.8116],[10.0726,55.7861],[10.052,55.7615],[9.9619,55.6944],[9.9284,55.6878],[9.7719,55.682],[9.7316,55.6739],[9.7671,55.6426],[9.8072,55.6224],[9.8241,55.591],[9.7922,55.5618],[9.7385,55.5265],[9.7202,55.4995],[9.6708,55.4753],[9.6257,55.4412],[9.6028,55.4136],[9.5666,55.4176],[9.4427,55.4089],[9.405,55.4244],[9.3043,55.4838],[9.2733,55.5077],[9.1721,55.6127],[9.1419,55.6478],[9.06,55.7668],[9.0596,55.8057],[9.0692,55.847],[9.1001,55.8722],[9.1864,55.92],[9.7575,56.2886],[9.7683,56.3715],[9.7698,56.4485],[9.7627,56.5296],[9.7555,56.561],[9.7866,56.5645],[10.2779,56.7101],[10.3203,56.7149],[10.3449,56.6302],[10.3308,56.5976],[10.4024,56.536],[10.5524,56.5153],[10.7574,56.5364],[10.8058,56.5361],[10.8478,56.5256],[10.9325,56.462],[10.9486,56.4309],[10.9229,56.3672],[10.902,56.3377],[10.792,56.2305],[10.7759,56.208]]],[[[11.5933,56.7007],[11.5429,56.6911],[11.5253,56.7201],[11.5689,56.726],[11.6217,56.7229],[11.5933,56.7007]]]]}},{"type":"Feature","properties":{"code":"DK005","name":"Syd- og Sønderjylland"},"geometry":{"type":"MultiPolygon","coordinates":[[[[8.4957,55.0545],[8.4732,55.0876],[8.4719,55.1349],[8.483,55.1767],[8.5096,55.204],[8.5446,55.2049],[8.5851,55.1826],[8.5726,55.1217],[8.5572,55.0885],[8.531,55.0648],[8.4957,55.0545]]],[[[9.6028,55.4136],[9.6271,55.3477],[9.6592,55.2984],[9.6608,55.2658],[9.6299,55.1772],[9.6128,55.0633],[9.6261,55.0212],[9.6772,55.0108],[9.649,55.045],[9.6703,55.0632],[9.7003,55.0768],[9.7509,55.0828],[9.8261,55.0612],[9.9346,55.0194],[9.9951,54.9858],[10.0307,54.9463],[10.057,54.902],[10.0556,54.8736],[9.9976,54.8545],[9.9455,54.8535],[9.8794,54.8692],[9.7759,54.907],[9.7671,54.851],[9.6914,54.8459],[9.6573,54.8348],[9.6471,54.8732],[9.6153,54.8961],[9.5746,54.8919],[9.5477,54.8681],[9.4399,54.818],[9.3687,54.8377],[8.6288,54.9117],[8.6453,54.931],[8.6578,54.9578],[8.6792,55.1842],[8.669,55.338],[8.6298,55.4107],[8.6109,55.4322],[8.5476,55.4556],[8.4944,55.4514],[8.4603,55.4316],[8.4705,55.3911],[8.4716,55.3516],[8.4409,55.3446],[8.3461,55.4302],[8.3341,55.4528],[8.363,55.468],[8.411,55.4741],[8.383,55.5024],[8.2922,55.5737],[8.2587,55.5847],[8.247,55.5478],[8.2651,55.5151],[8.2432,55.5002],[8.0853,55.5595],[8.0929,55.5894],[8.1358,55.6641],[8.1672,55.7745],[8.1729,55.8102],[8.203,55.8038],[9.041,55.8544],[9.0692,55.847],[9.0596,55.8057],[9.06,55.7668],[9.1419,55.6478],[9.2733,55.5077],[9.3043,55.4838],[9.405,55.4244],[9.4427,55.4089],[9.5666,55.4176],[9.6028,55.4136]]]]}},{"type":"Feature","properties":{"code":"DK006","name":"Fyn"},"geometry":{"type":"MultiPolygon","coordinates":[[[[10.4202,54.8698],[10.4551,54.8671],[10.4841,54.8786],[10.5294,54.8474],[10.4429,54.8212],[10.4152,54.8179],[10.3584,54.8457],[10.2532,54.9148],[10.2592,54.941],[10.298,54.9303],[10.3642,54.8874],[10.4202,54.8698]]],[[[10.7594,55.0006],[10.7826,55.016],[10.9107,55.1369],[10.9467,55.1446],[10.9435,55.1076],[10.9302,55.0709],[10.8902,54.9944],[10.8822,54.9638],[10.8543,54.9407],[10.7745,54.819],[10.7325,54.7405],[10.6941,54.7272],[10.6612,54.7641],[10.6494,54.7937],[10.6445,54.8217],[10.6826,54.9178],[10.7385,54.9736],[10.7594,55.0006]]],[[[10.6993,55.5355],[10.734,55.4834],[10.8276,55.31],[10.8265,55.2784],[10.8133,55.2024],[10.8038,55.1723],[10.7517,55.0782],[10.7261,55.0635],[10.6986,55.057],[10.6535,55.0326],[10.6832,54.9956],[10.6718,54.9715],[10.6385,54.9554],[10.5958,54.9471],[10.5612,54.951],[10.5382,54.967],[10.5186,54.9986],[10.5465,55.0249],[10.2634,55.0543],[10.2218,55.0498],[10.1877,55.0627],[10.1083,55.0716],[10.0731,55.08],[9.8997,55.2421],[9.8835,55.2639],[9.7887,55.4405],[9.7717,55.4632],[9.7448,55.4783],[9.7202,55.4995],[9.7385,55.5265],[9.7922,55.5618],[9.8417,55.5576],[9.8659,55.5458],[10.312,55.6179],[10.5977,55.6105],[10.6266,55.6049],[10.655,55.5842],[10.6993,55.5355]]]]}},{"type":"Feature","properties":{"code":"DK007","name":"Vest- og Sydsjælland samt Lolland-Falster"},"geometry":{"type":"Polygon","coordinates":[[[11.7968,55.6857],[11.7781,55.655],[11.7943,55.6266],[11.965,55.4074],[12.155,55.3472],[12.2333,55.3354],[12.2804,55.3605],[12.3165,55.3985],[12.3514,55.3963],[12.3876,55.3855],[12.4264,55.3617],[12.4458,55.3295],[12.4485,55.2855],[12.4218,55.2662],[12.3883,55.2527],[12.353,55.2453],[12.1963,55.2218],[12.0779,55.1813],[12.049,55.1581],[12.0742,55.1361],[12.1472,55.1276],[12.1755,55.1085],[12.162,55.0823],[12.1267,55.0641],[12.1442,55.0348],[12.1774,55.0173],[12.2149,55.0104],[12.249,55.0097],[12.2842,55.0196],[12.3611,55.0265],[12.4466,55.0227],[12.4834,55.0163],[12.5193,55.0052],[12.5401,54.9894],[12.5502,54.9626],[12.5295,54.9444],[12.4019,54.9605],[12.3654,54.9585],[12.3261,54.9497],[12.2901,54.9387],[12.2352,54.8992],[12.1857,54.8794],[12.1663,54.8574],[12.1444,54.8213],[12.05,54.7625],[12.0259,54.7428],[11.9813,54.691],[11.9582,54.5807],[11.9142,54.5903],[11.8923,54.6254],[11.882,54.6547],[11.8861,54.6872],[11.8568,54.6856],[11.8045,54.6549],[11.7239,54.652],[11.632,54.6615],[11.554,54.6505],[11.4901,54.6268],[11.4263,54.623],[10.9977,54.7678],[10.9835,54.7891],[11.0565,54.8036],[11.0981,54.8247],[11.0684,54.8541],[11.0402,54.8686],[11.0212,54.8875],[11.0325,54.9143],[11.0839,54.9416],[11.1476,54.9527],[11.2402,54.9559],[11.2835,54.9474],[11.3601,54.9118],[11.4634,54.8505],[11.5386,54.8307],[11.573,54.832],[11.6072,54.8397],[11.6381,54.8592],[11.6596,54.8908],[11.6894,54.8864],[11.723,54.8707],[11.7505,54.8728],[11.7239,54.9245],[11.7385,54.9515],[11.8072,54.9615],[11.9554,54.9143],[11.9685,54.9374],[11.955,54.9698],[11.8997,54.9961],[11.8,55.0302],[11.7704,55.0466],[11.7518,55.0784],[11.7409,55.1087],[11.7595,55.1293],[11.7926,55.1412],[11.7714,55.1672],[11.7208,55.1961],[11.5674,55.1907],[11.3533,55.1956],[11.3068,55.2029],[11.2392,55.2237],[11.1545,55.5645],[11.1255,55.6168],[11.0753,55.6658],[10.9867,55.7083],[10.9679,55.7307],[11.0121,55.7397],[11.1076,55.7425],[11.2494,55.7337],[11.3081,55.758],[11.4863,55.8899],[11.5137,55.9217],[11.4791,55.9469],[11.5127,55.9523],[11.6286,55.9427],[11.7228,55.9643],[11.7578,55.9665],[11.7922,55.9493],[11.7566,55.9315],[11.7091,55.9179],[11.6855,55.8872],[11.6985,55.8528],[11.6737,55.7923],[11.7258,55.7332],[11.7598,55.7054],[11.7968,55.6857]]]}},{"type":"Feature","properties":{"code":"DK008","name":"København og Nordsjælland"},"geometry":{"type":"Polygon","coordinates":[[[12.5902,56.0655],[12.6175,56.0487],[12.5962,56.0159],[12.562,55.9869],[12.5445,55.9582],[12.5374,55.9315],[12.5367,55.8955],[12.5717,55.8448],[12.613,55.7644],[12.6277,55.6819],[12.665,55.6399],[12.6675,55.5849],[12.6391,55.5689],[12.6059,55.5619],[12.5699,55.5621],[12.5023,55.5951],[12.4284,55.6111],[12.3772,55.6067],[12.2702,55.5596],[12.2376,55.5369],[12.2182,55.5108],[12.2002,55.4792],[12.1963,55.4496],[12.215,55.43],[12.3165,55.3985],[12.2804,55.3605],[12.2333,55.3354],[12.155,55.3472],[11.965,55.4074],[11.8365,55.5703],[11.7781,55.655],[11.7968,55.6857],[11.8303,55.6899],[11.8541,55.7229],[11.8727,55.797],[11.9345,55.8218],[11.9534,55.8472],[11.9413,55.8755],[11.9016,55.914],[11.8883,55.9368],[11.9022,55.9711],[11.9203,55.9996],[12.0421,56.0459],[12.1688,56.1018],[12.2541,56.123],[12.2966,56.1258],[12.3711,56.1153],[12.5187,56.0859],[12.5902,56.0655]]]}},{"type":"Feature","properties":{"code":"DK801","name":"Vadehavet"},"geometry":{"type":"Polygon","coordinates":[[[8.6288,54.9117],[8.5965,54.9174],[8.537,54.9435],[8.4957,55.0545],[8.531,55.0648],[8.5572,55.0885],[8.5803,55.1463],[8.5851,55.1826],[8.5446,55.2049],[8.5096,55.204],[8.483,55.1767],[8.4719,55.1349],[8.4732,55.0876],[8.4957,55.0545],[8.4567,55.0343],[8.4404,55.0553],[8.4029,55.058],[8.3768,55.0696],[8.1706,55.0648],[8.1252,55.0595],[8.1234,55.1321],[8.1372,55.2097],[8.1095,55.2663],[8.085,55.2902],[8.0215,55.3344],[7.967,55.3626],[7.8235,55.4211],[7.7974,55.4348],[7.7762,55.4533],[7.8077,55.4601],[8.0562,55.5528],[8.0853,55.5595],[8.2432,55.5002],[8.2651,55.5151],[8.247,55.5478],[8.2587,55.5847],[8.2922,55.5737],[8.383,55.5024],[8.411,55.4741],[8.363,55.468],[8.3341,55.4528],[8.3461,55.4302],[8.4409,55.3446],[8.4716,55.3516],[8.4705,55.3911],[8.4603,55.4316],[8.4944,55.4514],[8.5476,55.4556],[8.6109,55.4322],[8.6298,55.4107],[8.669,55.338],[8.6792,55.1842],[8.6578,54.9578],[8.6453,54.931],[8.6288,54.9117]]]}},{"type":"Feature","properties":{"code":"DK802","name":"Centrale Vestkyst"},"geometry":{"type":"Polygon","coordinates":[[[8.1676,56.6837],[8.1653,56.6485],[8.1308,56.5719],[8.1192,56.5312],[8.0989,56.0481],[8.108,56.0118],[8.1331,56.0163],[8.1302,56.0493],[8.16,56.1056],[8.2968,56.0539],[8.311,56.0299],[8.3177,56.0024],[8.3635,55.9412],[8.3709,55.8924],[8.3187,55.8622],[8.2851,55.8607],[8.2535,55.8668],[8.2103,55.895],[8.1363,55.9561],[8.1413,55.9236],[8.1729,55.8102],[8.1672,55.7745],[8.1358,55.6641],[8.0929,55.5894],[8.0853,55.5595],[8.0562,55.5528],[7.8077,55.4601],[7.7762,55.4533],[7.7416,55.4833],[7.726,55.5268],[7.7233,55.5554],[7.7392,55.6154],[7.8008,55.7312],[7.8196,55.7876],[7.8056,55.8516],[7.7759,55.9336],[7.7515,56.0287],[7.7527,56.1181],[7.7714,56.2369],[7.7724,56.3415],[7.7653,56.4462],[7.7677,56.5492],[7.7866,56.6336],[7.8294,56.741],[8.1676,56.6837]]]}},{"type":"Feature","properties":{"code":"DK803","name":"Skagerraks kysten"},"geometry":{"type":"Polygon","coordinates":[[[10.915,57.8742],[10.8963,57.8522],[10.683,57.7662],[10.6435,57.7438],[10.6104,57.7517],[10.4847,57.7066],[10.2454,57.611],[10.031,57.5912],[9.9928,57.5825],[9.7374,57.3957],[9.6425,57.3074],[9.5553,57.2347],[9.5162,57.2114],[9.416,57.1676],[9.3869,57.158],[9.2747,57.1432],[9.1838,57.1373],[9.0839,57.1457],[9.0374,57.1439],[9.0008,57.1541],[8.5958,57.0989],[8.557,57.0881],[8.3642,56.9545],[8.3259,56.9181],[8.2616,56.8414],[8.1879,56.6994],[8.1676,56.6837],[7.8294,56.741],[7.9196,56.9076],[7.9729,56.9858],[8.0269,57.047],[8.0602,57.076],[8.2751,57.2214],[8.4114,57.2879],[8.5706,57.3136],[8.7047,57.3197],[8.9247,57.3474],[9.0886,57.3541],[9.1564,57.3509],[9.246,57.3738],[9.2825,57.3891],[9.3569,57.4442],[9.4277,57.5145],[9.5644,57.6366],[9.6948,57.7288],[9.733,57.747],[9.771,57.7622],[9.8826,57.7871],[10.0552,57.8012],[10.1601,57.8246],[10.1945,57.8348],[10.3252,57.9015],[10.4174,57.928],[10.4521,57.9358],[10.6273,57.9542],[10.8382,57.9195],[10.915,57.8742]]]}},{"type":"Feature","properties":{"code":"DK804","name":"Kattegat Vest"},"geometry":{"type":"Polygon","coordinates":[[[11.2033,56.2195],[11.0363,56.0917],[11.0163,56.1078],[10.7759,56.208],[10.792,56.2305],[10.902,56.3377],[10.9229,56.3672],[10.9486,56.4309],[10.9325,56.462],[10.8478,56.5256],[10.8058,56.5361],[10.7574,56.5364],[10.5524,56.5153],[10.4024,56.536],[10.3308,56.5976],[10.3449,56.6302],[10.3327,56.6797],[10.2763,56.8081],[10.2661,56.9059],[10.2771,56.9404],[10.3055,56.9894],[10.3301,57.0164],[10.429,57.1527],[10.487,57.2017],[10.5051,57.2377],[10.5275,57.3047],[10.5304,57.3708],[10.5217,57.4423],[10.4581,57.5698],[10.4536,57.609],[10.4862,57.6555],[10.5223,57.6789],[10.6031,57.7187],[10.683,57.7662],[10.8963,57.8522],[10.915,57.8742],[10.9906,57.8296],[11.0236,57.7705],[11.0233,57.7371],[11.0136,57.7006],[10.999,57.6738],[10.9467,57.6205],[10.8878,57.5838],[10.8604,57.5594],[10.8829,57.5366],[10.9103,57.5133],[10.9529,57.5056],[11.0873,57.5223],[11.2248,57.5227],[11.3576,57.4984],[11.4512,57.4586],[11.4848,57.4308],[11.5199,57.3964],[11.5423,57.3518],[11.5572,57.3059],[11.5398,57.2344],[11.5143,57.2012],[11.368,57.1067],[11.3333,57.0944],[11.2246,57.0636],[11.0879,57.0447],[10.926,57.0413],[10.8222,57.0539],[10.7884,57.0498],[10.7184,56.9842],[10.6811,56.9301],[10.6627,56.8775],[10.6722,56.8062],[10.6918,56.786],[10.7635,56.742],[10.9585,56.7162],[11.091,56.7219],[11.194,56.7544],[11.2302,56.7914],[11.3338,56.8502],[11.4619,56.8777],[11.648,56.8937],[11.7465,56.8854],[11.8423,56.8583],[11.8935,56.8131],[11.9115,56.7498],[11.9129,56.7077],[11.8628,56.6374],[11.799,56.5988],[11.6178,56.5538],[11.4823,56.553],[11.3986,56.5339],[11.318,56.4965],[11.3071,56.4101],[11.2805,56.3353],[11.232,56.2554],[11.2033,56.2195]],[[10.9612,57.2401],[11.0716,57.2425],[11.0858,57.2731],[11.1119,57.2956],[11.1467,57.3005],[11.1847,57.314],[11.1528,57.3268],[10.9412,57.3],[10.9095,57.2834],[10.8807,57.2591],[10.9088,57.2467],[10.9612,57.2401]],[[11.5933,56.7007],[11.6217,56.7229],[11.5689,56.726],[11.5253,56.7201],[11.5429,56.6911],[11.5933,56.7007]]]}},{"type":"Feature","properties":{"code":"DK805","name":"Limfjorden øst"},"geometry":{"type":"MultiPolygon","coordinates":[[[[10.3055,56.9894],[10.292,56.9623],[10.2722,56.9838],[10.3055,56.9894]]],[[[9.2624,56.9811],[9.2922,57.0122],[9.3218,57.021],[9.4692,57.0384],[9.6167,57.0748],[9.8066,57.089],[9.8507,57.0812],[9.8303,57.0616],[9.8072,57.0485],[9.7182,57.0392],[9.6832,57.0293],[9.6432,56.9853],[9.613,56.9805],[9.5326,57.0031],[9.4178,57.0115],[9.2624,56.9811]]],[[[10.0193,57.0717],[9.9717,57.0808],[9.9978,57.091],[10.0193,57.0717]]]]}},{"type":"Feature","properties":{"code":"DK806","name":"Limfjorden Vest"},"geometry":{"type":"Polygon","coordinates":[[[9.2624,56.9811],[9.2362,56.9557],[9.1931,56.9277],[9.1752,56.8993],[9.203,56.839],[9.1876,56.807],[9.2174,56.7719],[9.2373,56.7251],[9.2775,56.7138],[9.3159,56.7151],[9.3094,56.6808],[9.323,56.6452],[9.2955,56.5825],[9.2626,56.5516],[9.2475,56.5813],[9.2647,56.6152],[9.2344,56.6236],[9.1697,56.627],[9.1371,56.6188],[9.092,56.5667],[9.048,56.5661],[9.0477,56.6036],[9.0658,56.6363],[9.0967,56.6642],[9.109,56.7062],[9.1009,56.7606],[9.0889,56.7915],[9.0414,56.8173],[9.0607,56.8423],[8.9833,56.8361],[8.9501,56.8231],[8.9312,56.7907],[8.8938,56.7604],[8.8726,56.7197],[8.8361,56.6977],[8.7983,56.6845],[8.728,56.6177],[8.7101,56.5888],[8.7465,56.5592],[8.7484,56.5269],[8.7413,56.4905],[8.716,56.478],[8.6396,56.4732],[8.592,56.5176],[8.5674,56.5514],[8.5323,56.5537],[8.4944,56.5443],[8.3834,56.5697],[8.3027,56.5677],[8.2843,56.5874],[8.1979,56.6264],[8.1653,56.6485],[8.1676,56.6837],[8.1879,56.6994],[8.2077,56.7341],[8.2544,56.7457],[8.2957,56.7488],[8.347,56.7014],[8.3811,56.681],[8.4501,56.6505],[8.4995,56.605],[8.5356,56.5942],[8.5676,56.6002],[8.6223,56.6287],[8.5697,56.6567],[8.492,56.7069],[8.4756,56.7289],[8.488,56.7667],[8.5068,56.7969],[8.5472,56.8014],[8.5702,56.7397],[8.6033,56.7124],[8.6733,56.6848],[8.718,56.6787],[8.7914,56.7173],[8.8617,56.7974],[8.8382,56.8558],[8.892,56.8818],[8.9055,56.9121],[8.9085,56.9446],[8.8685,56.9476],[8.8145,56.908],[8.6965,56.8822],[8.6651,56.8574],[8.6395,56.8279],[8.6401,56.7999],[8.597,56.7953],[8.5472,56.8014],[8.5844,56.8238],[8.6846,56.9423],[8.7578,56.9485],[8.7978,56.9613],[8.8394,56.9828],[8.9219,56.9854],[9.0601,57.0264],[9.1494,57.0317],[9.2364,57.0056],[9.2624,56.9811]]]}},{"type":"Feature","properties":{"code":"DK807","name":"Samsøbælt"},"geometry":{"type":"Polygon","coordinates":[[[10.7759,56.208],[11.0163,56.1078],[11.0363,56.0917],[10.9104,55.992],[10.799,55.8829],[10.7745,55.8526],[10.7276,55.776],[10.6516,55.7907],[10.5768,55.9538],[10.5554,55.9848],[10.5255,55.9765],[10.5253,55.8589],[10.519,55.8223],[10.259,55.8783],[10.2365,55.8956],[10.2652,55.9187],[10.2842,55.9425],[10.2715,56.0252],[10.2304,56.1366],[10.2256,56.1685],[10.3853,56.2865],[10.4152,56.2874],[10.473,56.2736],[10.5003,56.2551],[10.4883,56.2099],[10.5165,56.1876],[10.5524,56.1854],[10.582,56.2054],[10.6144,56.2187],[10.6383,56.194],[10.6568,56.1643],[10.6937,56.1607],[10.7215,56.172],[10.7759,56.208]]]}},{"type":"Feature","properties":{"code":"DK808","name":"Lillebælt Nord"},"geometry":{"type":"Polygon","coordinates":[[[10.519,55.8223],[10.5305,55.7969],[10.5562,55.7711],[10.5943,55.7663],[10.6249,55.7691],[10.6516,55.7907],[10.7276,55.776],[10.6901,55.725],[10.6808,55.7012],[10.5015,55.7055],[10.1667,55.6782],[9.9958,55.6357],[9.9036,55.6015],[9.8417,55.5576],[9.7922,55.5618],[9.8241,55.591],[9.8072,55.6224],[9.7671,55.6426],[9.7316,55.6739],[9.7719,55.682],[9.9284,55.6878],[9.9619,55.6944],[10.052,55.7615],[10.0726,55.7861],[10.0554,55.8116],[9.9201,55.8388],[9.8914,55.8556],[9.9338,55.8711],[10.0074,55.8793],[10.1107,55.8719],[10.1941,55.8744],[10.2365,55.8956],[10.259,55.8783],[10.519,55.8223]]]}},{"type":"Feature","properties":{"code":"DK809","name":"Nordfyn"},"geometry":{"type":"Polygon","coordinates":[[[10.6808,55.7012],[10.738,55.6856],[10.7997,55.6608],[10.8696,55.6099],[10.8827,55.5825],[10.7402,55.5401],[10.6993,55.5355],[10.655,55.5842],[10.6266,55.6049],[10.5977,55.6105],[10.312,55.6179],[9.8659,55.5458],[9.8417,55.5576],[9.9036,55.6015],[9.9958,55.6357],[10.1667,55.6782],[10.5015,55.7055],[10.6808,55.7012]]]}},{"type":"Feature","properties":{"code":"DK810","name":"Lillebælt Syd"},"geometry":{"type":"MultiPolygon","coordinates":[[[[9.6573,54.8348],[9.5871,54.8516],[9.5477,54.8681],[9.5746,54.8919],[9.6153,54.8961],[9.6471,54.8732],[9.6573,54.8348]]],[[[10.2218,55.0498],[10.1488,54.9941],[10.1314,54.953],[10.1598,54.8929],[10.1581,54.8587],[10.1327,54.8076],[10.1291,54.7743],[10.0219,54.804],[9.8632,54.8344],[9.8058,54.8405],[9.7671,54.851],[9.7759,54.907],[9.8794,54.8692],[9.9455,54.8535],[9.9715,54.8519],[9.9976,54.8545],[10.0556,54.8736],[10.057,54.902],[10.0307,54.9463],[9.9951,54.9858],[9.9712,55.0023],[9.7847,55.0755],[9.7509,55.0828],[9.7003,55.0768],[9.6703,55.0632],[9.649,55.045],[9.6772,55.0108],[9.6261,55.0212],[9.6128,55.0633],[9.6299,55.1772],[9.6608,55.2658],[9.6592,55.2984],[9.6271,55.3477],[9.6028,55.4136],[9.6257,55.4412],[9.6708,55.4753],[9.7202,55.4995],[9.7448,55.4783],[9.7717,55.4632],[9.7887,55.4405],[9.8835,55.2639],[9.8997,55.2421],[10.0731,55.08],[10.1083,55.0716],[10.1877,55.0627],[10.2218,55.0498]]]]}},{"type":"Feature","properties":{"code":"DK811","name":"Sydfynske Øhav"},"geometry":{"type":"Polygon","coordinates":[[[10.6535,55.0326],[10.6922,55.0262],[10.7594,55.0006],[10.7385,54.9736],[10.6826,54.9178],[10.6445,54.8217],[10.6494,54.7937],[10.6612,54.7641],[10.6941,54.7272],[10.7325,54.7405],[10.7745,54.819],[10.8543,54.9407],[10.8822,54.9638],[10.9634,54.9348],[10.9363,54.9204],[10.9023,54.8524],[10.8815,54.7904],[10.8735,54.7001],[10.8745,54.6631],[10.8819,54.6267],[10.7524,54.6212],[10.5381,54.6381],[10.2583,54.7128],[10.1291,54.7743],[10.1327,54.8076],[10.1581,54.8587],[10.1598,54.8929],[10.1314,54.953],[10.1488,54.9941],[10.2218,55.0498],[10.2634,55.0543],[10.5465,55.0249],[10.5186,54.9986],[10.5382,54.967],[10.5612,54.951],[10.5958,54.9471],[10.6385,54.9554],[10.6718,54.9715],[10.6832,54.9956],[10.6535,55.0326]],[[10.4202,54.8698],[10.3642,54.8874],[10.298,54.9303],[10.2592,54.941],[10.2532,54.9148],[10.3584,54.8457],[10.4152,54.8179],[10.4429,54.8212],[10.5294,54.8474],[10.4841,54.8786],[10.4551,54.8671],[10.4202,54.8698]]]}},{"type":"Feature","properties":{"code":"DK812","name":"Østfyn"},"geometry":{"type":"Polygon","coordinates":[[[11.0808,55.1892],[11.0851,55.159],[11.0721,55.0949],[11.0405,55.0362],[10.9741,54.961],[10.9634,54.9348],[10.8822,54.9638],[10.8902,54.9944],[10.9302,55.0709],[10.9435,55.1076],[10.9467,55.1446],[10.9107,55.1369],[10.7826,55.016],[10.7594,55.0006],[10.6922,55.0262],[10.6535,55.0326],[10.6986,55.057],[10.7261,55.0635],[10.7517,55.0782],[10.8038,55.1723],[10.8265,55.2784],[10.8276,55.31],[10.734,55.4834],[10.6993,55.5355],[10.7402,55.5401],[10.8827,55.5825],[10.9104,55.5688],[10.9555,55.5006],[10.9807,55.4409],[11.0179,55.3203],[11.0333,55.2837],[11.065,55.2298],[11.0808,55.1892]]]}},{"type":"Feature","properties":{"code":"DK813","name":"Lollandfalster Syd"},"geometry":{"type":"Polygon","coordinates":[[[12.8706,54.9058],[12.8602,54.8725],[12.8418,54.8424],[12.788,54.8156],[12.5722,54.729],[12.5513,54.7114],[12.428,54.5758],[12.2597,54.4539],[12.1098,54.4031],[12.0765,54.3983],[11.7164,54.3752],[11.5176,54.452],[11.3058,54.5586],[11.2755,54.5696],[11.0295,54.6295],[10.9912,54.6348],[10.8819,54.6267],[10.8745,54.6631],[10.8735,54.7001],[10.8815,54.7904],[10.9023,54.8524],[10.9363,54.9204],[10.9634,54.9348],[11.0325,54.9143],[11.0212,54.8875],[11.0402,54.8686],[11.0684,54.8541],[11.0981,54.8247],[11.0565,54.8036],[10.9835,54.7891],[10.9977,54.7678],[11.0713,54.7403],[11.4263,54.623],[11.4901,54.6268],[11.554,54.6505],[11.632,54.6615],[11.7239,54.652],[11.8045,54.6549],[11.8568,54.6856],[11.8861,54.6872],[11.882,54.6547],[11.8923,54.6254],[11.9142,54.5903],[11.9582,54.5807],[11.9813,54.691],[12.0259,54.7428],[12.0837,54.7858],[12.1444,54.8213],[12.1663,54.8574],[12.1857,54.8794],[12.2352,54.8992],[12.2901,54.9387],[12.3654,54.9585],[12.4019,54.9605],[12.5295,54.9444],[12.5502,54.9626],[12.579,54.9483],[12.8706,54.9058]]]}},{"type":"Feature","properties":{"code":"DK814","name":"Smålandsfarvandet"},"geometry":{"type":"Polygon","coordinates":[[[11.0325,54.9143],[10.9634,54.9348],[10.9741,54.961],[11.0405,55.0362],[11.0721,55.0949],[11.0851,55.159],[11.0808,55.1892],[11.1159,55.1893],[11.2048,55.2068],[11.2392,55.2237],[11.3068,55.2029],[11.3533,55.1956],[11.5674,55.1907],[11.7208,55.1961],[11.7714,55.1672],[11.7926,55.1412],[11.7595,55.1293],[11.7409,55.1087],[11.7518,55.0784],[11.7704,55.0466],[11.8,55.0302],[11.8997,54.9961],[11.955,54.9698],[11.9685,54.9374],[11.9554,54.9143],[11.8072,54.9615],[11.7385,54.9515],[11.7239,54.9245],[11.7505,54.8728],[11.723,54.8707],[11.6894,54.8864],[11.6596,54.8908],[11.6381,54.8592],[11.6072,54.8397],[11.573,54.832],[11.5386,54.8307],[11.4634,54.8505],[11.3178,54.9328],[11.2835,54.9474],[11.2402,54.9559],[11.1476,54.9527],[11.0839,54.9416],[11.0325,54.9143]]]}},{"type":"Feature","properties":{"code":"DK815","name":"Vestsjælland"},"geometry":{"type":"Polygon","coordinates":[[[10.9679,55.7307],[10.9867,55.7083],[11.0753,55.6658],[11.1255,55.6168],[11.1545,55.5645],[11.2392,55.2237],[11.2048,55.2068],[11.1159,55.1893],[11.0808,55.1892],[11.065,55.2298],[11.0333,55.2837],[11.0179,55.3203],[10.9807,55.4409],[10.9555,55.5006],[10.9275,55.5472],[10.9104,55.5688],[10.8827,55.5825],[10.8696,55.6099],[10.7997,55.6608],[10.738,55.6856],[10.6808,55.7012],[10.6901,55.725],[10.7276,55.776],[10.9293,55.7274],[10.9679,55.7307]]]}},{"type":"Feature","properties":{"code":"DK816","name":"Sejrøbugt"},"geometry":{"type":"Polygon","coordinates":[[[11.4791,55.9469],[11.5137,55.9217],[11.4863,55.8899],[11.3081,55.758],[11.2494,55.7337],[11.1076,55.7425],[11.0121,55.7397],[10.9293,55.7274],[10.7276,55.776],[10.7745,55.8526],[10.799,55.8829],[10.9104,55.992],[11.0363,56.0917],[11.0716,56.0853],[11.3486,55.9715],[11.3839,55.9609],[11.4791,55.9469]]]}},{"type":"Feature","properties":{"code":"DK817","name":"Nordsjælland"},"geometry":{"type":"Polygon","coordinates":[[[12.2577,56.3196],[12.2881,56.2846],[12.352,56.2298],[12.5712,56.091],[12.5902,56.0655],[12.5187,56.0859],[12.3711,56.1153],[12.2966,56.1258],[12.2541,56.123],[12.1688,56.1018],[12.0421,56.0459],[11.9203,55.9996],[11.9022,55.9711],[11.8883,55.9368],[11.9016,55.914],[11.9413,55.8755],[11.9534,55.8472],[11.9345,55.8218],[11.8727,55.797],[11.8541,55.7229],[11.8303,55.6899],[11.7968,55.6857],[11.7598,55.7054],[11.7258,55.7332],[11.6737,55.7923],[11.6985,55.8528],[11.6855,55.8872],[11.7091,55.9179],[11.7566,55.9315],[11.7922,55.9493],[11.7578,55.9665],[11.7228,55.9643],[11.6286,55.9427],[11.5127,55.9523],[11.4791,55.9469],[11.3839,55.9609],[11.3486,55.9715],[11.0716,56.0853],[11.0363,56.0917],[11.2033,56.2195],[11.3209,56.1955],[11.5004,56.1713],[11.6067,56.1591],[11.6421,56.1616],[11.7541,56.1757],[11.7912,56.1844],[11.8852,56.2337],[12.0418,56.2834],[12.1424,56.3078],[12.2295,56.3212],[12.2577,56.3196]]]}},{"type":"Feature","properties":{"code":"DK818","name":"Øresund"},"geometry":{"type":"Polygon","coordinates":[[[12.7951,55.5519],[12.7001,55.5833],[12.6675,55.5849],[12.665,55.6399],[12.6277,55.6819],[12.613,55.7644],[12.5717,55.8448],[12.5367,55.8955],[12.5374,55.9315],[12.5445,55.9582],[12.562,55.9869],[12.5962,56.0159],[12.6175,56.0487],[12.6451,56.0434],[12.6619,56.0195],[12.6923,55.8823],[12.7085,55.8474],[12.7376,55.8081],[12.7662,55.7801],[12.8288,55.7413],[12.8479,55.7084],[12.8624,55.6711],[12.8571,55.6389],[12.8297,55.5789],[12.7951,55.5519]]]}},{"type":"Feature","properties":{"code":"DK819","name":"Sydøstsjælland"},"geometry":{"type":"Polygon","coordinates":[[[12.6675,55.5849],[12.7001,55.5833],[12.7951,55.5519],[12.7457,55.5089],[12.7171,55.4554],[12.721,55.354],[12.7389,55.3063],[12.768,55.2757],[12.7632,55.2476],[12.743,55.2244],[12.7343,55.1925],[12.7352,55.1573],[12.7516,55.1239],[12.8402,55.0406],[12.8837,54.983],[12.8843,54.942],[12.8706,54.9058],[12.579,54.9483],[12.5502,54.9626],[12.5401,54.9894],[12.5193,55.0052],[12.4834,55.0163],[12.4466,55.0227],[12.3611,55.0265],[12.2842,55.0196],[12.249,55.0097],[12.2149,55.0104],[12.1774,55.0173],[12.1442,55.0348],[12.1267,55.0641],[12.162,55.0823],[12.1755,55.1085],[12.1472,55.1276],[12.0742,55.1361],[12.049,55.1581],[12.0779,55.1813],[12.1667,55.2128],[12.1963,55.2218],[12.3883,55.2527],[12.4218,55.2662],[12.4485,55.2855],[12.4458,55.3295],[12.4264,55.3617],[12.3876,55.3855],[12.3514,55.3963],[12.3165,55.3985],[12.2402,55.4193],[12.215,55.43],[12.1963,55.4496],[12.2002,55.4792],[12.2376,55.5369],[12.2702,55.5596],[12.3772,55.6067],[12.4284,55.6111],[12.4657,55.6051],[12.5023,55.5951],[12.5699,55.5621],[12.6059,55.5619],[12.6391,55.5689],[12.6675,55.5849]]]}},{"type":"Feature","properties":{"code":"DK820","name":"Bornholm"},"geometry":{"type":"Polygon","coordinates":[[[14.4701,55.301],[14.5185,55.3503],[14.5937,55.4126],[14.671,55.4309],[14.7703,55.4394],[14.812,55.4395],[14.9033,55.4242],[14.9811,55.3931],[15.142,55.3005],[15.289,55.239],[15.3652,55.1923],[15.4025,55.1612],[15.418,55.1231],[15.4266,55.0463],[15.4093,54.9836],[15.3906,54.9616],[15.3087,54.9007],[15.1779,54.8569],[15.0871,54.8485],[15.0513,54.8477],[14.9191,54.8673],[14.7775,54.8998],[14.6746,54.9324],[14.5711,54.9738],[14.5065,55.0188],[14.4858,55.0362],[14.4516,55.0881],[14.4392,55.1326],[14.4374,55.1764],[14.4424,55.2149],[14.4688,55.2695],[14.4701,55.301]],[[15.0825,54.9896],[15.1059,55.0027],[15.1264,55.0218],[15.144,55.055],[15.1513,55.0849],[15.0795,55.1445],[15.0505,55.1636],[14.7605,55.2788],[14.7291,55.2478],[14.708,55.2099],[14.7089,55.1017],[14.7862,55.0562],[14.8217,55.0445],[14.9721,55.0031],[15.0825,54.9896]]]}}]}