{"type":"FeatureCollection","features":[{"type":"Feature","properties":{"code":"EE001","name":"Saaremaa"},"geometry":{"type":"MultiPolygon","coordinates":[[[[23.3033,58.4749],[23.3191,58.4442],[23.2958,58.4264],[22.7238,58.2186],[22.0842,57.9275],[22.0437,57.9173],[21.9819,57.9818],[21.8259,58.3023],[21.8391,58.3425],[21.8993,58.4579],[21.9404,58.4779],[22.2947,58.5752],[22.5092,58.6174],[22.5579,58.6172],[22.5978,58.6077],[22.6214,58.5885],[22.6598,58.5923],[22.7949,58.6228],[22.9389,58.6152],[23.0146,58.5937],[23.2445,58.5033],[23.3033,58.4749]]],[[[23.3784,58.5339],[23.207,58.5437],[23.104,58.5803],[23.0744,58.5964],[23.0886,58.6298],[23.1366,58.6714],[23.1717,58.6831],[23.2074,58.6848],[23.3189,58.6554],[23.3537,58.6401],[23.352,58.611],[23.3993,58.5496],[23.3784,58.5339]]]]}},{"type":"Feature","properties":{"code":"EE002","name":"Hiiumaa"},"geometry":{"type":"Polygon","coordinates":[[[22.6949,59.0606],[22.7447,58.8166],[22.7299,58.7875],[22.6629,58.7095],[22.6237,58.6958],[22.5504,58.6891],[22.4758,58.7105],[22.4522,58.739],[22.3857,58.8723],[22.3797,58.9147],[22.3987,58.9424],[22.5691,59.0439],[22.664,59.0655],[22.6949,59.0606]]]}},{"type":"Feature","properties":{"code":"EE003","name":"Läänemaa"},"geometry":{"type":"MultiPolygon","coordinates":[[[[23.3863,58.988],[23.3543,58.9759],[23.1921,58.9642],[23.1539,58.9754],[23.1264,59.0007],[23.1295,59.035],[23.1714,59.047],[23.2168,59.0381],[23.3063,59.0366],[23.3399,59.0316],[23.366,59.0116],[23.3863,58.988]]],[[[23.6122,58.4867],[23.5688,58.5077],[23.5352,58.5337],[23.5067,58.5598],[23.493,58.5943],[23.4168,58.9927],[23.413,59.0322],[23.4449,59.0867],[23.545,59.1937],[23.5744,59.2181],[23.6762,59.2438],[23.7219,59.2433],[23.7448,59.2217],[24.0624,59.0094],[24.0915,58.9816],[24.1268,58.7265],[24.1253,58.6961],[23.655,58.5076],[23.6122,58.4867]]]]}},{"type":"Feature","properties":{"code":"EE004","name":"Harjumaa"},"geometry":{"type":"Polygon","coordinates":[[[25.773,59.5862],[25.8883,59.3267],[25.8981,59.2782],[25.8673,59.2695],[25.6514,59.2622],[25.5995,59.2519],[25.5693,59.2545],[25.5439,59.251],[25.36,58.9766],[25.3313,58.9844],[24.8009,59.2115],[24.77,59.2083],[24.4741,59.1132],[24.1253,58.9997],[24.0915,58.9816],[24.0624,59.0094],[23.7448,59.2217],[23.7219,59.2433],[23.7514,59.2627],[24.5001,59.4476],[24.9172,59.5186],[25.7424,59.5925],[25.773,59.5862]]]}},{"type":"Feature","properties":{"code":"EE005","name":"Lääne-Virumaa"},"geometry":{"type":"Polygon","coordinates":[[[26.7653,59.4939],[26.7682,59.4679],[26.7074,59.0031],[26.7105,58.9623],[26.1475,58.8863],[26.1343,58.914],[25.952,59.1131],[25.9191,59.1284],[25.6183,59.2344],[25.5995,59.2519],[25.6514,59.2622],[25.8673,59.2695],[25.8981,59.2782],[25.8883,59.3267],[25.773,59.5862],[25.7963,59.5972],[25.9958,59.6137],[26.0579,59.6147],[26.7653,59.4939]]]}},{"type":"Feature","properties":{"code":"EE006","name":"Ida-Virumaa"},"geometry":{"type":"Polygon","coordinates":[[[28.0398,59.4573],[28.0762,59.4528],[28.1141,59.4387],[28.164,59.4123],[28.2031,59.3808],[28.208,59.3454],[28.1529,59.3018],[28.0326,59.2886],[27.9737,59.2748],[27.9239,59.2535],[27.6471,59.0196],[27.6127,59.0042],[26.9904,58.8832],[26.9616,58.8726],[26.7105,58.9623],[26.7074,59.0031],[26.7682,59.4679],[26.7653,59.4939],[26.8919,59.4462],[26.9579,59.4331],[27.7958,59.3923],[27.8318,59.3917],[27.9344,59.4021],[28.0143,59.4354],[28.0398,59.4573]]]}},{"type":"Feature","properties":{"code":"EE007","name":"Raplamaa"},"geometry":{"type":"Polygon","coordinates":[[[25.36,58.9766],[25.2034,58.7397],[25.1744,58.733],[24.172,58.7008],[24.1253,58.6961],[24.1268,58.7265],[24.0915,58.9816],[24.1253,58.9997],[24.4741,59.1132],[24.77,59.2083],[24.8009,59.2115],[25.3313,58.9844],[25.36,58.9766]]]}},{"type":"Feature","properties":{"code":"EE008","name":"Järvamaa"},"geometry":{"type":"Polygon","coordinates":[[[25.5995,59.2519],[25.6183,59.2344],[25.9191,59.1284],[25.952,59.1131],[26.1343,58.914],[26.1475,58.8863],[25.7791,58.6804],[25.2162,58.6198],[25.2034,58.7397],[25.5439,59.251],[25.5693,59.2545],[25.5995,59.2519]]]}},{"type":"Feature","properties":{"code":"EE009","name":"Pärnumaa"},"geometry":{"type":"Polygon","coordinates":[[[25.2162,58.6198],[25.0056,58.3554],[24.9873,58.3238],[25.0126,58.3116],[25.2035,58.249],[25.2357,58.2293],[25.1598,58.1125],[25.1269,58.0786],[25.0862,58.066],[25.0279,58.025],[24.9862,58.0066],[24.4212,57.8691],[24.3816,57.8689],[24.3505,57.8777],[24.4628,58.1221],[24.4682,58.152],[24.274,58.2699],[24.2355,58.2721],[24.1388,58.2613],[24.0518,58.2659],[23.7803,58.3451],[23.7368,58.3658],[23.6308,58.4555],[23.6122,58.4867],[23.655,58.5076],[24.0884,58.6826],[24.1253,58.6961],[24.172,58.7008],[25.1744,58.733],[25.2034,58.7397],[25.2162,58.6198]]]}},{"type":"Feature","properties":{"code":"EE010","name":"Viljandimaa"},"geometry":{"type":"Polygon","coordinates":[[[26.144,58.4818],[26.1439,58.4488],[26.1261,58.4133],[25.909,58.3851],[25.876,58.3735],[25.8986,58.3424],[26.0696,58.1471],[26.0875,58.1183],[25.5606,57.9511],[25.3828,58.0262],[25.3403,58.0391],[25.2101,58.0741],[25.1269,58.0786],[25.1598,58.1125],[25.2357,58.2293],[25.2035,58.249],[25.0126,58.3116],[24.9873,58.3238],[25.0056,58.3554],[25.2162,58.6198],[25.2482,58.6257],[25.7791,58.6804],[25.8162,58.6642],[26.144,58.4818]]]}},{"type":"Feature","properties":{"code":"EE011","name":"Jõgevamaa"},"geometry":{"type":"Polygon","coordinates":[[[26.9616,58.8726],[27.0775,58.6885],[27.0875,58.6638],[27.0528,58.6617],[26.1705,58.4838],[26.144,58.4818],[25.8162,58.6642],[25.7791,58.6804],[26.1475,58.8863],[26.1822,58.8925],[26.7105,58.9623],[26.9616,58.8726]]]}},{"type":"Feature","properties":{"code":"EE012","name":"Tartumaa"},"geometry":{"type":"Polygon","coordinates":[[[27.4967,58.1812],[27.4662,58.1961],[27.0283,58.2459],[26.6988,58.2018],[26.6675,58.188],[26.6306,58.1926],[26.0875,58.1183],[26.0986,58.1467],[26.1323,58.3715],[26.1261,58.4133],[26.1439,58.4488],[26.144,58.4818],[26.1705,58.4838],[27.0528,58.6617],[27.0875,58.6638],[27.1082,58.6394],[27.2497,58.4117],[27.2788,58.3862],[27.4766,58.2662],[27.4967,58.1812]]]}},{"type":"Feature","properties":{"code":"EE013","name":"Valgamaa"},"geometry":{"type":"Polygon","coordinates":[[[26.6675,58.188],[26.5842,57.9934],[26.5791,57.9575],[26.5569,57.9258],[26.4605,57.6471],[26.4305,57.6391],[26.2672,57.6386],[26.224,57.6459],[25.5606,57.9511],[26.0875,58.1183],[26.6306,58.1926],[26.6675,58.188]]]}},{"type":"Feature","properties":{"code":"EE014","name":"Põlvamaa"},"geometry":{"type":"Polygon","coordinates":[[[27.4967,58.1812],[27.5557,57.862],[27.5529,57.827],[27.5249,57.8205],[27.4922,57.837],[26.6218,57.9486],[26.5791,57.9575],[26.5842,57.9934],[26.6675,58.188],[26.6988,58.2018],[27.0283,58.2459],[27.4662,58.1961],[27.4967,58.1812]]]}},{"type":"Feature","properties":{"code":"EE015","name":"Võrumaa"},"geometry":{"type":"Polygon","coordinates":[[[27.5249,57.8205],[27.4035,57.6912],[27.3818,57.6596],[27.3373,57.5766],[27.3443,57.523],[26.9043,57.6367],[26.485,57.6392],[26.4605,57.6471],[26.5569,57.9258],[26.5791,57.9575],[26.6218,57.9486],[27.4922,57.837],[27.5249,57.8205]]]}},{"type":"Feature","properties":{"code":"EE801","name":"Eastern Gulf of Finnland"},"geometry":{"type":"Polygon","coordinates":[[[28.0398,59.4573],[28.0143,59.4354],[27.9344,59.4021],[27.8318,59.3917],[26.9279,59.4373],[26.8919,59.4462],[26.7653,59.4939],[26.0579,59.6147],[26.0292,59.7964],[26.0309,59.824],[26.3093,59.9028],[26.6048,59.8362],[26.9198,59.7038],[27.2531,59.6452],[27.5411,59.6136],[28.0091,59.4722],[28.0398,59.4573]]]}},{"type":"Feature","properties":{"code":"EE802","name":"Moonsund"},"geometry":{"type":"Polygon","coordinates":[[[23.3863,58.988],[23.4168,58.9927],[23.493,58.5943],[23.5067,58.5598],[23.5352,58.5337],[23.4916,58.5279],[23.3322,58.4874],[23.3033,58.4749],[23.2445,58.5033],[23.0146,58.5937],[22.9389,58.6152],[22.7949,58.6228],[22.6598,58.5923],[22.6214,58.5885],[22.5978,58.6077],[22.5579,58.6172],[22.5504,58.6891],[22.6237,58.6958],[22.6629,58.7095],[22.7299,58.7875],[22.7447,58.8166],[22.7143,58.9658],[22.7402,58.9625],[22.974,58.9864],[23.0867,58.9931],[23.1264,59.0007],[23.1539,58.9754],[23.1921,58.9642],[23.3543,58.9759],[23.3863,58.988]],[[23.3784,58.5339],[23.3993,58.5496],[23.352,58.611],[23.3537,58.6401],[23.3189,58.6554],[23.2074,58.6848],[23.1717,58.6831],[23.1366,58.6714],[23.0886,58.6298],[23.0744,58.5964],[23.104,58.5803],[23.207,58.5437],[23.3784,58.5339]]]}},{"type":"Feature","properties":{"code":"EE803","name":"Western Gulf of Finnland"},"geometry":{"type":"Polygon","coordinates":[[[26.0579,59.6147],[25.9597,59.6112],[25.7963,59.5972],[25.773,59.5862],[25.7424,59.5925],[24.9172,59.5186],[24.5001,59.4476],[23.7514,59.2627],[23.7219,59.2433],[23.6762,59.2438],[23.5744,59.2181],[23.545,59.1937],[23.4449,59.0867],[23.413,59.0322],[23.4168,58.9927],[23.3863,58.988],[23.366,59.0116],[23.3399,59.0316],[23.3063,59.0366],[23.2168,59.0381],[23.1714,59.047],[23.1295,59.035],[23.1264,59.0007],[23.0867,58.9931],[22.974,58.9864],[22.966,59.0213],[22.8571,59.3184],[22.8889,59.3392],[23.3219,59.4804],[23.37,59.4903],[24.1299,59.6178],[25.349,59.8054],[26.0008,59.8155],[26.0309,59.824],[26.0292,59.7964],[26.0579,59.6147]]]}},{"type":"Feature","properties":{"code":"EE804","name":"Northern Gulf of Riga"},"geometry":{"type":"Polygon","coordinates":[[[23.6122,58.4867],[23.6308,58.4555],[23.7368,58.3658],[23.7803,58.3451],[24.0518,58.2659],[24.1388,58.2613],[24.2355,58.2721],[24.274,58.2699],[24.4682,58.152],[24.4628,58.1221],[24.3505,57.8777],[24.325,57.8728],[23.6156,57.8978],[23.5997,57.6928],[23.5902,57.6561],[23.5531,57.6474],[23.4009,57.5921],[23.3708,57.5894],[23.1937,57.5896],[23.1169,57.6181],[22.9401,57.7346],[22.8749,57.817],[22.7829,57.8843],[22.7503,57.9053],[22.6827,57.9347],[22.5487,57.9204],[22.3939,57.8626],[22.0694,57.7709],[22.0561,57.8036],[22.0437,57.9173],[22.0842,57.9275],[22.7238,58.2186],[23.2958,58.4264],[23.3191,58.4442],[23.3033,58.4749],[23.3322,58.4874],[23.4916,58.5279],[23.5352,58.5337],[23.5688,58.5077],[23.6122,58.4867]]]}},{"type":"Feature","properties":{"code":"EE805","name":"Northern Baltic"},"geometry":{"type":"Polygon","coordinates":[[[22.8571,59.3184],[22.966,59.0213],[22.974,58.9864],[22.7402,58.9625],[22.7143,58.9658],[22.6949,59.0606],[22.664,59.0655],[22.5691,59.0439],[22.3987,58.9424],[22.3797,58.9147],[22.3857,58.8723],[22.4522,58.739],[22.4758,58.7105],[22.5504,58.6891],[22.5579,58.6172],[22.5092,58.6174],[22.2947,58.5752],[21.9404,58.4779],[21.8993,58.4579],[21.8391,58.3425],[21.8259,58.3023],[21.8435,58.2616],[21.9819,57.9818],[22.0437,57.9173],[22.0561,57.8036],[22.0694,57.7709],[22.0346,57.772],[21.6507,57.8319],[21.6455,57.8614],[21.5343,58.0419],[21.3892,58.3332],[21.3961,58.3708],[21.5035,58.6201],[21.5187,58.642],[21.7307,58.7418],[21.7379,58.7743],[21.7163,58.9389],[21.7213,58.9708],[22.0002,59.1136],[22.305,59.2394],[22.7039,59.284],[22.738,59.2895],[22.8287,59.3194],[22.8571,59.3184]]]}}]}