{"type":"FeatureCollection","features":[{"type":"Feature","properties":{"code":"EI805","name":"Malin-Fair"},"geometry":{"type":"Polygon","coordinates":[[[-7.3677,55.3903],[-7.5061,55.8745],[-6.9412,55.7707],[-6.3994,55.9091],[-6.0997,55.886],[-5.6732,55.6209],[-6.0305,55.1713],[-6.1401,55.2318],[-6.2957,55.2174],[-6.3706,55.2376],[-6.4813,55.2482],[-6.6184,55.1482],[-6.8375,55.1713],[-6.9649,55.1963],[-7.0543,55.0524],[-7.2431,55.0636],[-6.9164,55.2416],[-7.1478,55.3064],[-7.1744,55.3444],[-7.3677,55.3903]]]}},{"type":"Feature","properties":{"code":"EI806","name":"Fair-Belfast"},"geometry":{"type":"Polygon","coordinates":[[[-5.6732,55.6093],[-5.2697,55.2635],[-5.0853,55.033],[-5.581,54.6756],[-5.8807,54.618],[-5.8975,54.6604],[-5.7284,54.7308],[-5.6847,54.8024],[-5.7308,54.8716],[-5.7942,54.8601],[-5.9643,55.007],[-5.97,55.0762],[-6.0512,55.0575],[-6.0075,55.1944],[-6.019,55.2059],[-5.6732,55.6093]]]}},{"type":"Feature","properties":{"code":"EI807","name":"Belfast-Strang"},"geometry":{"type":"Polygon","coordinates":[[[-4.8137,54.0827],[-5.4999,54.3507],[-5.4657,54.3644],[-5.4311,54.4335],[-5.4772,54.5603],[-5.5349,54.6987],[-5.1083,55.0445],[-4.7856,54.7333],[-4.7856,54.1108],[-4.8137,54.0827]]]}},{"type":"Feature","properties":{"code":"EI808","name":"Strang-Carling"},"geometry":{"type":"Polygon","coordinates":[[[-5.4999,54.3507],[-4.8137,54.0827],[-5.0853,53.8111],[-5.3504,53.5805],[-6.287,54.1079],[-6.0639,54.0265],[-5.9499,54.0531],[-5.9037,54.1223],[-5.8512,54.1601],[-5.8805,54.2169],[-5.7654,54.2491],[-5.4999,54.3507]]]}},{"type":"Feature","properties":{"code":"EI809","name":"Carling-Howth"},"geometry":{"type":"Polygon","coordinates":[[[-5.3389,53.3388],[-6.0968,53.3759],[-6.1228,53.4566],[-6.0536,53.5575],[-6.2209,53.6366],[-6.238,53.8716],[-6.3243,53.8796],[-6.3703,53.9108],[-6.3533,54.0301],[-6.0651,53.9955],[-5.362,53.6036],[-5.3389,53.3388]]]}},{"type":"Feature","properties":{"code":"EI810","name":"Howth-Wicklow"},"geometry":{"type":"Polygon","coordinates":[[[-6.0651,53.3727],[-5.3389,53.3387],[-5.2928,52.9465],[-5.2928,52.7736],[-6.0478,52.9926],[-6.0249,53.0579],[-6.0536,53.1309],[-6.107,53.2337],[-6.0824,53.275],[-6.2085,53.3264],[-6.0651,53.3727]]]}},{"type":"Feature","properties":{"code":"EI811","name":"Wicklow-Carns"},"geometry":{"type":"Polygon","coordinates":[[[-5.996,52.9926],[-5.2928,52.7736],[-5.3101,52.4306],[-5.5291,52.0963],[-5.8202,51.8716],[-6.3418,52.2664],[-6.3706,52.2577],[-6.4427,52.3327],[-6.3764,52.4393],[-6.189,52.543],[-6.2201,52.6222],[-6.2035,52.667],[-6.1521,52.7155],[-6.1228,52.8312],[-5.996,52.9926]]]}},{"type":"Feature","properties":{"code":"EI812","name":"Carns-Hook"},"geometry":{"type":"Polygon","coordinates":[[[-6.3303,52.2664],[-5.8576,51.886],[-5.8231,51.8744],[-6.0651,51.7937],[-6.3879,51.6785],[-6.6646,51.6324],[-6.8259,52.1972],[-6.5839,52.2203],[-6.3533,52.1857],[-6.3303,52.2664]]]}},{"type":"Feature","properties":{"code":"EI813","name":"Hook-Dungarvan"},"geometry":{"type":"Polygon","coordinates":[[[-6.8029,52.1742],[-6.653,51.6324],[-6.9527,51.6324],[-7.3706,51.4652],[-7.5493,52.0099],[-7.5608,52.0819],[-7.2755,52.1742],[-7.0219,52.105],[-6.9758,52.3355],[-6.9182,52.105],[-6.8029,52.1742]]]}},{"type":"Feature","properties":{"code":"EI814","name":"Dungarvan-Roches"},"geometry":{"type":"Polygon","coordinates":[[[-7.5752,52.0819],[-7.3793,51.4825],[-7.3677,51.471],[-8.1055,51.252],[-8.2409,51.7793],[-8.0017,51.8197],[-8.0206,51.8386],[-7.9697,51.8539],[-7.898,51.9061],[-7.8173,51.9321],[-7.7193,51.9321],[-7.6976,51.9719],[-7.5522,51.9897],[-7.5752,52.0819]]]}},{"type":"Feature","properties":{"code":"EI815","name":"Roches-Mizen"},"geometry":{"type":"Polygon","coordinates":[[[-8.2323,51.7822],[-8.094,51.2404],[-9.0277,50.9868],[-9.581,50.9292],[-9.8577,50.9177],[-9.8231,51.4595],[-9.702,51.4566],[-9.6668,51.5107],[-9.6057,51.4784],[-9.4245,51.5389],[-9.4052,51.4652],[-9.1891,51.494],[-9.0392,51.5632],[-8.8894,51.5863],[-8.728,51.5863],[-8.6703,51.6669],[-8.532,51.6035],[-8.4859,51.7246],[-8.4052,51.6785],[-8.292,51.7464],[-8.2802,51.7921],[-8.2323,51.7822]]]}},{"type":"Feature","properties":{"code":"EI816","name":"Mizen-Valentia"},"geometry":{"type":"Polygon","coordinates":[[[-9.8346,51.4479],[-9.8461,50.8946],[-10.0997,50.9177],[-10.5839,51.0445],[-11.1026,51.4825],[-10.3649,51.9321],[-10.2842,51.7592],[-10.1228,51.8629],[-10.0997,51.7822],[-9.5464,51.8744],[-10.215,51.6093],[-9.9268,51.6093],[-9.4657,51.7476],[-9.469,51.6856],[-9.8231,51.5632],[-9.5258,51.6192],[-9.8398,51.5048],[-9.8346,51.4479]]]}},{"type":"Feature","properties":{"code":"EI817","name":"Valentia-Loop"},"geometry":{"type":"Polygon","coordinates":[[[-10.7568,52.8312],[-9.9499,52.5891],[-9.9226,52.5463],[-9.5266,52.6354],[-9.4,52.5812],[-9.5923,52.5891],[-9.67,52.5629],[-9.6791,52.4859],[-9.8548,52.4479],[-9.8836,52.301],[-9.84,52.2433],[-9.9558,52.2414],[-10.0131,52.3186],[-10.1507,52.2458],[-10.1487,52.3125],[-10.434,52.2318],[-10.5003,52.0992],[-9.7885,52.1626],[-10.3533,51.8975],[-11.0911,51.471],[-11.4023,52.0128],[-11.2525,52.4739],[-10.9989,52.6698],[-10.7568,52.8312]]]}},{"type":"Feature","properties":{"code":"EI818","name":"Loop-Slyne"},"geometry":{"type":"Polygon","coordinates":[[[-10.7568,52.8312],[-10.7568,53.0848],[-10.9874,53.4076],[-10.1228,53.4307],[-9.8807,53.3384],[-9.6963,53.2462],[-9.4888,53.2232],[-8.9701,53.2693],[-8.9701,53.1425],[-9.2698,53.1309],[-9.4657,52.9811],[-9.3505,52.958],[-9.4773,52.7851],[-9.5925,52.739],[-9.6663,52.6889],[-9.8679,52.5863],[-9.9557,52.5834],[-10.7568,52.8312]]]}},{"type":"Feature","properties":{"code":"EI819","name":"Slyne-Erris"},"geometry":{"type":"Polygon","coordinates":[[[-10.1603,53.4307],[-10.9787,53.4134],[-11.0104,53.4191],[-11.0565,53.5805],[-10.9067,54.5373],[-10.0997,54.2837],[-10.1343,54.0877],[-10.0075,54.1684],[-9.9614,54.0186],[-10.2525,54.0099],[-10.0421,53.9379],[-9.8807,53.8572],[-9.558,53.9033],[-9.5349,53.8341],[-9.9038,53.7419],[-9.9153,53.6612],[-9.8796,53.608],[-10.0589,53.6231],[-10.0329,53.5691],[-10.2784,53.6468],[-10.0075,53.4998],[-10.1603,53.4307]]]}},{"type":"Feature","properties":{"code":"EI820","name":"Erris-Rossan"},"geometry":{"type":"Polygon","coordinates":[[[-10.0825,54.275],[-10.8721,54.5488],[-10.8951,54.5142],[-10.2957,54.8831],[-9.581,54.8716],[-9.4427,54.9523],[-8.8548,54.6987],[-8.1285,54.618],[-8.2305,54.5603],[-8.2757,54.4981],[-8.4079,54.4601],[-8.6559,54.2779],[-8.814,54.2593],[-8.9234,54.2915],[-9.045,54.2952],[-9.1335,54.175],[-9.2604,54.309],[-9.7683,54.3442],[-9.8628,54.3377],[-9.8312,54.2747],[-9.9083,54.2653],[-10.0093,54.3068],[-10.0825,54.275]]]}},{"type":"Feature","properties":{"code":"EI821","name":"Rossan-BloodyF"},"geometry":{"type":"Polygon","coordinates":[[[-8.8202,54.69],[-9.4312,54.9523],[-8.9701,55.4249],[-8.5205,55.7016],[-8.1775,55.1425],[-8.2958,55.1562],[-8.3473,55.0499],[-8.4628,55.056],[-8.4139,54.8601],[-8.5427,54.8468],[-8.5388,54.7866],[-8.7104,54.7577],[-8.8202,54.69]]]}},{"type":"Feature","properties":{"code":"EI822","name":"BloodyF-Malin"},"geometry":{"type":"Polygon","coordinates":[[[-8.1689,55.1425],[-8.532,55.6958],[-8.0709,55.7131],[-7.5061,55.886],[-7.3793,55.3903],[-7.3447,55.2981],[-7.5061,55.2866],[-7.557,55.1565],[-7.6101,55.1883],[-7.6084,55.2885],[-7.6559,55.275],[-7.8634,55.1944],[-7.9895,55.2255],[-8.0296,55.1783],[-8.1689,55.1425]]]}},{"type":"Feature","properties":{"code":"EI823","name":"IrishSea-South"},"geometry":{"type":"Polygon","coordinates":[[[-5.3292,53.3716],[-4.653,53.3701],[-4.6081,53.2686],[-4.3994,53.1223],[-4.5752,52.9465],[-4.7049,52.7736],[-4.4391,52.8019],[-4.1487,52.8745],[-4.1202,52.4871],[-4.1862,52.2203],[-4.8317,52.0589],[-5.7827,51.8946],[-5.5211,52.0964],[-5.3043,52.4306],[-5.2928,52.7736],[-5.3043,53.0272],[-5.3292,53.3716]]]}},{"type":"Feature","properties":{"code":"EI824","name":"IrishSea-IOM-S"},"geometry":{"type":"Polygon","coordinates":[[[-5.3292,53.3716],[-5.3504,53.6266],[-5.0968,53.788],[-4.8086,54.1223],[-4.8045,54.0481],[-4.0971,53.9996],[-3.0795,54.007],[-3.0565,53.3615],[-3.9441,53.3384],[-4.2084,53.2909],[-4.3065,53.3563],[-4.6472,53.373],[-5.3292,53.3716]]]}},{"type":"Feature","properties":{"code":"EI825","name":"IrishSea-IOM-N"},"geometry":{"type":"Polygon","coordinates":[[[-4.7252,54.7041],[-3.9562,54.7041],[-3.0614,54.033],[-4.124,54.005],[-4.8091,54.0889],[-4.7951,54.7461],[-4.7812,54.7461],[-4.7252,54.7041]]]}}]}