{"type":"FeatureCollection","features":[{"type":"Feature","properties":{"code":"FI001","name":"Pohjois-Karjala"},"geometry":{"type":"Polygon","coordinates":[[[29.9916,63.7479],[30.4974,63.4657],[30.7812,63.4063],[31.2174,63.2316],[31.4907,63.0092],[31.5553,62.9421],[31.5769,62.9131],[31.5638,62.8892],[31.2402,62.518],[30.1486,61.8518],[30.1182,61.8387],[30.0897,61.8376],[29.6602,61.7439],[29.6172,61.744],[29.6397,61.7694],[29.6687,61.7867],[29.6742,61.8497],[29.6569,61.9816],[29.3835,62.2619],[29.3022,62.3389],[29.2083,62.4141],[29.0297,62.5237],[28.8083,62.632],[28.7829,62.6416],[28.6677,62.6634],[28.7767,62.836],[28.8265,63.069],[28.8281,63.1028],[28.5983,63.6328],[28.5698,63.6664],[28.3695,63.7529],[28.3815,63.7803],[28.4532,63.8632],[28.4881,63.8707],[29.6729,63.8789],[29.7013,63.871],[29.9916,63.7479]]]}},{"type":"Feature","properties":{"code":"FI002","name":"Utsjoki"},"geometry":{"type":"Polygon","coordinates":[[[28.327,69.8443],[28.0426,69.6415],[27.9028,69.5734],[27.8557,69.5615],[27.5161,69.5125],[26.4263,69.2923],[25.8996,69.1824],[25.7475,69.144],[25.7173,69.1436],[25.7033,69.2136],[25.7403,69.3231],[25.7996,69.4299],[25.9439,69.62],[25.9674,69.6451],[26.4474,69.9275],[26.4842,69.9431],[27.9224,70.0894],[27.9616,70.0866],[28.3064,69.8664],[28.327,69.8443]]]}},{"type":"Feature","properties":{"code":"FI003","name":"Inari"},"geometry":{"type":"Polygon","coordinates":[[[28.5026,68.4624],[28.1026,68.4364],[27.5118,68.3452],[26.1989,68.3138],[25.9723,68.2753],[25.9461,68.2817],[25.0196,68.3963],[25.002,68.4215],[24.8607,68.5677],[24.8945,68.5748],[25.6033,68.8832],[25.6577,68.9118],[25.7589,69.025],[25.7525,69.063],[25.7173,69.1436],[25.7475,69.144],[25.8996,69.1824],[26.4263,69.2923],[27.5161,69.5125],[27.8557,69.5615],[27.9028,69.5734],[28.0426,69.6415],[28.327,69.8443],[28.3612,69.8425],[29.0976,69.7014],[29.1489,69.679],[29.3247,69.49],[29.313,69.4647],[29.2296,69.4036],[28.8484,69.2315],[28.827,69.203],[28.8082,69.119],[28.8252,69.099],[28.8501,69.0816],[28.8796,69.0688],[28.9008,69.05],[28.5069,68.8835],[28.5075,68.8574],[28.5632,68.67],[28.57,68.6271],[28.5152,68.5016],[28.5026,68.4624]]]}},{"type":"Feature","properties":{"code":"FI004","name":"Enontekiö"},"geometry":{"type":"Polygon","coordinates":[[[24.8607,68.5677],[25.002,68.4215],[25.0196,68.3963],[24.0132,68.1303],[23.9698,68.1149],[23.3359,68.1503],[23.3038,68.1484],[22.3993,68.4125],[22.0123,68.5223],[21.9762,68.5261],[21.9464,68.5463],[20.5667,69.0568],[20.5863,69.0736],[21.0071,69.2253],[21.2746,69.3103],[21.618,69.2777],[21.6461,69.267],[21.9957,69.0692],[22.3358,68.8294],[22.5288,68.7468],[22.603,68.7268],[22.7841,68.69],[23.1564,68.629],[23.1995,68.632],[23.6403,68.6999],[23.6791,68.7102],[23.7386,68.7613],[23.7719,68.8085],[23.8126,68.8237],[23.8589,68.8324],[23.8973,68.8325],[23.978,68.8262],[24.6001,68.6847],[24.7546,68.6437],[24.7928,68.6302],[24.8607,68.5677]]]}},{"type":"Feature","properties":{"code":"FI005","name":"Sodankylä"},"geometry":{"type":"Polygon","coordinates":[[[28.5026,68.4624],[28.6392,68.2283],[28.6485,68.1967],[28.101,67.8578],[27.4089,67.5602],[27.3729,67.5387],[27.2357,67.434],[26.5316,66.9771],[26.5086,66.947],[26.4742,66.9352],[26.4417,66.94],[25.3902,67.1432],[25.3563,67.1581],[25.7657,67.5812],[26.0006,67.9328],[25.9881,67.9637],[25.8856,68.0931],[25.8931,68.1259],[25.9723,68.2753],[26.1989,68.3138],[27.5118,68.3452],[28.1026,68.4364],[28.5026,68.4624]]]}},{"type":"Feature","properties":{"code":"FI006","name":"Pelkosenniemi"},"geometry":{"type":"Polygon","coordinates":[[[28.3627,67.1171],[27.9041,66.8969],[27.8757,66.8883],[27.6502,66.979],[27.4961,67.0099],[27.3584,67.0254],[27.0722,67.0051],[26.5541,66.9458],[26.5086,66.947],[26.5316,66.9771],[27.2357,67.434],[27.2558,67.4182],[27.7616,67.3066],[27.7852,67.2915],[27.8454,67.2389],[27.8749,67.229],[28.3627,67.1171]]]}},{"type":"Feature","properties":{"code":"FI007","name":"Salla"},"geometry":{"type":"Polygon","coordinates":[[[29.5682,66.4305],[29.5277,66.4295],[28.6879,66.4858],[28.1647,66.4345],[28.1355,66.4375],[27.8935,66.8647],[27.8757,66.8883],[27.9041,66.8969],[28.3627,67.1171],[28.6453,67.1368],[28.6837,67.1437],[28.941,67.3567],[29.0463,67.4506],[29.2848,67.6105],[29.6762,67.7874],[29.7143,67.7868],[29.9952,67.6929],[30.0281,67.6655],[29.9652,67.5316],[29.9313,67.5046],[29.8027,67.4438],[29.6499,67.3589],[29.1442,67.041],[29.0562,66.9805],[29.0378,66.9564],[29.0333,66.906],[29.0508,66.8705],[29.103,66.8103],[29.5408,66.4599],[29.5682,66.4305]]]}},{"type":"Feature","properties":{"code":"FI008","name":"Kemijärvi"},"geometry":{"type":"Polygon","coordinates":[[[27.8757,66.8883],[27.8935,66.8647],[28.1355,66.4375],[28.1109,66.4288],[27.245,66.3338],[27.1275,66.3722],[26.7212,66.5632],[26.7034,66.5903],[26.7122,66.6244],[26.6637,66.797],[26.6501,66.8276],[26.4742,66.9352],[26.5086,66.947],[26.5541,66.9458],[27.0381,67.0017],[27.3584,67.0254],[27.4961,67.0099],[27.6502,66.979],[27.8757,66.8883]]]}},{"type":"Feature","properties":{"code":"FI009","name":"Kittilä"},"geometry":{"type":"Polygon","coordinates":[[[25.9723,68.2753],[25.8931,68.1259],[25.8856,68.0931],[25.9881,67.9637],[26.0006,67.9328],[25.9812,67.8991],[25.7657,67.5812],[25.3563,67.1581],[25.3175,67.1516],[24.7408,67.1508],[24.2863,67.6173],[23.9785,68.08],[23.9698,68.1149],[24.0132,68.1303],[25.0196,68.3963],[25.9461,68.2817],[25.9723,68.2753]]]}},{"type":"Feature","properties":{"code":"FI010","name":"Muonio"},"geometry":{"type":"Polygon","coordinates":[[[23.9698,68.1149],[23.9785,68.08],[24.2863,67.6173],[24.2584,67.6153],[23.5504,67.4606],[23.521,67.4421],[23.4599,67.4567],[23.4232,67.4761],[23.4107,67.5036],[23.5319,67.8843],[23.5245,67.9191],[23.4787,68.0177],[23.4494,68.0438],[23.3038,68.1484],[23.3359,68.1503],[23.9698,68.1149]]]}},{"type":"Feature","properties":{"code":"FI011","name":"Kolari"},"geometry":{"type":"Polygon","coordinates":[[[24.7408,67.1508],[24.8727,66.9336],[24.8359,66.9402],[23.819,66.9974],[23.7817,67.0049],[23.521,67.4421],[23.5504,67.4606],[24.2584,67.6153],[24.2863,67.6173],[24.7408,67.1508]]]}},{"type":"Feature","properties":{"code":"FI012","name":"Pello"},"geometry":{"type":"Polygon","coordinates":[[[24.8727,66.9336],[24.9622,66.7947],[24.979,66.7615],[24.9496,66.7475],[23.8165,66.5367],[23.7742,66.5174],[23.7711,66.5865],[23.7817,67.0049],[23.819,66.9974],[24.8359,66.9402],[24.8727,66.9336]]]}},{"type":"Feature","properties":{"code":"FI013","name":"Ylitornio"},"geometry":{"type":"Polygon","coordinates":[[[24.7776,66.3254],[24.7344,66.3225],[23.8905,66.169],[23.8163,66.1765],[23.8061,66.2103],[23.7756,66.4729],[23.7742,66.5174],[23.8165,66.5367],[24.9496,66.7475],[24.979,66.7615],[24.9725,66.7215],[24.8011,66.3525],[24.7776,66.3254]]]}},{"type":"Feature","properties":{"code":"FI014","name":"Rovaniemi"},"geometry":{"type":"Polygon","coordinates":[[[26.4742,66.9352],[26.6501,66.8276],[26.6637,66.797],[26.7122,66.6244],[26.7034,66.5903],[26.7212,66.5632],[27.1275,66.3722],[27.245,66.3338],[27.2523,66.298],[27.2613,66.1897],[27.2288,66.1953],[26.0499,66.1568],[26.0125,66.1698],[25.7844,66.2122],[25.3331,66.2118],[24.8179,66.327],[24.7776,66.3254],[24.8011,66.3525],[24.9725,66.7215],[24.979,66.7615],[24.9622,66.7947],[24.7573,67.1187],[24.7408,67.1508],[25.3175,67.1516],[25.3563,67.1581],[25.3902,67.1432],[26.4742,66.9352]]]}},{"type":"Feature","properties":{"code":"FI015","name":"Tornio"},"geometry":{"type":"Polygon","coordinates":[[[24.5149,66.0328],[24.502,66.0062],[24.4271,65.7763],[24.3987,65.7756],[24.1586,65.8181],[24.1286,65.8198],[24.1201,65.8482],[23.8972,66.1378],[23.8905,66.169],[24.7344,66.3225],[24.7776,66.3254],[24.7609,66.2997],[24.5149,66.0328]]]}},{"type":"Feature","properties":{"code":"FI016","name":"Kemi"},"geometry":{"type":"Polygon","coordinates":[[[24.7524,65.6983],[24.7362,65.6703],[24.6945,65.6839],[24.6555,65.7066],[24.6863,65.7093],[24.7524,65.6983]]]}},{"type":"Feature","properties":{"code":"FI017","name":"Keminmaa"},"geometry":{"type":"Polygon","coordinates":[[[25.2046,65.9514],[24.7524,65.6983],[24.6863,65.7093],[24.6555,65.7066],[24.4554,65.7625],[24.4271,65.7763],[24.502,66.0062],[24.5149,66.0328],[25.1701,65.9664],[25.2046,65.9514]]]}},{"type":"Feature","properties":{"code":"FI018","name":"Tervola"},"geometry":{"type":"Polygon","coordinates":[[[26.0499,66.1568],[26.0198,66.1445],[25.7935,66.0952],[25.764,66.0813],[25.7219,66.0788],[25.2511,65.9669],[25.2046,65.9514],[25.1701,65.9664],[24.5149,66.0328],[24.7609,66.2997],[24.7776,66.3254],[24.8179,66.327],[25.3331,66.2118],[25.7844,66.2122],[26.0125,66.1698],[26.0499,66.1568]]]}},{"type":"Feature","properties":{"code":"FI019","name":"Simo"},"geometry":{"type":"Polygon","coordinates":[[[25.9393,65.7783],[25.9152,65.769],[25.1558,65.609],[25.1173,65.5965],[24.7362,65.6703],[24.7524,65.6983],[25.2046,65.9514],[25.2511,65.9669],[25.7219,66.0788],[25.764,66.0813],[25.7892,66.0445],[25.9393,65.7783]]]}},{"type":"Feature","properties":{"code":"FI020","name":"Pohjois-Pohjanmaa Eteläinen"},"geometry":{"type":"MultiPolygon","coordinates":[[[[24.8655,64.9686],[24.7955,64.9468],[24.759,64.9478],[24.6327,64.9674],[24.5772,65.006],[24.5635,65.0331],[24.5896,65.0593],[24.6543,65.0823],[24.8227,65.0936],[24.9571,65.0713],[25.002,65.0514],[24.9795,65.0366],[24.9021,65.0288],[24.8661,65.0191],[24.8655,64.9686]]],[[[26.1308,63.4587],[26.0032,63.4309],[25.8928,63.4398],[25.4772,63.538],[25.2729,63.604],[25.2378,63.6079],[25.1384,63.57],[25.0587,63.4835],[25.0287,63.4578],[24.9993,63.4761],[24.5499,63.6964],[24.2917,63.8571],[23.7142,64.1695],[23.7372,64.1927],[23.8199,64.2406],[24.1565,64.4751],[24.1734,64.5001],[24.2089,64.5113],[24.3985,64.6425],[24.5376,64.8028],[24.5629,64.8223],[24.7317,64.8693],[25.1871,64.9512],[25.3855,64.9685],[25.4215,64.9776],[25.4473,64.9913],[25.3643,65.4308],[25.3469,65.4582],[25.2671,65.5156],[25.1991,65.5563],[25.1173,65.5965],[25.1558,65.609],[25.9152,65.769],[25.9393,65.7783],[26.1581,65.7258],[26.1541,65.4872],[26.1583,65.4102],[26.2261,65.2879],[26.2492,65.2606],[26.3114,65.2061],[26.6174,65.1004],[26.7851,65.0945],[27.3304,65.0907],[27.3328,65.0388],[27.3266,64.9798],[27.1577,64.8399],[26.8864,64.75],[26.4678,64.5683],[26.3345,64.5015],[26.3056,64.4747],[26.3393,64.4478],[26.5049,64.34],[26.5268,64.321],[26.8055,64.0518],[26.8228,64.0283],[26.5689,63.9664],[26.253,63.8452],[26.2463,63.8192],[26.2587,63.7411],[26.2871,63.6157],[26.2843,63.5835],[26.1308,63.4587]]]]}},{"type":"Feature","properties":{"code":"FI021","name":"Ranua"},"geometry":{"type":"Polygon","coordinates":[[[27.2613,66.1897],[27.4182,65.9835],[27.4309,65.9555],[27.1734,65.7913],[27.137,65.7748],[27.0431,65.7415],[26.9321,65.7202],[26.7701,65.706],[26.3871,65.7137],[26.1581,65.7258],[25.9393,65.7783],[25.7892,66.0445],[25.764,66.0813],[25.7935,66.0952],[26.0198,66.1445],[26.0499,66.1568],[27.2288,66.1953],[27.2613,66.1897]]]}},{"type":"Feature","properties":{"code":"FI022","name":"Posio"},"geometry":{"type":"Polygon","coordinates":[[[28.5207,65.8559],[27.7962,65.8286],[27.7665,65.8195],[27.7309,65.8395],[27.4582,65.9493],[27.4309,65.9555],[27.4182,65.9835],[27.2613,66.1897],[27.2523,66.298],[27.245,66.3338],[28.1109,66.4288],[28.1355,66.4375],[28.1647,66.4345],[28.6879,66.4858],[28.6861,66.4569],[28.5263,65.9043],[28.5207,65.8559]]]}},{"type":"Feature","properties":{"code":"FI023","name":"Pudasjärvi"},"geometry":{"type":"Polygon","coordinates":[[[27.7665,65.8195],[28.1418,65.282],[28.1491,65.2498],[27.3304,65.0907],[26.6582,65.0968],[26.6174,65.1004],[26.3114,65.2061],[26.2492,65.2606],[26.2261,65.2879],[26.1583,65.4102],[26.1541,65.4872],[26.1581,65.7258],[26.3871,65.7137],[26.7233,65.7059],[26.7701,65.706],[26.9321,65.7202],[27.0431,65.7415],[27.1734,65.7913],[27.4309,65.9555],[27.4582,65.9493],[27.7309,65.8395],[27.7665,65.8195]]]}},{"type":"Feature","properties":{"code":"FI024","name":"Taivalkoski"},"geometry":{"type":"Polygon","coordinates":[[[29.1707,65.5198],[29.1472,65.5028],[28.1491,65.2498],[28.1418,65.282],[27.7665,65.8195],[27.7962,65.8286],[28.5207,65.8559],[28.5496,65.8364],[29.1707,65.5198]]]}},{"type":"Feature","properties":{"code":"FI025","name":"Kuusamo"},"geometry":{"type":"Polygon","coordinates":[[[29.5682,66.4305],[29.5988,66.4116],[29.7454,66.2814],[29.9115,66.1325],[29.9305,66.1077],[30.0592,65.9201],[30.0935,65.8473],[30.1219,65.7531],[30.1243,65.6997],[30.1105,65.6592],[29.7584,65.4927],[29.2146,65.5121],[29.1707,65.5198],[28.5496,65.8364],[28.5207,65.8559],[28.5263,65.9043],[28.6861,66.4569],[28.6879,66.4858],[29.5277,66.4295],[29.5682,66.4305]]]}},{"type":"Feature","properties":{"code":"FI026","name":"Kainuu"},"geometry":{"type":"Polygon","coordinates":[[[29.7584,65.4927],[29.7341,65.4437],[29.5976,64.9972],[29.6016,64.9719],[29.6385,64.8807],[29.6779,64.8264],[29.6987,64.8053],[30.0349,64.5006],[30.2499,64.3414],[30.4771,64.2573],[30.5018,64.2326],[30.5193,64.2018],[30.5488,64.1209],[30.5285,64.0566],[30.4858,64.0096],[30.2465,63.824],[30.2149,63.8119],[30.0226,63.7612],[29.9916,63.7479],[29.7013,63.871],[29.6729,63.8789],[28.4881,63.8707],[28.4532,63.8632],[28.3815,63.7803],[28.3695,63.7529],[26.8228,64.0283],[26.8055,64.0518],[26.5268,64.321],[26.5049,64.34],[26.3393,64.4478],[26.3056,64.4747],[26.3345,64.5015],[26.4678,64.5683],[26.8864,64.75],[27.1577,64.8399],[27.3266,64.9798],[27.3328,65.0388],[27.3304,65.0907],[28.1872,65.2567],[29.1472,65.5028],[29.1707,65.5198],[29.2146,65.5121],[29.7584,65.4927]]]}},{"type":"Feature","properties":{"code":"FI027","name":"Pohjois-Savo"},"geometry":{"type":"Polygon","coordinates":[[[28.3695,63.7529],[28.5698,63.6664],[28.5983,63.6328],[28.8281,63.1028],[28.8265,63.069],[28.7767,62.836],[28.6331,62.6107],[28.609,62.5918],[28.2089,62.3576],[28.0906,62.3072],[27.9697,62.2752],[27.8865,62.2818],[27.8009,62.3023],[27.7347,62.3295],[27.6846,62.3801],[27.6201,62.424],[27.547,62.4573],[27.37,62.5262],[27.3354,62.5262],[26.8249,62.4549],[26.7434,62.4389],[26.6245,62.4544],[26.5308,62.4954],[26.4984,62.5161],[26.1377,62.937],[26.1247,63.0783],[26.1308,63.4587],[26.2843,63.5835],[26.2871,63.6157],[26.2587,63.7411],[26.2463,63.8192],[26.253,63.8452],[26.5299,63.9525],[26.5689,63.9664],[26.8228,64.0283],[28.3695,63.7529]]]}},{"type":"Feature","properties":{"code":"FI028","name":"Keski-Pohjanmaa"},"geometry":{"type":"Polygon","coordinates":[[[25.0287,63.4578],[24.3521,63.1154],[24.3121,63.136],[23.7432,63.3685],[23.5014,63.5076],[23.4655,63.5222],[23.4413,63.5432],[23.0232,63.7934],[23.0228,63.8398],[23.0511,63.868],[23.0742,63.8833],[23.1697,63.909],[23.4107,63.9597],[23.5949,64.0737],[23.6201,64.0913],[23.6858,64.1564],[23.7142,64.1695],[24.2917,63.8571],[24.5499,63.6964],[24.9993,63.4761],[25.0287,63.4578]]]}},{"type":"Feature","properties":{"code":"FI029","name":"Pohjanmaa"},"geometry":{"type":"MultiPolygon","coordinates":[[[[21.1737,62.9872],[21.1872,62.9478],[21.1438,62.9532],[21.1258,62.9919],[21.1443,63.0117],[21.1737,62.9872]]],[[[21.2418,63.3196],[21.2543,63.2777],[21.3277,63.1642],[21.283,63.1553],[21.1928,63.1765],[21.1586,63.192],[21.1355,63.2218],[21.1297,63.2598],[21.1616,63.2894],[21.1964,63.3063],[21.2418,63.3196]]],[[[21.2418,63.3196],[21.2553,63.3605],[21.3212,63.3717],[21.363,63.3734],[21.4002,63.3651],[21.4007,63.3272],[21.3596,63.2945],[21.3304,63.283],[21.2806,63.3091],[21.2418,63.3196]]],[[[23.0232,63.7934],[23.4413,63.5432],[23.4655,63.5222],[23.369,63.4927],[22.7548,63.3473],[22.6351,63.3104],[22.597,63.2882],[22.5646,63.2577],[22.5727,63.2198],[22.5653,63.1867],[22.5203,63.0595],[22.5046,63.0268],[22.411,62.8699],[22.3089,62.7995],[22.2151,62.765],[22.094,62.764],[22.0563,62.7655],[21.8674,62.8113],[21.8339,62.81],[21.6045,62.5911],[21.5864,62.5612],[21.5344,62.4115],[21.5309,62.3788],[21.56,62.349],[21.6562,62.2025],[21.6637,62.1658],[21.6485,62.051],[21.6381,62.018],[21.4143,61.955],[21.33,61.95],[21.2801,62.001],[21.1146,62.4729],[21.1092,62.5444],[21.1505,62.7521],[21.1887,62.8139],[21.5337,63.2494],[21.5578,63.272],[22.1065,63.509],[22.1375,63.5266],[22.1805,63.5405],[22.6027,63.718],[22.7133,63.723],[22.6862,63.7575],[22.6974,63.7837],[22.6773,63.8082],[22.6996,63.8343],[22.7362,63.8478],[22.8018,63.8573],[22.8314,63.8538],[22.8931,63.8221],[22.9797,63.79],[23.0232,63.7934]],[[22.7712,63.729],[22.7416,63.7103],[22.7941,63.6823],[22.8609,63.6829],[22.8908,63.6984],[22.9295,63.7543],[22.9159,63.7791],[22.8894,63.7927],[22.8588,63.7969],[22.7959,63.753],[22.7712,63.729]]]]}},{"type":"Feature","properties":{"code":"FI030","name":"Etelä-Pohjanmaa"},"geometry":{"type":"Polygon","coordinates":[[[24.3521,63.1154],[24.2931,63.0741],[24.2789,63.0311],[24.3425,62.8687],[24.3614,62.8482],[24.5672,62.6772],[24.5788,62.6322],[24.5491,62.5688],[24.5081,62.5211],[24.458,62.4886],[24.0418,62.3712],[24.0193,62.3569],[23.9853,62.3612],[22.8216,62.2676],[22.7451,62.2733],[22.5246,62.216],[22.3262,62.1072],[22.0067,61.9915],[21.9642,61.9812],[21.6381,62.018],[21.6485,62.051],[21.6637,62.1658],[21.6562,62.2025],[21.56,62.349],[21.5309,62.3788],[21.5344,62.4115],[21.5864,62.5612],[21.6045,62.5911],[21.8339,62.81],[21.8674,62.8113],[22.0563,62.7655],[22.2151,62.765],[22.3089,62.7995],[22.3879,62.8514],[22.411,62.8699],[22.5203,63.0595],[22.5653,63.1867],[22.5727,63.2198],[22.5646,63.2577],[22.597,63.2882],[22.6351,63.3104],[22.7548,63.3473],[23.369,63.4927],[23.4655,63.5222],[23.5014,63.5076],[23.7432,63.3685],[24.3121,63.136],[24.3521,63.1154]]]}},{"type":"Feature","properties":{"code":"FI031","name":"Satakunta"},"geometry":{"type":"Polygon","coordinates":[[[22.8216,62.2676],[22.818,62.2323],[22.7141,61.9349],[22.6491,61.7036],[22.5768,61.4064],[22.5795,61.3584],[22.615,61.2881],[22.6401,61.2557],[22.6825,61.2388],[22.9956,61.1873],[23.2066,61.2188],[23.2502,61.2178],[23.3522,61.151],[23.3757,61.1272],[23.2962,61.0503],[23.2848,61.0264],[23.1874,61.018],[23.157,61.0024],[23.1254,61.0131],[22.8099,60.9984],[21.9602,60.9316],[21.4151,61.0529],[21.4352,61.085],[21.5213,61.1914],[21.539,61.2222],[21.6566,61.5488],[21.6428,61.5933],[21.58,61.7276],[21.5323,61.8085],[21.4143,61.955],[21.6381,62.018],[21.9642,61.9812],[22.0067,61.9915],[22.3262,62.1072],[22.5246,62.216],[22.7451,62.2733],[22.8216,62.2676]]]}},{"type":"Feature","properties":{"code":"FI032","name":"Varsinais-Suomi"},"geometry":{"type":"MultiPolygon","coordinates":[[[[21.6939,60.1424],[21.6596,60.1183],[21.5893,60.1079],[21.5501,60.1094],[21.5131,60.127],[21.5292,60.1611],[21.5845,60.1819],[21.6115,60.1845],[21.6806,60.1743],[21.6939,60.1424]]],[[[22.3612,60.1656],[22.3289,60.1487],[22.2981,60.1594],[22.3106,60.1864],[22.3409,60.1962],[22.3735,60.1998],[22.3612,60.1656]]],[[[21.9483,60.1859],[21.81,60.1378],[21.7767,60.1308],[21.7393,60.1287],[21.6939,60.1424],[21.7113,60.1622],[21.723,60.1894],[21.7591,60.209],[21.7958,60.2145],[21.8843,60.2071],[21.9174,60.2004],[21.9483,60.1859]]],[[[21.9483,60.1859],[22.0553,60.2155],[22.0991,60.2024],[22.0251,60.153],[21.9923,60.1502],[21.9623,60.1562],[21.9483,60.1859]]],[[[21.432,60.1892],[21.3608,60.1826],[21.2943,60.2119],[21.3144,60.2294],[21.3514,60.2361],[21.4173,60.211],[21.4581,60.2022],[21.432,60.1892]]],[[[22.4771,60.2963],[22.4187,60.2545],[22.3815,60.2454],[22.3506,60.2445],[22.2851,60.2075],[22.2372,60.1953],[22.2152,60.2303],[22.1843,60.2504],[22.1242,60.2707],[22.0966,60.2925],[22.1229,60.3234],[22.2538,60.3331],[22.2861,60.3297],[22.3134,60.3325],[22.342,60.3561],[22.3819,60.3631],[22.4172,60.3589],[22.4499,60.3452],[22.4767,60.3447],[22.5015,60.3313],[22.4771,60.2963]]],[[[21.3378,60.5351],[21.3581,60.4894],[21.317,60.4865],[21.2705,60.4957],[21.2496,60.5305],[21.2469,60.5758],[21.2816,60.5709],[21.3378,60.5351]]],[[[21.3249,60.6003],[21.2785,60.5971],[21.245,60.6159],[21.2375,60.6409],[21.256,60.6647],[21.2958,60.6699],[21.3201,60.6386],[21.3249,60.6003]]],[[[22.4771,60.2963],[22.5121,60.3064],[22.5446,60.3298],[22.5694,60.3523],[22.5793,60.3769],[22.5386,60.387],[22.4675,60.3957],[22.3891,60.3973],[22.3247,60.3894],[22.2884,60.3901],[22.2567,60.4065],[22.222,60.3854],[22.1955,60.3858],[22.1612,60.4012],[22.1844,60.4338],[22.1452,60.4419],[22.1084,60.4429],[22.0736,60.4368],[22.0441,60.4249],[21.9793,60.4225],[22.0112,60.39],[22.0347,60.3572],[21.9835,60.3424],[21.9039,60.3513],[21.8208,60.3821],[21.7973,60.4002],[21.8073,60.4368],[21.8091,60.4755],[21.8291,60.4921],[21.7939,60.5113],[21.7693,60.4924],[21.7405,60.4828],[21.7069,60.4799],[21.7188,60.5134],[21.7369,60.536],[21.7675,60.5529],[21.8033,60.535],[21.8143,60.5901],[21.6937,60.5751],[21.6515,60.5218],[21.614,60.5134],[21.576,60.5187],[21.5377,60.5365],[21.5163,60.5093],[21.479,60.4833],[21.4415,60.4839],[21.4186,60.4998],[21.3378,60.5351],[21.3387,60.5676],[21.3922,60.5958],[21.4825,60.559],[21.5123,60.5578],[21.4864,60.5919],[21.3644,60.6909],[21.3431,60.7397],[21.3032,61.0561],[21.3068,61.0853],[21.345,61.0819],[21.443,61.0437],[21.9602,60.9316],[22.7726,60.9958],[23.1254,61.0131],[23.157,61.0024],[23.1373,60.8918],[23.1397,60.8632],[23.1549,60.7815],[23.1833,60.7621],[23.2193,60.7453],[23.3331,60.7179],[23.7201,60.6598],[23.888,60.6464],[23.8835,60.6018],[23.8416,60.4871],[23.6578,60.2151],[23.6177,60.1922],[23.4946,60.1557],[23.0727,60.0911],[23.0318,60.0888],[23.0307,60.1233],[22.9971,60.1276],[22.9629,60.117],[22.9624,60.0893],[22.8893,60.0802],[22.8579,60.0961],[22.8053,60.037],[22.7712,60.0111],[22.7397,60.006],[22.4286,60.0031],[22.3861,60.009],[22.3695,60.0458],[22.3768,60.0978],[22.4606,60.2232],[22.4922,60.2173],[22.5321,60.2177],[22.5079,60.2389],[22.4707,60.2568],[22.4771,60.2963]],[[22.8741,60.1572],[22.8816,60.1214],[22.9248,60.1295],[22.9,60.1463],[22.8741,60.1572]],[[22.8583,60.2446],[22.8945,60.2994],[22.8547,60.2874],[22.7717,60.2449],[22.8162,60.2363],[22.8583,60.2446]],[[22.9355,60.3132],[22.9758,60.2943],[23.01,60.2966],[23.0231,60.3244],[22.976,60.3286],[22.9355,60.3132]],[[21.9397,60.5463],[21.9076,60.5537],[21.876,60.5409],[21.8822,60.5088],[21.8639,60.4895],[21.9003,60.4761],[21.9302,60.4727],[21.9774,60.4791],[21.9672,60.5048],[21.9642,60.5333],[21.9397,60.5463]]]]}},{"type":"Feature","properties":{"code":"FI033","name":"Kanta-Häme"},"geometry":{"type":"Polygon","coordinates":[[[24.8834,61.2921],[25.0828,60.8445],[25.1065,60.8131],[25.1347,60.7989],[25.1484,60.7716],[25.1672,60.7519],[25.1823,60.7267],[25.1519,60.7145],[24.5577,60.5625],[24.4233,60.5523],[24.3049,60.571],[23.9251,60.6449],[23.7201,60.6598],[23.3331,60.7179],[23.2193,60.7453],[23.1833,60.7621],[23.1549,60.7815],[23.1373,60.8918],[23.157,61.0024],[23.1874,61.018],[23.2848,61.0264],[23.4654,60.9846],[23.7378,60.9961],[23.7783,61.0094],[23.8146,61.0338],[24.0178,61.1166],[24.3559,61.2389],[24.471,61.2754],[24.5041,61.2833],[24.5941,61.293],[24.8513,61.2972],[24.8834,61.2921]]]}},{"type":"Feature","properties":{"code":"FI034","name":"Uusimaa"},"geometry":{"type":"MultiPolygon","coordinates":[[[[25.9291,60.3598],[25.9894,60.3389],[26.01,60.3168],[26.0192,60.2854],[25.9748,60.2759],[25.9379,60.2808],[25.9291,60.3598]]],[[[25.9291,60.3598],[25.8841,60.3437],[25.869,60.3139],[25.8797,60.2849],[25.7894,60.2444],[25.7613,60.2486],[25.7044,60.2672],[25.671,60.2697],[25.669,60.2376],[25.6257,60.2168],[25.5881,60.2381],[25.576,60.2774],[25.5826,60.3112],[25.6151,60.3062],[25.6454,60.2847],[25.6397,60.3414],[25.6079,60.3316],[25.5826,60.3112],[25.5551,60.3152],[25.3892,60.2665],[25.2476,60.258],[25.2036,60.2508],[25.1967,60.2212],[24.9845,60.2097],[24.3217,60.0594],[24.014,60.0076],[23.9345,59.9815],[23.9141,59.9595],[23.8902,59.9497],[23.8527,59.9497],[23.8558,59.9791],[23.8123,59.9803],[23.5536,59.9546],[23.5226,59.9402],[23.5978,59.9225],[23.5618,59.9035],[23.5266,59.8937],[23.4865,59.8936],[23.4578,59.9071],[23.4879,59.9356],[23.4567,59.9449],[23.3573,59.9332],[23.2421,59.8964],[23.2305,59.8706],[23.2339,59.8444],[23.2017,59.8342],[22.8942,59.8116],[22.8873,59.8469],[22.8236,59.9694],[22.8289,60.0212],[22.9986,60.0439],[23.0249,60.0513],[22.9965,60.072],[23.0318,60.0888],[23.0727,60.0911],[23.4946,60.1557],[23.6177,60.1922],[23.6578,60.2151],[23.8416,60.4871],[23.8835,60.6018],[23.888,60.6464],[23.9251,60.6449],[24.3049,60.571],[24.4233,60.5523],[24.5577,60.5625],[25.1519,60.7145],[25.1823,60.7267],[25.1672,60.7519],[25.1484,60.7716],[25.1347,60.7989],[25.1663,60.8019],[25.5129,60.7056],[26.1867,60.7562],[26.2123,60.7532],[26.4296,60.485],[26.4496,60.4527],[26.2145,60.3728],[26.1834,60.3683],[26.08,60.4277],[26.0457,60.4212],[25.969,60.3845],[25.9291,60.3598]]]]}},{"type":"Feature","properties":{"code":"FI036","name":"Kymenlaakso"},"geometry":{"type":"Polygon","coordinates":[[[27.1934,61.1627],[27.1889,61.1311],[27.1597,61.0771],[27.1434,61.02],[27.1386,60.9821],[27.1466,60.9467],[27.2443,60.9022],[27.4971,60.8023],[27.9872,60.6682],[27.9623,60.6484],[27.787,60.5391],[27.7482,60.5455],[26.4496,60.4527],[26.4296,60.485],[26.2123,60.7532],[26.1723,60.8112],[26.1168,61.0362],[26.1124,61.0699],[26.1387,61.0914],[26.5005,61.2656],[26.532,61.264],[27.1934,61.1627]]]}},{"type":"Feature","properties":{"code":"FI037","name":"Päijät-Häme"},"geometry":{"type":"Polygon","coordinates":[[[26.3262,61.6024],[26.4901,61.3045],[26.5005,61.2656],[26.1387,61.0914],[26.1124,61.0699],[26.1616,60.843],[26.1723,60.8112],[26.2123,60.7532],[26.1867,60.7562],[25.5129,60.7056],[25.1663,60.8019],[25.1347,60.7989],[25.1065,60.8131],[25.0828,60.8445],[24.8834,61.2921],[24.8988,61.3311],[24.9663,61.447],[24.9994,61.453],[25.4081,61.4845],[25.441,61.4946],[25.497,61.6128],[25.4991,61.6448],[25.5124,61.6801],[25.8576,61.7853],[25.9385,61.7721],[25.9798,61.7582],[26.2569,61.6462],[26.3262,61.6024]]]}},{"type":"Feature","properties":{"code":"FI038","name":"Pirkanmaa"},"geometry":{"type":"Polygon","coordinates":[[[24.0193,62.3569],[24.0606,62.3146],[24.1313,62.262],[24.3306,62.1707],[24.4891,62.1972],[24.5211,62.196],[24.6584,62.1239],[24.6872,62.1001],[24.997,61.738],[24.9991,61.7056],[24.9663,61.447],[24.8988,61.3311],[24.8834,61.2921],[24.8513,61.2972],[24.5941,61.293],[24.5041,61.2833],[24.3559,61.2389],[24.0178,61.1166],[23.8146,61.0338],[23.7783,61.0094],[23.7378,60.9961],[23.4654,60.9846],[23.2848,61.0264],[23.2962,61.0503],[23.3757,61.1272],[23.3522,61.151],[23.2502,61.2178],[23.2066,61.2188],[22.9956,61.1873],[22.6825,61.2388],[22.6401,61.2557],[22.615,61.2881],[22.5922,61.328],[22.5795,61.3584],[22.5768,61.4064],[22.6491,61.7036],[22.7026,61.8975],[22.818,62.2323],[22.8216,62.2676],[23.9853,62.3612],[24.0193,62.3569]]]}},{"type":"Feature","properties":{"code":"FI039","name":"Keski-Suomi"},"geometry":{"type":"Polygon","coordinates":[[[26.1308,63.4587],[26.1247,63.0783],[26.1377,62.937],[26.4984,62.5161],[26.5308,62.4954],[26.6245,62.4544],[26.7434,62.4389],[26.7216,62.4166],[26.6673,62.3338],[26.6437,62.3149],[26.5533,62.2689],[26.3228,62.2021],[26.25,62.1441],[26.2268,62.114],[26.2419,62.0749],[26.3568,61.8411],[26.3803,61.8066],[26.4435,61.78],[26.4982,61.7336],[26.5243,61.7023],[26.525,61.6672],[26.5138,61.6351],[26.4877,61.6248],[26.3596,61.6122],[26.3262,61.6024],[26.2569,61.6462],[25.9798,61.7582],[25.9385,61.7721],[25.8576,61.7853],[25.5124,61.6801],[25.4991,61.6448],[25.497,61.6128],[25.441,61.4946],[25.4081,61.4845],[24.9994,61.453],[24.9663,61.447],[24.9991,61.7056],[24.997,61.738],[24.6872,62.1001],[24.6584,62.1239],[24.5211,62.196],[24.4891,62.1972],[24.3306,62.1707],[24.1313,62.262],[24.0606,62.3146],[24.0193,62.3569],[24.0418,62.3712],[24.458,62.4886],[24.5081,62.5211],[24.5491,62.5688],[24.5788,62.6322],[24.5672,62.6772],[24.3614,62.8482],[24.3425,62.8687],[24.2789,63.0311],[24.2931,63.0741],[24.3521,63.1154],[25.0287,63.4578],[25.0587,63.4835],[25.1384,63.57],[25.2378,63.6079],[25.2729,63.604],[25.4431,63.5469],[25.8928,63.4398],[26.0032,63.4309],[26.1308,63.4587]]]}},{"type":"Feature","properties":{"code":"FI040","name":"Etelä-Karjala"},"geometry":{"type":"Polygon","coordinates":[[[27.9872,60.6682],[27.4971,60.8023],[27.2443,60.9022],[27.1466,60.9467],[27.1386,60.9821],[27.1434,61.02],[27.1597,61.0771],[27.1889,61.1311],[27.1934,61.1627],[27.2165,61.1886],[27.2597,61.2936],[27.2956,61.3072],[27.6189,61.3544],[28.2976,61.3999],[29.2317,61.5528],[29.2713,61.5627],[29.532,61.7065],[29.6172,61.744],[29.6602,61.7439],[30.0897,61.8376],[30.1182,61.8387],[30.0786,61.8093],[29.5157,61.4624],[28.3492,60.867],[28.1961,60.7868],[27.9872,60.6682]]]}},{"type":"Feature","properties":{"code":"FI041","name":"Etelä-Savo"},"geometry":{"type":"Polygon","coordinates":[[[29.6172,61.744],[29.532,61.7065],[29.2713,61.5627],[29.2317,61.5528],[28.2976,61.3999],[27.6189,61.3544],[27.2956,61.3072],[27.2597,61.2936],[27.2165,61.1886],[27.1934,61.1627],[26.532,61.264],[26.5005,61.2656],[26.4901,61.3045],[26.3262,61.6024],[26.3596,61.6122],[26.4877,61.6248],[26.5138,61.6351],[26.525,61.6672],[26.5243,61.7023],[26.4982,61.7336],[26.4435,61.78],[26.3803,61.8066],[26.3568,61.8411],[26.2419,62.0749],[26.2268,62.114],[26.25,62.1441],[26.3228,62.2021],[26.5533,62.2689],[26.6437,62.3149],[26.6673,62.3338],[26.7216,62.4166],[26.7434,62.4389],[26.8249,62.4549],[27.3354,62.5262],[27.37,62.5262],[27.547,62.4573],[27.6201,62.424],[27.6846,62.3801],[27.7347,62.3295],[27.7665,62.3142],[27.8865,62.2818],[27.9697,62.2752],[28.0057,62.282],[28.0906,62.3072],[28.2089,62.3576],[28.609,62.5918],[28.6331,62.6107],[28.6677,62.6634],[28.7829,62.6416],[28.8083,62.632],[29.0297,62.5237],[29.2083,62.4141],[29.3022,62.3389],[29.3835,62.2619],[29.6569,61.9816],[29.6742,61.8497],[29.6687,61.7867],[29.6397,61.7694],[29.6172,61.744]]]}},{"type":"Feature","properties":{"code":"FI042","name":"Savukoski"},"geometry":{"type":"Polygon","coordinates":[[[29.6762,67.7874],[29.2848,67.6105],[29.2558,67.5924],[29.0463,67.4506],[28.941,67.3567],[28.6837,67.1437],[28.6453,67.1368],[28.3627,67.1171],[27.8749,67.229],[27.8454,67.2389],[27.7852,67.2915],[27.7616,67.3066],[27.2558,67.4182],[27.2357,67.434],[27.3729,67.5387],[27.4089,67.5602],[28.101,67.8578],[28.6485,68.1967],[28.6809,68.1898],[29.6535,67.8096],[29.6762,67.7874]]]}},{"type":"Feature","properties":{"code":"FI043","name":"Ahvenanmaa"},"geometry":{"type":"MultiPolygon","coordinates":[[[[20.4437,59.9925],[20.3432,59.9871],[20.3118,59.995],[20.3451,60.0146],[20.3847,60.0157],[20.4248,60.0119],[20.4437,59.9925]]],[[[20.5788,60.0129],[20.552,60.0086],[20.5168,60.0156],[20.5334,60.0424],[20.5756,60.0574],[20.6054,60.0293],[20.5788,60.0129]]],[[[20.2735,60.079],[20.2375,60.0732],[20.2223,60.0959],[20.2259,60.1285],[20.2353,60.1536],[20.269,60.1611],[20.2931,60.1418],[20.2735,60.079]]],[[[20.4067,60.2127],[20.3817,60.1999],[20.3321,60.2351],[20.3333,60.2805],[20.3627,60.2786],[20.4014,60.2641],[20.4288,60.2403],[20.4067,60.2127]]],[[[20.8419,60.2507],[20.7897,60.2293],[20.762,60.2453],[20.7716,60.2793],[20.8182,60.2807],[20.8419,60.2507]]],[[[19.9485,60.3522],[20.1734,59.9952],[20.1268,59.9984],[19.7862,60.0868],[19.7584,60.0984],[19.691,60.1955],[19.663,60.1637],[19.6169,60.1509],[19.5799,60.1451],[19.5357,60.1591],[19.5273,60.1993],[19.5817,60.2749],[19.6154,60.2974],[19.6469,60.2767],[19.6697,60.25],[19.685,60.2972],[19.8106,60.3986],[19.8721,60.4207],[19.9144,60.4209],[19.9423,60.4109],[19.9625,60.3902],[19.9485,60.3522]]]]}},{"type":"Feature","properties":{"code":"FI801","name":"The Quark"},"geometry":{"type":"Polygon","coordinates":[[[22.1375,63.5266],[22.1065,63.509],[21.5578,63.272],[21.5337,63.2494],[21.2372,62.8763],[21.2069,62.8787],[20.675,63.0264],[20.6922,63.0572],[20.7338,63.1025],[20.7413,63.1306],[20.7182,63.1624],[20.7016,63.2085],[20.6927,63.2673],[20.6929,63.3011],[20.8223,63.4246],[20.896,63.4738],[20.9387,63.5124],[21.0203,63.5441],[21.162,63.5678],[21.1943,63.56],[21.3566,63.5752],[21.5472,63.5601],[21.5827,63.5617],[21.8156,63.6661],[21.8499,63.6742],[22.1375,63.5266]],[[21.2418,63.3196],[21.1964,63.3063],[21.1616,63.2894],[21.1297,63.2598],[21.1355,63.2218],[21.1586,63.192],[21.1928,63.1765],[21.283,63.1553],[21.3277,63.1642],[21.2543,63.2777],[21.2418,63.3196],[21.2806,63.3091],[21.3304,63.283],[21.3596,63.2945],[21.4007,63.3272],[21.4002,63.3651],[21.363,63.3734],[21.3212,63.3717],[21.2553,63.3605],[21.2418,63.3196]],[[21.1737,62.9872],[21.1443,63.0117],[21.1258,62.9919],[21.1438,62.9532],[21.1872,62.9478],[21.1737,62.9872]]]}},{"type":"Feature","properties":{"code":"FI802","name":"Northern Sea of Bothnia"},"geometry":{"type":"Polygon","coordinates":[[[21.2372,62.8763],[21.1887,62.8139],[21.1505,62.7521],[21.1092,62.5444],[21.1146,62.4729],[21.2801,62.001],[21.33,61.95],[21.2912,61.9405],[20.9143,61.9028],[20.8884,61.9311],[20.8317,62.0584],[20.6939,62.4333],[20.6879,62.6037],[20.7109,62.7266],[20.7493,62.8266],[20.7545,62.8571],[20.7199,62.9038],[20.6805,62.9956],[20.675,63.0264],[21.2069,62.8787],[21.2372,62.8763]]]}},{"type":"Feature","properties":{"code":"FI803","name":"Western part of Northern Baltic"},"geometry":{"type":"Polygon","coordinates":[[[20.07,59.7937],[19.9019,59.8328],[20.4986,59.8304],[20.4986,59.8006],[20.3489,59.7874],[20.106,59.7911],[20.07,59.7937]]]}},{"type":"Feature","properties":{"code":"FI805","name":"Eastern Gulf of Finland"},"geometry":{"type":"Polygon","coordinates":[[[27.787,60.5391],[27.5309,60.2723],[27.4946,60.2627],[27.402,60.2787],[27.1166,60.2985],[26.5678,60.1602],[26.3254,60.1455],[26.0325,60.0789],[25.9879,60.0724],[25.9647,60.1009],[25.8986,60.266],[25.8797,60.2849],[25.869,60.3139],[25.8841,60.3437],[25.9291,60.3598],[25.9379,60.2808],[25.9748,60.2759],[26.0192,60.2854],[26.01,60.3168],[25.9894,60.3389],[25.9291,60.3598],[25.969,60.3845],[26.0457,60.4212],[26.08,60.4277],[26.1834,60.3683],[26.2145,60.3728],[26.4496,60.4527],[27.7482,60.5455],[27.787,60.5391]]]}},{"type":"Feature","properties":{"code":"FI806","name":"Western Gulf of Finland"},"geometry":{"type":"MultiPolygon","coordinates":[[[[25.5826,60.3112],[25.576,60.2774],[25.5881,60.2381],[25.6257,60.2168],[25.669,60.2376],[25.671,60.2697],[25.7044,60.2672],[25.7613,60.2486],[25.7894,60.2444],[25.8797,60.2849],[25.8986,60.266],[25.9647,60.1009],[25.9879,60.0724],[25.8503,60.044],[25.6323,60.0121],[25.2847,60.0261],[24.8592,59.9359],[24.6148,59.8536],[24.3738,59.8024],[24.0201,59.7561],[23.5228,59.6823],[22.9178,59.6324],[22.9208,59.666],[22.9088,59.7875],[22.8942,59.8116],[23.2017,59.8342],[23.2339,59.8444],[23.2305,59.8706],[23.2421,59.8964],[23.3573,59.9332],[23.4567,59.9449],[23.4879,59.9356],[23.4578,59.9071],[23.4865,59.8936],[23.5266,59.8937],[23.5618,59.9035],[23.5978,59.9225],[23.5226,59.9402],[23.5536,59.9546],[23.8123,59.9803],[23.8558,59.9791],[23.8527,59.9497],[23.8902,59.9497],[23.9141,59.9595],[23.9345,59.9815],[24.014,60.0076],[24.3217,60.0594],[24.9845,60.2097],[25.1967,60.2212],[25.2036,60.2508],[25.2476,60.258],[25.3892,60.2665],[25.5551,60.3152],[25.5826,60.3112]]],[[[25.5826,60.3112],[25.6079,60.3316],[25.6397,60.3414],[25.6454,60.2847],[25.6151,60.3062],[25.5826,60.3112]]]]}},{"type":"Feature","properties":{"code":"FI807","name":"Southern Sea of Bothnia"},"geometry":{"type":"MultiPolygon","coordinates":[[[[21.8091,60.4755],[21.7693,60.4924],[21.7939,60.5113],[21.8291,60.4921],[21.8091,60.4755]]],[[[21.3378,60.5351],[21.4186,60.4998],[21.4415,60.4839],[21.3977,60.4817],[21.3581,60.4894],[21.3378,60.5351]]],[[[21.9397,60.5463],[21.9642,60.5333],[21.9672,60.5048],[21.9774,60.4791],[21.9302,60.4727],[21.9003,60.4761],[21.8639,60.4895],[21.8822,60.5088],[21.876,60.5409],[21.9076,60.5537],[21.9397,60.5463]]],[[[21.7069,60.4799],[21.6704,60.4764],[21.479,60.4833],[21.5163,60.5093],[21.5377,60.5365],[21.576,60.5187],[21.614,60.5134],[21.6515,60.5218],[21.6937,60.5751],[21.8143,60.5901],[21.8033,60.535],[21.7675,60.5529],[21.7369,60.536],[21.7188,60.5134],[21.7069,60.4799]]],[[[21.3378,60.5351],[21.2816,60.5709],[21.2469,60.5758],[21.2496,60.5305],[21.2705,60.4957],[21.2368,60.4839],[20.8345,60.4885],[20.8257,60.5316],[20.8282,60.6176],[20.8384,60.6722],[20.9117,60.7667],[20.9218,60.8152],[20.8929,61.0691],[20.8939,61.1039],[20.9461,61.176],[20.9757,61.2013],[21.1254,61.2671],[21.1456,61.298],[21.2296,61.5444],[21.2123,61.5867],[21.0831,61.7922],[20.9415,61.8792],[20.9143,61.9028],[21.2912,61.9405],[21.33,61.95],[21.4143,61.955],[21.5323,61.8085],[21.58,61.7276],[21.6428,61.5933],[21.6566,61.5488],[21.6468,61.5161],[21.539,61.2222],[21.5213,61.1914],[21.4352,61.085],[21.4151,61.0529],[21.345,61.0819],[21.3068,61.0853],[21.3032,61.0561],[21.3431,60.7397],[21.3644,60.6909],[21.4864,60.5919],[21.5123,60.5578],[21.4825,60.559],[21.3922,60.5958],[21.3387,60.5676],[21.3378,60.5351]],[[21.3249,60.6003],[21.3201,60.6386],[21.2958,60.6699],[21.256,60.6647],[21.2375,60.6409],[21.245,60.6159],[21.2785,60.5971],[21.3249,60.6003]]]]}},{"type":"Feature","properties":{"code":"FI809","name":"Northern Bay of Bothnia"},"geometry":{"type":"Polygon","coordinates":[[[24.4271,65.7763],[24.4554,65.7625],[24.6555,65.7066],[24.6945,65.6839],[24.7362,65.6703],[25.1173,65.5965],[25.2315,65.5388],[25.3469,65.4582],[25.3643,65.4308],[25.3717,65.4026],[25.4473,64.9913],[25.4215,64.9776],[25.3855,64.9685],[25.1871,64.9512],[24.7317,64.8693],[24.5629,64.8223],[24.5376,64.8028],[24.3985,64.6425],[24.2089,64.5113],[24.1734,64.5001],[23.8051,64.5975],[23.82,64.6204],[23.8946,64.6701],[24.0094,64.7609],[24.135,64.9282],[24.1133,64.963],[24.0831,64.997],[24.0988,65.0347],[24.1659,65.1217],[24.279,65.2095],[24.3149,65.2224],[24.5714,65.2815],[24.8694,65.2916],[24.9128,65.2979],[24.9012,65.331],[24.8664,65.3918],[24.8417,65.4172],[24.4701,65.5019],[24.1063,65.6105],[24.1364,65.7949],[24.1286,65.8198],[24.1586,65.8181],[24.3987,65.7756],[24.4271,65.7763]],[[24.7955,64.9468],[24.8655,64.9686],[24.8661,65.0191],[24.9021,65.0288],[24.9795,65.0366],[25.002,65.0514],[24.9571,65.0713],[24.8227,65.0936],[24.6543,65.0823],[24.5896,65.0593],[24.5635,65.0331],[24.5772,65.006],[24.6327,64.9674],[24.759,64.9478],[24.7955,64.9468]]]}},{"type":"Feature","properties":{"code":"FI810","name":"Southern Bay of Bothnia"},"geometry":{"type":"MultiPolygon","coordinates":[[[[22.7712,63.729],[22.7959,63.753],[22.8588,63.7969],[22.8894,63.7927],[22.9159,63.7791],[22.9295,63.7543],[22.8908,63.6984],[22.8609,63.6829],[22.7941,63.6823],[22.7416,63.7103],[22.7712,63.729]]],[[[23.0232,63.7934],[22.9797,63.79],[22.8931,63.8221],[22.8314,63.8538],[22.8018,63.8573],[22.7362,63.8478],[22.6996,63.8343],[22.6773,63.8082],[22.6974,63.7837],[22.6862,63.7575],[22.7133,63.723],[22.6027,63.718],[22.1805,63.5405],[22.1375,63.5266],[21.8499,63.6742],[21.8705,63.6896],[22.2067,63.8273],[22.2335,63.8475],[22.2777,63.908],[22.3815,63.9753],[22.5785,64.0353],[22.8294,64.0608],[23.1184,64.1229],[23.2275,64.1919],[23.4066,64.333],[23.7694,64.5858],[23.8051,64.5975],[24.1734,64.5001],[24.1565,64.4751],[23.8199,64.2406],[23.7372,64.1927],[23.7142,64.1695],[23.6858,64.1564],[23.6201,64.0913],[23.4107,63.9597],[23.1697,63.909],[23.0742,63.8833],[23.0511,63.868],[23.0228,63.8398],[23.0232,63.7934]]]]}},{"type":"Feature","properties":{"code":"FI811","name":"Sea of Archipelago"},"geometry":{"type":"MultiPolygon","coordinates":[[[[22.8741,60.1572],[22.9,60.1463],[22.9248,60.1295],[22.8816,60.1214],[22.8741,60.1572]]],[[[22.8945,60.2994],[22.8583,60.2446],[22.8162,60.2363],[22.7717,60.2449],[22.8547,60.2874],[22.8945,60.2994]]],[[[22.9355,60.3132],[22.976,60.3286],[23.0231,60.3244],[23.01,60.2966],[22.9758,60.2943],[22.9355,60.3132]]],[[[22.4771,60.2963],[22.4707,60.2568],[22.5079,60.2389],[22.5321,60.2177],[22.4922,60.2173],[22.4606,60.2232],[22.3768,60.0978],[22.3695,60.0458],[22.3861,60.009],[22.4286,60.0031],[22.7397,60.006],[22.7712,60.0111],[22.8053,60.037],[22.8579,60.0961],[22.8893,60.0802],[22.9276,60.083],[22.9624,60.0893],[22.9629,60.117],[22.9971,60.1276],[23.0307,60.1233],[23.0318,60.0888],[22.9965,60.072],[23.0249,60.0513],[22.9986,60.0439],[22.8289,60.0212],[22.8236,59.9694],[22.8873,59.8469],[22.8942,59.8116],[22.1816,59.8191],[22.0324,59.9176],[21.9937,59.9263],[21.8767,59.9353],[21.6137,59.91],[21.2859,59.9552],[21.2552,59.942],[21.2281,59.9225],[21.1427,59.7734],[21.1133,59.7584],[21.0086,59.7206],[20.9714,59.7221],[20.855,59.7434],[20.8231,59.7685],[20.7759,59.8181],[20.7427,59.8235],[20.4986,59.8006],[20.4986,59.8304],[19.9904,59.8328],[19.9993,59.9206],[19.9925,60.0332],[20.1268,59.9984],[20.1734,59.9952],[19.9958,60.2787],[19.9961,60.5278],[19.9901,60.6136],[20.0566,60.6083],[20.2023,60.5636],[20.3151,60.4974],[20.3534,60.493],[21.2368,60.4839],[21.2705,60.4957],[21.317,60.4865],[21.3581,60.4894],[21.3977,60.4817],[21.479,60.4833],[21.6704,60.4764],[21.7405,60.4828],[21.7693,60.4924],[21.8091,60.4755],[21.8073,60.4368],[21.7973,60.4002],[21.8208,60.3821],[21.9039,60.3513],[21.9835,60.3424],[22.0347,60.3572],[22.0112,60.39],[21.9793,60.4225],[22.0441,60.4249],[22.0736,60.4368],[22.1084,60.4429],[22.1452,60.4419],[22.1844,60.4338],[22.1612,60.4012],[22.1955,60.3858],[22.222,60.3854],[22.2567,60.4065],[22.2884,60.3901],[22.3247,60.3894],[22.3891,60.3973],[22.4675,60.3957],[22.5386,60.387],[22.5793,60.3769],[22.5694,60.3523],[22.5446,60.3298],[22.5121,60.3064],[22.4771,60.2963],[22.5015,60.3313],[22.4767,60.3447],[22.4499,60.3452],[22.4172,60.3589],[22.3819,60.3631],[22.342,60.3561],[22.3134,60.3325],[22.2861,60.3297],[22.2538,60.3331],[22.1229,60.3234],[22.0966,60.2925],[22.1242,60.2707],[22.1843,60.2504],[22.2152,60.2303],[22.2372,60.1953],[22.2851,60.2075],[22.3506,60.2445],[22.3815,60.2454],[22.4187,60.2545],[22.4771,60.2963]],[[20.7897,60.2293],[20.8419,60.2507],[20.8182,60.2807],[20.7716,60.2793],[20.762,60.2453],[20.7897,60.2293]],[[21.3608,60.1826],[21.432,60.1892],[21.4581,60.2022],[21.4173,60.211],[21.3514,60.2361],[21.3144,60.2294],[21.2943,60.2119],[21.3608,60.1826]],[[21.9483,60.1859],[21.9174,60.2004],[21.8843,60.2071],[21.7958,60.2145],[21.7591,60.209],[21.723,60.1894],[21.7113,60.1622],[21.6939,60.1424],[21.6806,60.1743],[21.6115,60.1845],[21.5845,60.1819],[21.5292,60.1611],[21.5131,60.127],[21.5501,60.1094],[21.5893,60.1079],[21.6596,60.1183],[21.6939,60.1424],[21.7393,60.1287],[21.7767,60.1308],[21.81,60.1378],[21.9483,60.1859],[21.9623,60.1562],[21.9923,60.1502],[22.0251,60.153],[22.0991,60.2024],[22.0553,60.2155],[21.9483,60.1859]],[[22.3612,60.1656],[22.3735,60.1998],[22.3409,60.1962],[22.3106,60.1864],[22.2981,60.1594],[22.3289,60.1487],[22.3612,60.1656]],[[20.2735,60.079],[20.2931,60.1418],[20.269,60.1611],[20.2353,60.1536],[20.2259,60.1285],[20.2223,60.0959],[20.2375,60.0732],[20.2735,60.079]],[[20.4067,60.2127],[20.4288,60.2403],[20.4014,60.2641],[20.3627,60.2786],[20.3333,60.2805],[20.3321,60.2351],[20.3817,60.1999],[20.4067,60.2127]],[[20.5788,60.0129],[20.6054,60.0293],[20.5756,60.0574],[20.5334,60.0424],[20.5168,60.0156],[20.552,60.0086],[20.5788,60.0129]],[[20.3432,59.9871],[20.4437,59.9925],[20.4248,60.0119],[20.3847,60.0157],[20.3451,60.0146],[20.3118,59.995],[20.3432,59.9871]]]]}},{"type":"Feature","properties":{"code":"FI812","name":"Eastern part of Northern Baltic"},"geometry":{"type":"Polygon","coordinates":[[[22.8942,59.8116],[22.9088,59.7875],[22.9208,59.666],[22.9178,59.6324],[22.7652,59.622],[22.5201,59.6222],[22.3473,59.6717],[22.3178,59.6839],[22.2459,59.7462],[22.1973,59.7954],[22.1816,59.8191],[22.8942,59.8116]]]}},{"type":"Feature","properties":{"code":"FI813","name":"Sea of Aaland"},"geometry":{"type":"Polygon","coordinates":[[[19.9901,60.6136],[19.9961,60.5278],[19.9958,60.2787],[19.9485,60.3522],[19.9625,60.3902],[19.9423,60.4109],[19.9144,60.4209],[19.8721,60.4207],[19.8106,60.3986],[19.685,60.2972],[19.6697,60.25],[19.6469,60.2767],[19.6154,60.2974],[19.5817,60.2749],[19.5273,60.1993],[19.5357,60.1591],[19.5799,60.1451],[19.663,60.1637],[19.691,60.1955],[19.7584,60.0984],[19.7862,60.0868],[19.9925,60.0332],[19.9993,59.9206],[19.9904,59.8328],[19.9019,59.8328],[19.5922,59.9193],[19.5603,59.9173],[19.4831,59.9517],[19.3987,60.0115],[19.3777,60.0424],[19.3441,60.071],[19.3329,60.1183],[19.331,60.2438],[19.3816,60.3745],[19.4525,60.4474],[19.4787,60.4698],[19.7463,60.6036],[19.876,60.6226],[19.9901,60.6136]]]}}]}