{"type":"FeatureCollection","features":[{"type":"Feature","properties":{"code":"GR001","name":"THESSALIA"},"geometry":{"type":"MultiPolygon","coordinates":[[[[23.7364,39.0775],[23.703,39.0756],[23.6757,39.0835],[23.6468,39.1041],[23.6162,39.1635],[23.6315,39.1879],[23.6666,39.165],[23.7425,39.1341],[23.7769,39.1292],[23.7748,39.0995],[23.7364,39.0775]]],[[[23.4918,39.1571],[23.454,39.1355],[23.4208,39.1389],[23.3889,39.1559],[23.4062,39.1758],[23.4585,39.2111],[23.4763,39.1915],[23.4918,39.1571]]],[[[23.9723,39.2027],[23.9647,39.1646],[23.9287,39.1823],[23.867,39.1413],[23.8357,39.1433],[23.8512,39.1726],[23.9224,39.2626],[23.946,39.2823],[23.9731,39.2675],[23.9654,39.2348],[23.9723,39.2027]]],[[[24.0876,39.3063],[24.055,39.2986],[24.0395,39.3333],[24.0598,39.3625],[24.0876,39.3548],[24.0876,39.3063]]],[[[22.6618,39.9648],[22.6986,39.9521],[22.7634,39.8452],[22.8761,39.6926],[22.9812,39.5611],[23.0108,39.5396],[23.0858,39.5022],[23.2538,39.3322],[23.3279,39.2142],[23.3418,39.1818],[23.3191,39.1551],[23.2757,39.1358],[23.1366,39.0911],[23.0834,39.0854],[23.0518,39.0997],[23.0644,39.1329],[23.1044,39.1437],[23.1011,39.104],[23.1725,39.143],[23.195,39.1676],[23.203,39.2003],[23.1617,39.2674],[23.1344,39.2932],[23.1078,39.308],[23.0118,39.3411],[22.943,39.3563],[22.9106,39.3407],[22.8222,39.2718],[22.8164,39.236],[22.827,39.199],[22.8469,39.1636],[22.869,39.1441],[23.0289,39.0399],[23.0577,39.0262],[22.9695,38.978],[22.895,38.9752],[22.032,39.0331],[22.0021,39.0382],[21.9661,39.0534],[21.8938,39.0734],[21.3951,39.1654],[21.3662,39.1756],[21.3787,39.2114],[21.4106,39.2745],[21.4157,39.3057],[21.3881,39.3355],[21.3583,39.3586],[21.3222,39.3615],[21.289,39.3706],[21.2157,39.4531],[21.195,39.4799],[21.1292,39.6639],[21.1487,39.7007],[21.2794,39.8622],[21.3097,39.8654],[21.8906,39.8514],[21.9205,39.8566],[22.1314,40.1866],[22.1541,40.202],[22.1899,40.1793],[22.3536,40.0978],[22.498,39.9753],[22.5285,39.9554],[22.6182,39.9556],[22.6618,39.9648]]]]}},{"type":"Feature","properties":{"code":"GR002","name":"WEST STEREA"},"geometry":{"type":"Polygon","coordinates":[[[21.9287,39.0633],[21.868,39.0142],[21.8548,38.9843],[21.8527,38.9305],[21.8906,38.8559],[21.948,38.7916],[21.9687,38.7583],[21.993,38.6931],[22.0095,38.5722],[21.995,38.5042],[21.8692,38.3771],[21.5363,38.3083],[21.5015,38.307],[21.4663,38.3105],[21.1629,38.389],[21.1259,38.406],[21.0,38.6455],[20.9916,38.6787],[21.152,38.9201],[21.1604,38.9799],[21.1232,39.0279],[21.1122,39.0515],[21.3662,39.1756],[21.3951,39.1654],[21.8938,39.0734],[21.9287,39.0633]]]}},{"type":"Feature","properties":{"code":"GR003","name":"EAST STEREA & EVVOIA"},"geometry":{"type":"MultiPolygon","coordinates":[[[[24.5712,38.8065],[24.5551,38.7772],[24.4626,38.8573],[24.4396,38.8879],[24.4444,38.9269],[24.4572,38.959],[24.4825,38.9789],[24.5073,38.9719],[24.5762,38.9305],[24.5783,38.8869],[24.5712,38.8065]]],[[[23.4419,38.8664],[23.4574,38.8459],[23.5807,38.774],[23.8504,38.6751],[23.8711,38.6579],[24.261,38.2061],[24.2912,38.1855],[24.3508,38.1564],[24.4559,38.1415],[24.5354,38.1435],[24.5642,38.1398],[24.5805,38.0946],[24.5821,38.0565],[24.5719,38.0147],[24.549,37.9825],[24.5213,37.9586],[24.4856,37.9503],[24.4041,37.9578],[24.3782,37.9661],[24.1958,38.1747],[23.9593,38.3943],[23.2109,38.8242],[23.1859,38.8365],[23.1275,38.8506],[23.0385,38.8484],[22.9982,38.8424],[22.9657,38.8453],[22.9568,38.8749],[22.9557,38.9005],[23.1224,39.0011],[23.2541,39.0335],[23.2863,39.0391],[23.3139,39.0384],[23.3593,38.9946],[23.4167,38.927],[23.4419,38.8664]]],[[[22.9695,38.978],[22.9275,38.9453],[22.8685,38.9097],[22.8422,38.8852],[22.8637,38.8662],[23.4008,38.5055],[23.6417,38.3619],[23.6738,38.3384],[23.6427,38.3251],[23.1458,38.1814],[22.952,38.201],[22.4367,38.4328],[22.3988,38.4441],[22.0038,38.407],[21.9661,38.4021],[21.8692,38.3771],[21.995,38.5042],[22.0095,38.5722],[21.993,38.6931],[21.9687,38.7583],[21.948,38.7916],[21.8906,38.8559],[21.8527,38.9305],[21.8548,38.9843],[21.868,39.0142],[21.9287,39.0633],[22.0021,39.0382],[22.032,39.0331],[22.895,38.9752],[22.9695,38.978]]]]}},{"type":"Feature","properties":{"code":"GR004","name":"THRAKI"},"geometry":{"type":"MultiPolygon","coordinates":[[[[25.6582,40.417],[25.5946,40.4001],[25.5541,40.4029],[25.4703,40.4586],[25.4604,40.4873],[25.4983,40.5051],[25.5324,40.5127],[25.5671,40.5139],[25.6414,40.4963],[25.6889,40.4673],[25.687,40.4387],[25.6582,40.417]]],[[[26.3473,41.7136],[26.4314,41.6907],[26.4731,41.6736],[26.5508,41.6344],[26.5823,41.611],[26.6067,41.5414],[26.6397,41.3815],[26.6267,41.3435],[26.3004,40.9451],[26.1418,40.7878],[26.1208,40.752],[26.0878,40.7351],[26.0509,40.7353],[26.0542,40.7715],[26.0502,40.799],[26.0359,40.8286],[25.7253,40.8837],[25.0581,40.9919],[25.0279,40.9904],[24.8199,40.8652],[24.7928,40.8939],[24.622,41.1848],[24.6117,41.2157],[24.6056,41.2461],[24.6053,41.2794],[24.7541,41.3523],[24.8246,41.3988],[24.9079,41.4127],[24.9376,41.4081],[25.0789,41.3618],[25.1777,41.3197],[25.2058,41.3009],[25.2506,41.2922],[25.8868,41.3094],[25.9917,41.326],[26.1028,41.3564],[26.1343,41.3679],[26.1972,41.4417],[26.1954,41.4832],[26.1797,41.5506],[26.1449,41.6226],[26.1174,41.6292],[26.0946,41.6416],[26.074,41.6631],[26.0686,41.7091],[26.0964,41.7277],[26.1595,41.7511],[26.2334,41.7408],[26.285,41.7162],[26.3473,41.7136]]]]}},{"type":"Feature","properties":{"code":"GR005","name":"EAST MAKEDONIA"},"geometry":{"type":"MultiPolygon","coordinates":[[[[24.6795,40.5843],[24.6433,40.5737],[24.559,40.607],[24.5222,40.6269],[24.515,40.6669],[24.5306,40.7047],[24.5505,40.734],[24.5736,40.7605],[24.641,40.7964],[24.6761,40.788],[24.7776,40.7394],[24.7687,40.7154],[24.6795,40.5843]]],[[[24.8199,40.8652],[24.7817,40.8617],[24.6146,40.8862],[24.5763,40.8819],[24.311,40.8286],[24.1409,40.7388],[24.067,40.717],[23.7245,40.7512],[23.6888,40.7656],[23.4344,40.8332],[23.3557,40.877],[22.948,41.207],[22.8881,41.2699],[22.8672,41.3163],[22.8821,41.3419],[22.9577,41.3485],[22.9971,41.3365],[23.0893,41.3233],[23.2065,41.3288],[23.9189,41.4495],[23.9618,41.4579],[24.0593,41.4921],[24.0689,41.5314],[24.0866,41.5498],[24.1127,41.5571],[24.2607,41.5723],[24.4824,41.5635],[24.5491,41.5538],[24.5751,41.5399],[24.7385,41.4226],[24.76,41.3995],[24.7919,41.3757],[24.7541,41.3523],[24.6053,41.2794],[24.6056,41.2461],[24.622,41.1848],[24.7928,40.8939],[24.8199,40.8652]]]]}},{"type":"Feature","properties":{"code":"GR006","name":"WEST MAKEDONIA"},"geometry":{"type":"Polygon","coordinates":[[[22.1541,40.202],[22.1314,40.1866],[21.9205,39.8566],[21.8906,39.8514],[21.3097,39.8654],[21.1568,39.8614],[21.1012,39.8822],[21.0235,40.0006],[20.9827,40.0982],[20.976,40.1497],[20.9849,40.1806],[20.9872,40.2097],[20.9531,40.2562],[20.87,40.3455],[20.8417,40.3625],[20.8006,40.3596],[20.8314,40.3926],[21.049,40.5685],[21.0607,40.654],[21.0554,40.6958],[20.9843,40.8472],[21.01,40.8558],[21.7773,40.9312],[21.7382,40.8813],[21.7289,40.8231],[21.7424,40.7837],[21.8915,40.55],[21.9162,40.5184],[21.9544,40.4861],[22.0841,40.3949],[22.1672,40.3066],[22.182,40.2752],[22.1541,40.202]]]}},{"type":"Feature","properties":{"code":"GR007","name":"CENTRAL MAKEDONIA"},"geometry":{"type":"Polygon","coordinates":[[[23.7245,40.7512],[23.6943,40.6979],[23.6944,40.6605],[23.809,40.4812],[23.8189,40.4457],[23.7834,40.4279],[23.4,40.2815],[23.3722,40.2659],[23.3426,40.2384],[23.3341,40.1959],[23.3586,40.1535],[23.4714,40.0475],[23.5065,40.0258],[23.7057,39.9472],[23.7391,39.9267],[23.7078,39.909],[23.6047,39.922],[23.4563,39.962],[23.3991,39.9875],[23.3674,40.0107],[22.9373,40.4818],[22.9211,40.5036],[22.9694,40.5351],[22.9655,40.576],[22.9476,40.6145],[22.9215,40.632],[22.8925,40.6389],[22.8642,40.6337],[22.8325,40.6164],[22.5956,40.473],[22.5833,40.4379],[22.5475,40.1579],[22.5681,40.0638],[22.5937,40.0142],[22.6618,39.9648],[22.6182,39.9556],[22.5285,39.9554],[22.498,39.9753],[22.3536,40.0978],[22.1899,40.1793],[22.1541,40.202],[22.182,40.2752],[22.1672,40.3066],[22.0841,40.3949],[21.9544,40.4861],[21.9162,40.5184],[21.8915,40.55],[21.7591,40.7546],[21.7424,40.7837],[21.7289,40.8231],[21.7382,40.8813],[21.7773,40.9312],[21.9133,41.083],[21.9316,41.1012],[21.957,41.1147],[22.0126,41.1355],[22.0717,41.15],[22.277,41.1632],[22.3668,41.1348],[22.4738,41.1212],[22.5897,41.1247],[22.7178,41.1466],[22.7441,41.1602],[22.8444,41.3036],[22.8672,41.3163],[22.8881,41.2699],[22.948,41.207],[23.3557,40.877],[23.4344,40.8332],[23.6888,40.7656],[23.7245,40.7512]]]}},{"type":"Feature","properties":{"code":"GR008","name":"EPIRUS"},"geometry":{"type":"Polygon","coordinates":[[[21.2794,39.8622],[21.1487,39.7007],[21.1292,39.6639],[21.195,39.4799],[21.289,39.3706],[21.3222,39.3615],[21.3583,39.3586],[21.3881,39.3355],[21.4157,39.3057],[21.4106,39.2745],[21.3787,39.2114],[21.3662,39.1756],[21.1122,39.0515],[21.0182,39.0319],[20.7786,38.9971],[20.7063,39.0013],[20.6693,39.0242],[20.3055,39.3105],[20.2751,39.3421],[20.2197,39.4357],[20.2466,39.4569],[20.2584,39.5037],[20.2023,39.5967],[20.1848,39.6379],[20.22,39.6523],[20.3999,39.8119],[20.3999,39.8457],[20.4062,39.8762],[20.5095,40.0587],[20.5354,40.0961],[20.7698,40.3417],[20.8006,40.3596],[20.8417,40.3625],[20.87,40.3455],[20.9531,40.2562],[20.9872,40.2097],[20.9849,40.1806],[20.976,40.1497],[20.9827,40.0982],[21.0235,40.0006],[21.1012,39.8822],[21.1568,39.8614],[21.2794,39.8622]]]}},{"type":"Feature","properties":{"code":"GR009","name":"WEST PELOPONNISOS"},"geometry":{"type":"Polygon","coordinates":[[[22.3741,38.1456],[22.3739,38.0767],[22.365,38.0347],[22.2795,37.8718],[22.2553,37.8396],[22.1808,37.8102],[22.1461,37.8026],[22.0207,37.7911],[21.9122,37.8334],[21.8907,37.8549],[21.8582,37.8505],[21.8074,37.807],[21.799,37.7706],[21.7952,37.685],[21.7972,37.6196],[21.8143,37.5779],[22.0107,37.2974],[22.0354,37.2702],[22.1736,37.1498],[22.2483,37.1563],[22.2748,37.1292],[22.3483,36.9837],[22.3915,36.8214],[22.3899,36.7895],[22.3751,36.7643],[22.339,36.7234],[22.2886,36.8174],[22.153,37.0075],[22.118,37.0233],[22.0505,37.0257],[21.9877,37.0121],[21.9362,36.9883],[21.924,36.9645],[21.9259,36.8474],[21.9342,36.8157],[21.9275,36.7742],[21.8839,36.7294],[21.8502,36.7378],[21.726,36.8091],[21.6976,36.8322],[21.5705,37.0663],[21.1874,37.9067],[21.1838,37.9329],[21.373,38.1195],[21.8226,38.3299],[21.8553,38.3394],[21.9468,38.3308],[22.0079,38.3141],[22.3741,38.1456]]]}},{"type":"Feature","properties":{"code":"GR010","name":"IONION ISLANDS"},"geometry":{"type":"MultiPolygon","coordinates":[[[[20.8706,37.6734],[20.8392,37.6473],[20.8128,37.6542],[20.6941,37.7412],[20.6321,37.8087],[20.6163,37.8539],[20.6318,37.8864],[20.6594,37.9081],[20.6907,37.9239],[20.7254,37.8978],[20.7554,37.858],[20.8715,37.8213],[20.8971,37.8073],[20.9089,37.7725],[20.9079,37.7309],[20.8706,37.6734]]],[[[20.7958,38.078],[20.7506,38.0657],[20.5369,38.1041],[20.5045,38.1121],[20.3747,38.1606],[20.3531,38.1773],[20.3489,38.2101],[20.3999,38.3302],[20.4218,38.3624],[20.5346,38.4684],[20.5693,38.4711],[20.6057,38.4122],[20.6193,38.3712],[20.6174,38.3135],[20.638,38.2837],[20.7013,38.2475],[20.7926,38.1418],[20.8093,38.1103],[20.7958,38.078]]],[[[20.7344,38.3938],[20.7185,38.3151],[20.6934,38.3235],[20.6228,38.4495],[20.6163,38.4742],[20.6453,38.4736],[20.6795,38.4641],[20.7044,38.4425],[20.7344,38.3938]]],[[[20.949,38.6374],[20.8881,38.5976],[20.8905,38.6335],[20.9186,38.6494],[20.949,38.6374]]],[[[20.7901,38.6372],[20.7984,38.606],[20.7626,38.6117],[20.7359,38.6291],[20.6584,38.5876],[20.6067,38.5778],[20.5577,38.5768],[20.5495,38.604],[20.5606,38.6725],[20.5892,38.7583],[20.6061,38.7886],[20.6265,38.8117],[20.6472,38.832],[20.6746,38.8465],[20.7096,38.8485],[20.7222,38.8162],[20.7307,38.662],[20.7692,38.6617],[20.7901,38.6372]]],[[[20.2049,39.1792],[20.1777,39.1738],[20.1537,39.1839],[20.1317,39.2037],[20.1239,39.2344],[20.1586,39.228],[20.1879,39.205],[20.2049,39.1792]]],[[[20.1171,39.3853],[20.1048,39.3622],[20.066,39.3714],[19.9002,39.4387],[19.874,39.4544],[19.6683,39.7008],[19.651,39.7282],[19.6413,39.7552],[19.6567,39.7795],[19.683,39.796],[19.8052,39.8093],[19.846,39.8101],[19.938,39.7874],[19.9537,39.7672],[19.9892,39.6931],[20.0652,39.4756],[20.0807,39.4415],[20.1171,39.3853]]]]}},{"type":"Feature","properties":{"code":"GR011","name":"ATTIKI"},"geometry":{"type":"MultiPolygon","coordinates":[[[[24.1394,37.7037],[24.1136,37.6887],[24.1226,37.7262],[24.1448,37.7422],[24.1394,37.7037]]],[[[23.4882,37.9041],[23.4509,37.8775],[23.4223,37.8833],[23.4016,37.8996],[23.4088,37.954],[23.423,37.9835],[23.4864,38.0009],[23.5258,37.9879],[23.5217,37.9549],[23.4882,37.9041]]],[[[23.1615,37.955],[23.117,38.0489],[23.1209,38.0825],[23.1445,38.1444],[23.1458,38.1814],[23.6427,38.3251],[23.6738,38.3384],[23.7635,38.3324],[23.8893,38.2978],[23.9638,38.2689],[24.0311,38.224],[24.0591,38.1996],[24.0638,38.1458],[24.0504,37.8796],[24.0389,37.8313],[23.9278,37.7846],[23.8933,37.7782],[23.6776,37.9461],[23.6122,38.0],[23.5943,38.0241],[23.5625,38.0445],[23.5001,38.0374],[23.2518,37.9763],[23.1871,37.9561],[23.1615,37.955]]]]}},{"type":"Feature","properties":{"code":"GR012","name":"KYKLADES"},"geometry":{"type":"MultiPolygon","coordinates":[[[[25.8328,36.3585],[25.8029,36.344],[25.758,36.3469],[25.7324,36.3706],[25.7676,36.3929],[25.8033,36.3795],[25.8328,36.3585]]],[[[25.4765,36.3517],[25.436,36.332],[25.4066,36.3462],[25.4286,36.3821],[25.4198,36.4602],[25.449,36.4432],[25.4732,36.4179],[25.4765,36.3517]]],[[[25.109,36.6504],[25.0782,36.64],[25.0852,36.6702],[25.0991,36.6951],[25.1268,36.7074],[25.1693,36.7106],[25.1597,36.6837],[25.109,36.6504]]],[[[24.4425,36.6774],[24.4182,36.6626],[24.3323,36.6593],[24.3292,36.7025],[24.341,36.7395],[24.3691,36.7348],[24.3947,36.7086],[24.4425,36.6774]]],[[[24.4425,36.6774],[24.4657,36.7121],[24.4702,36.7444],[24.4995,36.7508],[24.5317,36.7497],[24.5331,36.7066],[24.5111,36.6711],[24.469,36.6678],[24.4425,36.6774]]],[[[25.379,36.6526],[25.3494,36.648],[25.2687,36.7216],[25.2595,36.768],[25.2792,36.7849],[25.3146,36.7816],[25.3876,36.7267],[25.3936,36.686],[25.379,36.6526]]],[[[24.5762,36.7791],[24.5489,36.77],[24.5244,36.7875],[24.5227,36.8178],[24.5462,36.8334],[24.5808,36.8337],[24.5977,36.8112],[24.5762,36.7791]]],[[[25.4766,36.8338],[25.4515,36.8215],[25.4165,36.8252],[25.4334,36.8442],[25.4641,36.8599],[25.4766,36.8338]]],[[[25.8967,36.8059],[25.7938,36.7681],[25.759,36.7737],[25.7441,36.7997],[25.9748,36.9293],[26.0133,36.9326],[26.0455,36.917],[26.0644,36.8908],[25.8967,36.8059]]],[[[24.7237,36.922],[24.6974,36.9062],[24.654,36.9991],[24.6447,37.0332],[24.6755,37.0302],[24.7025,37.0182],[24.7284,36.9909],[24.7504,36.9516],[24.7237,36.922]]],[[[25.5356,36.9622],[25.4464,36.9238],[25.4192,36.9373],[25.3897,36.9844],[25.3506,37.0679],[25.3664,37.101],[25.3891,37.1199],[25.4163,37.1275],[25.5528,37.0961],[25.5875,37.0773],[25.556,36.9873],[25.5356,36.9622]]],[[[25.2372,37.0157],[25.1944,36.9847],[25.1603,36.9783],[25.1275,36.9898],[25.095,37.0097],[25.0702,36.9889],[25.0631,36.946],[25.0109,36.9831],[25.0281,37.02],[25.0536,37.0401],[25.0842,37.045],[25.1437,37.1171],[25.2024,37.1471],[25.2396,37.1453],[25.2753,37.1328],[25.2618,37.0995],[25.2572,37.0407],[25.2372,37.0157]]],[[[24.5272,37.1347],[24.5071,37.1165],[24.4686,37.1179],[24.4234,37.1289],[24.4277,37.1743],[24.452,37.2005],[24.4832,37.211],[24.5219,37.2009],[24.5333,37.1682],[24.5272,37.1347]]],[[[25.2412,37.3794],[25.2158,37.3726],[25.1987,37.4227],[25.2261,37.4306],[25.2412,37.3794]]],[[[24.4067,37.3184],[24.3701,37.3033],[24.3568,37.3361],[24.3663,37.4309],[24.3939,37.4595],[24.4358,37.4743],[24.4638,37.4333],[24.4755,37.3939],[24.4295,37.3378],[24.4067,37.3184]]],[[[25.3698,37.4108],[25.3127,37.4077],[25.2967,37.4294],[25.3014,37.4579],[25.3214,37.4941],[25.3642,37.4866],[25.4514,37.4573],[25.4311,37.4353],[25.401,37.4206],[25.3698,37.4108]]],[[[24.9246,37.3784],[24.8791,37.3729],[24.8558,37.4027],[24.8783,37.4307],[24.8915,37.5078],[24.9335,37.4973],[24.9573,37.4545],[24.9672,37.4225],[24.9654,37.3964],[24.9246,37.3784]]],[[[25.2166,37.5388],[25.1829,37.5277],[25.1541,37.5341],[25.0524,37.5982],[25.0308,37.6258],[25.0547,37.67],[25.0891,37.6655],[25.1882,37.6401],[25.2403,37.6146],[25.2432,37.578],[25.2166,37.5388]]],[[[24.3145,37.5384],[24.2799,37.523],[24.2658,37.5539],[24.2617,37.5797],[24.2694,37.6158],[24.2997,37.663],[24.3237,37.6807],[24.3529,37.6854],[24.3771,37.6775],[24.4003,37.6587],[24.3973,37.6327],[24.3787,37.6],[24.3145,37.5384]]],[[[24.9686,37.7107],[24.948,37.6848],[24.9202,37.7005],[24.7029,37.8769],[24.6817,37.9406],[24.6937,37.9699],[24.7513,37.9966],[24.7878,37.9918],[24.83,37.9167],[24.8551,37.9101],[24.9312,37.9056],[24.9564,37.8774],[24.9913,37.7766],[24.9823,37.74],[24.9686,37.7107]]]]}},{"type":"Feature","properties":{"code":"GR013","name":"DODEKANISA ISLANDS"},"geometry":{"type":"MultiPolygon","coordinates":[[[[26.9805,35.3839],[26.8892,35.3368],[26.8551,35.3485],[26.8718,35.3819],[26.8994,35.4049],[26.935,35.4129],[27.001,35.4131],[26.9805,35.3839]]],[[[27.2378,35.4858],[27.1987,35.4737],[27.157,35.476],[27.1221,35.4847],[27.0786,35.569],[27.0712,35.5966],[27.1694,35.7798],[27.1849,35.8022],[27.2098,35.8217],[27.202,35.8565],[27.2172,35.8779],[27.2381,35.8939],[27.2467,35.8321],[27.2402,35.7881],[27.2146,35.7084],[27.1631,35.6154],[27.1755,35.5838],[27.2221,35.523],[27.2378,35.4858]]],[[[27.5872,36.2023],[27.5514,36.1991],[27.515,36.2074],[27.5451,36.2289],[27.5833,36.2333],[27.6155,36.2201],[27.5872,36.2023]]],[[[27.8064,35.8871],[27.7698,35.8839],[27.7383,35.9044],[27.7194,35.9355],[27.7641,36.154],[27.7794,36.1932],[27.831,36.2687],[27.8916,36.3157],[27.9301,36.3343],[28.2035,36.4351],[28.2389,36.4363],[28.2443,36.3842],[28.2008,36.2906],[28.125,36.1682],[28.088,36.1229],[28.0354,36.0717],[27.8064,35.8871]]],[[[27.4219,36.3789],[27.3929,36.3735],[27.3033,36.4123],[27.3084,36.4621],[27.4115,36.4228],[27.4411,36.404],[27.4219,36.3789]]],[[[26.3646,36.5092],[26.3249,36.5057],[26.2893,36.5188],[26.2751,36.5476],[26.2687,36.5854],[26.3099,36.5931],[26.3772,36.5899],[26.4164,36.5801],[26.3957,36.5565],[26.3694,36.5423],[26.3646,36.5092]]],[[[27.8843,36.5665],[27.8684,36.5362],[27.8309,36.5366],[27.8048,36.561],[27.7957,36.595],[27.8337,36.6023],[27.8758,36.5994],[27.8843,36.5665]]],[[[27.2119,36.5764],[27.1806,36.5506],[27.1412,36.5607],[27.1448,36.6083],[27.1708,36.6132],[27.1979,36.6075],[27.2119,36.5764]]],[[[26.9789,36.7385],[26.9572,36.6871],[26.9244,36.706],[26.9239,36.7517],[26.9559,36.7746],[27.0873,36.8481],[27.1562,36.878],[27.2441,36.8892],[27.2673,36.8316],[27.0376,36.7629],[27.0015,36.7512],[26.9789,36.7385]]],[[[27.0403,36.9401],[26.9776,36.9213],[26.95,36.9271],[26.9252,36.9413],[26.9356,36.967],[26.9557,36.9926],[26.9666,37.0172],[26.9465,37.0488],[26.9724,37.0524],[27.0272,37.0172],[27.0507,36.9937],[27.0403,36.9401]]],[[[26.8847,37.0963],[26.847,37.0959],[26.8181,37.1248],[26.7927,37.1567],[26.8059,37.1893],[26.8405,37.1855],[26.8671,37.1602],[26.8824,37.1339],[26.8847,37.0963]]],[[[26.5579,37.3335],[26.5688,37.2659],[26.5387,37.2762],[26.5322,37.326],[26.5455,37.3666],[26.5868,37.3551],[26.5579,37.3335]]]]}},{"type":"Feature","properties":{"code":"GR014","name":"NORTH EAST AEGEAN ISLANDS"},"geometry":{"type":"MultiPolygon","coordinates":[[[[26.5155,37.5621],[26.4938,37.5383],[26.4783,37.5675],[26.4823,37.607],[26.5198,37.6091],[26.5155,37.5621]]],[[[26.0646,37.5193],[26.027,37.5129],[25.9812,37.517],[25.984,37.5468],[26.0487,37.6145],[26.0912,37.6356],[26.1979,37.6308],[26.2879,37.6124],[26.2346,37.5785],[26.0646,37.5193]]],[[[26.8847,37.6459],[26.8497,37.6375],[26.8067,37.6387],[26.6062,37.6762],[26.5809,37.6882],[26.5722,37.7278],[26.599,37.7613],[26.6701,37.7916],[26.8711,37.7808],[26.9403,37.764],[26.964,37.7415],[26.9757,37.7051],[26.8847,37.6459]]],[[[26.0208,38.5938],[26.1058,38.5456],[26.1407,38.5517],[26.1506,38.4995],[26.1394,38.3264],[26.1231,38.28],[26.0891,38.2247],[26.042,38.1763],[26.0047,38.1552],[25.9727,38.169],[25.872,38.236],[25.8593,38.2821],[25.8341,38.5105],[25.8353,38.5559],[25.8602,38.5816],[25.989,38.6042],[26.0208,38.5938]]],[[[25.6072,38.5543],[25.5912,38.5324],[25.5613,38.5415],[25.5463,38.5762],[25.5433,38.6039],[25.5683,38.6088],[25.5987,38.603],[25.617,38.5836],[25.6072,38.5543]]],[[[26.4941,38.9688],[26.4072,38.9642],[26.3435,38.9754],[26.1338,39.0384],[25.8864,39.1444],[25.8518,39.1685],[25.8372,39.1945],[25.8701,39.2474],[25.9279,39.2847],[26.1878,39.3786],[26.2242,39.3806],[26.3035,39.3738],[26.4029,39.3262],[26.4219,39.3025],[26.4658,39.2245],[26.5445,39.1367],[26.605,39.0499],[26.6014,39.0097],[26.5681,38.9924],[26.5333,38.9774],[26.4941,38.9688]]],[[[25.0225,39.4945],[24.9791,39.4781],[24.9724,39.516],[24.993,39.5488],[25.0271,39.5516],[25.0504,39.5225],[25.0225,39.4945]]],[[[25.1972,39.8026],[25.168,39.7975],[25.051,39.8385],[25.0407,39.8781],[25.0348,39.9518],[25.0383,39.9894],[25.4342,40.0309],[25.4328,39.9812],[25.4022,39.954],[25.1972,39.8026]]]]}},{"type":"Feature","properties":{"code":"GR015","name":"EAST PELOPONNISOS"},"geometry":{"type":"MultiPolygon","coordinates":[[[[23.0538,36.1381],[23.0195,36.1359],[22.9753,36.1472],[22.942,36.1638],[22.9233,36.1892],[22.908,36.2281],[22.9121,36.2569],[22.9331,36.2836],[23.0649,36.2593],[23.1014,36.2462],[23.0949,36.2197],[23.0538,36.1381]]],[[[22.9731,36.5117],[22.9811,36.485],[22.9764,36.4586],[22.9471,36.4629],[22.9239,36.4741],[22.9416,36.4981],[22.9731,36.5117]]],[[[23.1556,37.2523],[23.1169,37.2477],[23.107,37.2768],[23.1556,37.2523]]],[[[23.4917,37.3232],[23.4082,37.2968],[23.3701,37.2971],[23.3883,37.3175],[23.4957,37.3625],[23.5347,37.3681],[23.558,37.3542],[23.4917,37.3232]]],[[[23.5096,37.5171],[23.4809,37.4998],[23.4455,37.5139],[23.4796,37.5346],[23.5096,37.5171]]],[[[23.4934,37.6818],[23.4546,37.6811],[23.4365,37.7137],[23.4262,37.7512],[23.4608,37.7698],[23.5274,37.7735],[23.5522,37.7577],[23.5213,37.7062],[23.4934,37.6818]]],[[[22.9731,36.5117],[22.8428,36.6745],[22.7826,36.7925],[22.7464,36.8046],[22.6576,36.8056],[22.6147,36.7997],[22.5778,36.7815],[22.5284,36.7169],[22.4789,36.6194],[22.4704,36.5919],[22.471,36.5228],[22.4324,36.528],[22.3928,36.5458],[22.3736,36.582],[22.339,36.7234],[22.3751,36.7643],[22.3899,36.7895],[22.3915,36.8214],[22.3483,36.9837],[22.2748,37.1292],[22.2483,37.1563],[22.1736,37.1498],[22.0354,37.2702],[22.0107,37.2974],[21.8143,37.5779],[21.7972,37.6196],[21.7967,37.7397],[21.8074,37.807],[21.8319,37.8294],[21.8582,37.8505],[21.8907,37.8549],[21.9122,37.8334],[21.9374,37.8215],[22.0207,37.7911],[22.0513,37.7914],[22.1808,37.8102],[22.2553,37.8396],[22.2795,37.8718],[22.365,38.0347],[22.3739,38.0767],[22.3741,38.1456],[23.0777,38.0634],[23.117,38.0489],[23.1615,37.955],[23.1435,37.9347],[23.1151,37.917],[23.1133,37.8762],[23.1505,37.6212],[22.7917,37.5887],[22.7849,37.5536],[22.8179,37.3159],[22.9645,37.0924],[22.9952,37.036],[23.0927,36.794],[23.1925,36.4732],[23.1974,36.4456],[23.1699,36.4357],[23.1352,36.4313],[23.1062,36.4369],[23.0792,36.448],[22.9731,36.5117]]]]}},{"type":"Feature","properties":{"code":"GR016","name":"KRITI"},"geometry":{"type":"MultiPolygon","coordinates":[[[[24.1125,34.8575],[24.1075,34.8073],[24.0727,34.8236],[24.0496,34.8499],[24.0759,34.8644],[24.1125,34.8575]]],[[[24.9385,34.9251],[24.7667,34.923],[24.7405,34.928],[24.7554,35.024],[24.7461,35.0632],[24.7273,35.0884],[24.6876,35.1017],[24.3903,35.1864],[23.8574,35.2448],[23.826,35.2555],[23.677,35.5004],[23.6983,35.6137],[23.7157,35.6533],[23.7482,35.6335],[23.8857,35.5248],[24.1698,35.4544],[24.5906,35.3882],[25.0787,35.353],[26.0019,35.232],[26.0271,35.2215],[26.0885,35.0063],[26.0643,34.9939],[24.9385,34.9251]]],[[[23.3123,35.8795],[23.3232,35.836],[23.2983,35.8468],[23.2801,35.872],[23.2769,35.8987],[23.3123,35.8795]]]]}}]}