{"type":"FeatureCollection","features":[{"type":"Feature","properties":{"code":"IE006","name":"County Tipperary"},"geometry":{"type":"Polygon","coordinates":[[[-7.7497,52.9604],[-7.6775,52.9206],[-7.7221,52.8777],[-7.6517,52.7373],[-7.5654,52.7035],[-7.5395,52.6843],[-7.4832,52.6236],[-7.4695,52.5998],[-7.3857,52.4244],[-7.3969,52.3418],[-7.7234,52.3417],[-7.7765,52.3298],[-7.7703,52.287],[-7.7521,52.2247],[-7.7841,52.2153],[-8.0579,52.2022],[-8.1068,52.1959],[-8.1306,52.2192],[-8.1786,52.2849],[-8.1712,52.3584],[-8.1997,52.3776],[-8.373,52.4313],[-8.3863,52.4595],[-8.379,52.4873],[-8.2545,52.52],[-8.2212,52.5368],[-8.1959,52.6406],[-8.2012,52.6672],[-8.384,52.6814],[-8.485,52.7301],[-8.5076,52.7466],[-8.4159,52.8957],[-8.3981,52.915],[-8.2883,52.966],[-8.2665,53.0294],[-8.1036,53.1456],[-8.0739,53.1557],[-7.9233,53.0978],[-8.0231,52.9632],[-8.0345,52.9317],[-7.999,52.875],[-7.9729,52.8556],[-7.8256,52.9585],[-7.7929,52.974],[-7.7497,52.9604]]]}},{"type":"Feature","properties":{"code":"IE007","name":"County Cork"},"geometry":{"type":"Polygon","coordinates":[[[-8.1786,52.2849],[-8.1306,52.2192],[-8.0763,52.163],[-7.8452,51.9438],[-7.8685,51.8841],[-7.9083,51.873],[-7.9563,51.869],[-7.9892,51.8491],[-8.0171,51.824],[-8.0439,51.8147],[-8.1529,51.7979],[-8.19,51.7955],[-8.2905,51.8266],[-8.3026,51.7417],[-8.4925,51.6792],[-8.6856,51.6011],[-8.9251,51.579],[-9.1523,51.5001],[-9.1814,51.4951],[-9.3873,51.4716],[-9.4111,51.494],[-9.4331,51.5251],[-9.466,51.5271],[-9.7799,51.4592],[-9.8178,51.443],[-9.8305,51.4779],[-9.8043,51.4956],[-9.6654,51.5544],[-9.6438,51.5766],[-9.715,51.5806],[-9.6816,51.604],[-9.4854,51.6805],[-9.4644,51.703],[-9.4902,51.7191],[-9.5247,51.7181],[-9.6185,51.682],[-9.653,51.6741],[-9.9101,51.6247],[-10.005,51.6131],[-10.0578,51.6197],[-10.0309,51.6496],[-9.8736,51.7382],[-9.8228,51.6949],[-9.6084,51.7873],[-9.3832,51.8303],[-9.3539,51.8423],[-9.2927,51.9312],[-9.2675,51.9559],[-9.1598,51.9843],[-9.1306,51.9973],[-9.1465,52.0285],[-9.2078,52.1109],[-9.2578,52.2029],[-9.2593,52.2379],[-9.2194,52.2864],[-8.9851,52.2982],[-8.7867,52.3801],[-8.75,52.3822],[-8.697,52.3781],[-8.6604,52.37],[-8.5242,52.2877],[-8.4768,52.288],[-8.3582,52.3224],[-8.3279,52.3218],[-8.2958,52.2967],[-8.1786,52.2849]]]}},{"type":"Feature","properties":{"code":"IE008","name":"County Kerry"},"geometry":{"type":"Polygon","coordinates":[[[-9.2194,52.2864],[-9.2593,52.2379],[-9.2578,52.2029],[-9.2078,52.1109],[-9.1465,52.0285],[-9.1306,51.9973],[-9.1598,51.9843],[-9.2675,51.9559],[-9.2927,51.9312],[-9.3539,51.8423],[-9.3832,51.8303],[-9.6084,51.7873],[-9.8228,51.6949],[-9.8736,51.7382],[-9.7302,51.8366],[-9.7874,51.8367],[-10.1181,51.7613],[-10.1561,51.7617],[-10.3177,51.7793],[-10.3471,51.7886],[-10.3746,51.8777],[-10.3372,51.9046],[-9.8059,52.1257],[-9.8001,52.1619],[-10.4052,52.1012],[-10.44,52.1087],[-10.3236,52.2257],[-10.302,52.2392],[-9.8494,52.2427],[-9.8137,52.2467],[-9.8273,52.271],[-9.9125,52.383],[-9.9299,52.4152],[-9.8812,52.4364],[-9.7423,52.4724],[-9.6919,52.5318],[-9.6693,52.5474],[-9.359,52.5702],[-9.3371,52.3632],[-9.2504,52.3126],[-9.2194,52.2864]]]}},{"type":"Feature","properties":{"code":"IE009","name":"County Waterford"},"geometry":{"type":"Polygon","coordinates":[[[-7.3969,52.3418],[-7.3134,52.3195],[-7.2863,52.3021],[-7.2186,52.2452],[-7.1808,52.2435],[-7.0628,52.255],[-7.0358,52.2595],[-7.0042,52.2752],[-6.9804,52.2554],[-6.9821,52.221],[-6.9728,52.185],[-6.9907,52.1663],[-7.0611,52.1374],[-7.3694,52.1389],[-7.5918,52.073],[-7.6115,52.0548],[-7.5763,52.0303],[-7.5935,51.9918],[-7.818,51.9452],[-7.8452,51.9438],[-8.1068,52.1959],[-8.0579,52.2022],[-7.7841,52.2153],[-7.7521,52.2247],[-7.7703,52.287],[-7.7765,52.3298],[-7.7234,52.3417],[-7.3969,52.3418]]]}},{"type":"Feature","properties":{"code":"IE010","name":"County Wexford"},"geometry":{"type":"Polygon","coordinates":[[[-6.1596,52.7379],[-6.1933,52.6891],[-6.2009,52.6492],[-6.195,52.564],[-6.2872,52.4712],[-6.3568,52.3547],[-6.3875,52.3474],[-6.458,52.344],[-6.3308,52.2477],[-6.333,52.2134],[-6.3558,52.1799],[-6.3889,52.1731],[-6.5972,52.173],[-6.6927,52.2121],[-6.7255,52.2095],[-6.8477,52.1711],[-6.8867,52.1664],[-6.9549,52.2352],[-7.0042,52.2752],[-6.9811,52.3171],[-6.9262,52.4526],[-6.8874,52.4709],[-6.7258,52.6466],[-6.6258,52.7063],[-6.4999,52.6949],[-6.4688,52.7124],[-6.3841,52.7795],[-6.3609,52.7907],[-6.2381,52.774],[-6.1596,52.7379]]]}},{"type":"Feature","properties":{"code":"IE011","name":"County Wicklow"},"geometry":{"type":"Polygon","coordinates":[[[-6.1005,53.1996],[-6.0802,53.1704],[-6.0374,53.0738],[-6.0126,52.9895],[-6.0198,52.9434],[-6.0362,52.9059],[-6.1361,52.8043],[-6.1596,52.7379],[-6.2381,52.774],[-6.3609,52.7907],[-6.3841,52.7795],[-6.4688,52.7124],[-6.4999,52.6949],[-6.6258,52.7063],[-6.6612,52.7612],[-6.6983,52.7771],[-6.6827,52.808],[-6.6551,52.8254],[-6.6075,52.8116],[-6.5594,52.8152],[-6.5348,52.843],[-6.5229,52.8734],[-6.5573,52.8856],[-6.7181,52.9165],[-6.7789,52.9773],[-6.7625,53.0166],[-6.7371,53.0524],[-6.6989,53.0756],[-6.5587,53.1384],[-6.4766,53.233],[-6.449,53.2305],[-6.3391,53.2011],[-6.2998,53.1967],[-6.2222,53.221],[-6.1433,53.2119],[-6.1005,53.1996]]]}},{"type":"Feature","properties":{"code":"IE012","name":"County Dublin"},"geometry":{"type":"Polygon","coordinates":[[[-6.1005,53.1996],[-6.1433,53.2119],[-6.2222,53.221],[-6.2998,53.1967],[-6.3391,53.2011],[-6.5166,53.2456],[-6.5248,53.3185],[-6.4788,53.3633],[-6.4607,53.3881],[-6.4296,53.4072],[-6.3404,53.4829],[-6.3607,53.5023],[-6.4139,53.539],[-6.3933,53.578],[-6.3629,53.5819],[-6.3322,53.576],[-6.3039,53.5856],[-6.2486,53.6152],[-6.2093,53.6288],[-6.0924,53.5493],[-6.0884,53.5185],[-6.1021,53.4898],[-6.1501,53.4653],[-6.1679,53.4462],[-6.1456,53.4246],[-6.1232,53.3885],[-6.1782,53.3504],[-6.1002,53.2793],[-6.1005,53.1996]]]}},{"type":"Feature","properties":{"code":"IE013","name":"County Limerick"},"geometry":{"type":"Polygon","coordinates":[[[-8.1786,52.2849],[-8.2958,52.2967],[-8.3279,52.3218],[-8.3582,52.3224],[-8.4768,52.288],[-8.5242,52.2877],[-8.6604,52.37],[-8.697,52.3781],[-8.75,52.3822],[-8.7867,52.3801],[-8.9851,52.2982],[-9.2194,52.2864],[-9.2504,52.3126],[-9.3371,52.3632],[-9.359,52.5702],[-9.1966,52.5928],[-9.1561,52.6104],[-9.1119,52.6046],[-8.985,52.624],[-8.7736,52.6651],[-8.7462,52.6814],[-8.672,52.683],[-8.5749,52.6771],[-8.5434,52.6881],[-8.5076,52.7466],[-8.485,52.7301],[-8.384,52.6814],[-8.2012,52.6672],[-8.1959,52.6406],[-8.2212,52.5368],[-8.2545,52.52],[-8.379,52.4873],[-8.3863,52.4595],[-8.373,52.4313],[-8.1997,52.3776],[-8.1712,52.3584],[-8.1786,52.2849]]]}},{"type":"Feature","properties":{"code":"IE014","name":"County Clare"},"geometry":{"type":"Polygon","coordinates":[[[-9.0187,53.1348],[-8.9972,53.1085],[-8.8552,52.9775],[-8.8219,52.9788],[-8.5756,53.0397],[-8.5502,53.0366],[-8.5109,52.995],[-8.4704,52.984],[-8.3515,52.9852],[-8.3182,52.9783],[-8.2883,52.966],[-8.3981,52.915],[-8.4159,52.8957],[-8.5434,52.6881],[-8.5749,52.6771],[-8.672,52.683],[-8.7462,52.6814],[-8.7827,52.6953],[-8.9111,52.7097],[-8.9484,52.7219],[-8.9748,52.741],[-9.0085,52.7532],[-9.04,52.7314],[-9.1383,52.6403],[-9.1561,52.6104],[-9.1879,52.6211],[-9.2885,52.6357],[-9.3167,52.6344],[-9.8224,52.5691],[-9.8663,52.5733],[-9.8435,52.595],[-9.5184,52.7432],[-9.4943,52.7587],[-9.2695,53.1433],[-9.2358,53.152],[-9.0669,53.1474],[-9.0187,53.1348]]]}},{"type":"Feature","properties":{"code":"IE015","name":"County Galway"},"geometry":{"type":"Polygon","coordinates":[[[-8.0601,53.2607],[-7.9894,53.2363],[-8.0094,53.214],[-8.0587,53.1779],[-8.0739,53.1557],[-8.1036,53.1456],[-8.2665,53.0294],[-8.2883,52.966],[-8.3182,52.9783],[-8.3515,52.9852],[-8.4704,52.984],[-8.5109,52.995],[-8.5502,53.0366],[-8.5756,53.0397],[-8.8219,52.9788],[-8.8552,52.9775],[-8.9972,53.1085],[-9.0187,53.1348],[-8.9874,53.1452],[-8.9502,53.148],[-8.9491,53.1825],[-8.9739,53.2561],[-9.005,53.2663],[-9.5471,53.2362],[-9.5732,53.2576],[-9.6417,53.3451],[-9.6701,53.3432],[-9.7606,53.3063],[-9.7779,53.3343],[-9.7948,53.3759],[-9.8325,53.3867],[-10.0162,53.3891],[-10.0435,53.3947],[-10.1536,53.53],[-10.1694,53.5574],[-9.9047,53.6025],[-9.8786,53.6238],[-9.4049,53.5592],[-9.2016,53.4764],[-9.169,53.4831],[-9.0657,53.521],[-9.0415,53.5479],[-8.9791,53.643],[-8.9399,53.6517],[-8.815,53.6545],[-8.7416,53.6642],[-8.4672,53.7134],[-8.419,53.6702],[-8.4008,53.6463],[-8.1759,53.2918],[-8.152,53.2808],[-8.0601,53.2607]]]}},{"type":"Feature","properties":{"code":"IE016","name":"County Mayo"},"geometry":{"type":"Polygon","coordinates":[[[-9.1387,54.1602],[-9.0202,54.1533],[-8.9572,54.1314],[-8.9323,54.1173],[-8.9867,54.0527],[-9.0016,54.0223],[-8.9649,54.0088],[-8.793,53.963],[-8.7608,53.9747],[-8.6604,54.0293],[-8.6264,54.0247],[-8.5922,54.0126],[-8.5867,53.9802],[-8.5976,53.9529],[-8.6685,53.9718],[-8.6803,53.7491],[-8.7825,53.6594],[-8.815,53.6545],[-8.9399,53.6517],[-8.9791,53.643],[-9.0415,53.5479],[-9.0657,53.521],[-9.169,53.4831],[-9.2016,53.4764],[-9.4049,53.5592],[-9.8786,53.6238],[-9.9071,53.6468],[-9.9106,53.6782],[-9.9067,53.7341],[-9.8938,53.7631],[-9.5554,53.7956],[-9.5584,53.84],[-9.5733,53.8843],[-9.9354,53.8741],[-9.9712,53.8764],[-10.1509,53.9571],[-10.182,53.9785],[-10.1385,53.9939],[-9.983,54.0256],[-9.9495,54.0158],[-9.9192,53.9998],[-9.8797,53.9912],[-9.8855,54.0254],[-9.9416,54.1179],[-9.9643,54.1748],[-9.997,54.1904],[-10.0273,54.1853],[-10.1145,54.1496],[-10.1033,54.214],[-10.09,54.2426],[-10.059,54.2642],[-10.0282,54.2762],[-9.9385,54.2265],[-9.904,54.2263],[-9.8152,54.3165],[-9.7813,54.3378],[-9.7448,54.3273],[-9.7091,54.3237],[-9.2936,54.3088],[-9.2559,54.2982],[-9.1387,54.1602]]]}},{"type":"Feature","properties":{"code":"IE017","name":"County Sligo"},"geometry":{"type":"Polygon","coordinates":[[[-8.3757,54.4467],[-8.3719,54.4052],[-8.3436,54.2549],[-8.3293,54.2158],[-8.192,54.1223],[-8.1725,54.1035],[-8.2891,54.0409],[-8.3073,54.0171],[-8.334,53.965],[-8.3572,53.9351],[-8.4899,53.9241],[-8.5976,53.9529],[-8.5867,53.9802],[-8.5922,54.0126],[-8.6264,54.0247],[-8.6604,54.0293],[-8.7608,53.9747],[-8.793,53.963],[-8.9649,54.0088],[-9.0016,54.0223],[-8.9867,54.0527],[-8.9323,54.1173],[-8.9572,54.1314],[-9.0202,54.1533],[-9.1387,54.1602],[-9.1214,54.1821],[-9.0649,54.2851],[-9.0246,54.2916],[-8.6929,54.2723],[-8.6642,54.2604],[-8.6192,54.2305],[-8.5868,54.2231],[-8.539,54.2807],[-8.5279,54.3119],[-8.6681,54.3585],[-8.6476,54.3739],[-8.4972,54.444],[-8.4663,54.4534],[-8.418,54.4559],[-8.3757,54.4467]]]}},{"type":"Feature","properties":{"code":"IE018","name":"County Donegal"},"geometry":{"type":"Polygon","coordinates":[[[-6.9353,55.2257],[-6.9626,55.21],[-7.3307,55.0546],[-7.3623,55.033],[-7.3972,54.9733],[-7.3915,54.9436],[-7.5444,54.7433],[-7.5794,54.734],[-7.8215,54.7096],[-7.8547,54.6899],[-7.7725,54.6006],[-7.7971,54.582],[-8.1411,54.4745],[-8.1654,54.462],[-8.2952,54.4647],[-8.1823,54.5827],[-8.1658,54.6061],[-8.2088,54.6168],[-8.5433,54.6204],[-8.786,54.6951],[-8.7654,54.7173],[-8.5561,54.8009],[-8.519,54.8263],[-8.3037,55.1202],[-8.2682,55.1359],[-7.7049,55.2499],[-7.5684,55.2302],[-7.5265,55.2377],[-7.3919,55.366],[-7.3628,55.3795],[-6.9353,55.2257]]]}},{"type":"Feature","properties":{"code":"IE019","name":"County Louth"},"geometry":{"type":"Polygon","coordinates":[[[-6.2447,54.093],[-6.2161,54.0662],[-6.1333,54.0193],[-6.1115,53.993],[-6.136,53.9803],[-6.1675,53.9822],[-6.3493,54.0141],[-6.3643,53.9289],[-6.3599,53.8977],[-6.3003,53.8795],[-6.2673,53.8637],[-6.2274,53.808],[-6.2314,53.7699],[-6.2484,53.7243],[-6.2783,53.7238],[-6.3593,53.7065],[-6.4863,53.7355],[-6.6813,53.8929],[-6.6613,53.9219],[-6.5584,53.9987],[-6.5806,54.0316],[-6.5595,54.0504],[-6.3033,54.106],[-6.2689,54.1029],[-6.2447,54.093]]]}},{"type":"Feature","properties":{"code":"IE020","name":"County Carlow"},"geometry":{"type":"Polygon","coordinates":[[[-6.6258,52.7063],[-6.7258,52.6466],[-6.8874,52.4709],[-6.9262,52.4526],[-6.942,52.5341],[-6.9327,52.5806],[-6.9518,52.6193],[-7.0133,52.6963],[-7.0907,52.7392],[-7.0674,52.7962],[-6.9894,52.8038],[-6.9615,52.815],[-6.9277,52.8672],[-6.8177,52.8748],[-6.7181,52.9165],[-6.5573,52.8856],[-6.5229,52.8734],[-6.5348,52.843],[-6.5594,52.8152],[-6.6075,52.8116],[-6.6551,52.8254],[-6.6827,52.808],[-6.6983,52.7771],[-6.6612,52.7612],[-6.6258,52.7063]]]}},{"type":"Feature","properties":{"code":"IE021","name":"County Kilkenny"},"geometry":{"type":"Polygon","coordinates":[[[-7.0674,52.7962],[-7.0907,52.7392],[-7.0133,52.6963],[-6.9518,52.6193],[-6.9327,52.5806],[-6.942,52.5341],[-6.9262,52.4526],[-6.9811,52.3171],[-7.0042,52.2752],[-7.0358,52.2595],[-7.1808,52.2435],[-7.2186,52.2452],[-7.2863,52.3021],[-7.3134,52.3195],[-7.3969,52.3418],[-7.3857,52.4244],[-7.4832,52.6236],[-7.5395,52.6843],[-7.5654,52.7035],[-7.6517,52.7373],[-7.6697,52.7732],[-7.6479,52.7942],[-7.5925,52.8209],[-7.5624,52.8174],[-7.4768,52.7865],[-7.4427,52.7982],[-7.3162,52.8618],[-7.179,52.8872],[-7.0674,52.7962]]]}},{"type":"Feature","properties":{"code":"IE022","name":"County Laois"},"geometry":{"type":"Polygon","coordinates":[[[-7.0854,53.1525],[-7.0502,53.0689],[-7.0825,53.004],[-6.9977,52.9816],[-6.9736,52.9704],[-6.9277,52.8672],[-6.9615,52.815],[-6.9894,52.8038],[-7.0674,52.7962],[-7.179,52.8872],[-7.3162,52.8618],[-7.4427,52.7982],[-7.4768,52.7865],[-7.5624,52.8174],[-7.5925,52.8209],[-7.6479,52.7942],[-7.6697,52.7732],[-7.6861,52.7996],[-7.7221,52.8777],[-7.6775,52.9206],[-7.7497,52.9604],[-7.7142,52.9769],[-7.6859,53.0335],[-7.6009,53.0946],[-7.6341,53.1433],[-7.6011,53.1555],[-7.3915,53.2007],[-7.3591,53.1979],[-7.3253,53.152],[-7.2929,53.1442],[-7.2003,53.1632],[-7.1163,53.1592],[-7.0854,53.1525]]]}},{"type":"Feature","properties":{"code":"IE023","name":"County Meath"},"geometry":{"type":"Polygon","coordinates":[[[-6.6813,53.8929],[-6.4863,53.7355],[-6.3593,53.7065],[-6.2783,53.7238],[-6.2484,53.7243],[-6.2093,53.6288],[-6.2486,53.6152],[-6.3039,53.5856],[-6.3322,53.576],[-6.3629,53.5819],[-6.3933,53.578],[-6.4139,53.539],[-6.3607,53.5023],[-6.3404,53.4829],[-6.4296,53.4072],[-6.4607,53.3881],[-6.7561,53.427],[-6.7835,53.4222],[-6.8016,53.4039],[-6.8341,53.4093],[-6.9403,53.4423],[-6.9674,53.4432],[-7.0608,53.3822],[-7.0894,53.3699],[-7.1825,53.4246],[-7.0945,53.4526],[-7.0624,53.4898],[-6.9821,53.6182],[-6.9978,53.6653],[-7.0755,53.6472],[-7.1619,53.6789],[-7.1983,53.6969],[-7.3308,53.7909],[-7.2932,53.808],[-6.988,53.7857],[-6.9444,53.7894],[-6.9492,53.8552],[-6.9048,53.8672],[-6.7692,53.8881],[-6.7468,53.9023],[-6.6813,53.8929]]]}},{"type":"Feature","properties":{"code":"IE024","name":"County Westmeath"},"geometry":{"type":"Polygon","coordinates":[[[-7.0945,53.4526],[-7.2175,53.4128],[-7.3491,53.3509],[-7.4204,53.3264],[-7.4615,53.3214],[-7.56,53.3808],[-7.5942,53.3968],[-7.632,53.4018],[-7.6779,53.3912],[-7.7107,53.3641],[-7.7451,53.3519],[-7.8364,53.3415],[-7.913,53.3584],[-7.9316,53.3893],[-7.9725,53.506],[-7.9392,53.5255],[-7.8388,53.548],[-7.6971,53.5344],[-7.6562,53.5362],[-7.4815,53.7018],[-7.388,53.7352],[-7.3985,53.7691],[-7.3657,53.7867],[-7.3308,53.7909],[-7.1983,53.6969],[-7.1619,53.6789],[-7.0755,53.6472],[-6.9978,53.6653],[-6.9821,53.6182],[-7.0624,53.4898],[-7.0945,53.4526]]]}},{"type":"Feature","properties":{"code":"IE025","name":"County Longford"},"geometry":{"type":"Polygon","coordinates":[[[-7.3985,53.7691],[-7.388,53.7352],[-7.4815,53.7018],[-7.6562,53.5362],[-7.6971,53.5344],[-7.8388,53.548],[-7.9392,53.5255],[-7.9725,53.506],[-8.023,53.6284],[-8.0147,53.657],[-7.9081,53.7473],[-7.8835,53.7735],[-7.9019,53.8292],[-7.8248,53.8136],[-7.6323,53.925],[-7.5976,53.9318],[-7.5618,53.8933],[-7.5736,53.856],[-7.517,53.8565],[-7.3985,53.7691]]]}},{"type":"Feature","properties":{"code":"IE026","name":"County Roscommon"},"geometry":{"type":"Polygon","coordinates":[[[-7.9019,53.8292],[-7.8835,53.7735],[-7.9081,53.7473],[-8.0147,53.657],[-8.023,53.6284],[-7.9725,53.506],[-7.9316,53.3893],[-7.913,53.3584],[-7.9371,53.3491],[-8.0601,53.2607],[-8.152,53.2808],[-8.1759,53.2918],[-8.4008,53.6463],[-8.419,53.6702],[-8.4672,53.7134],[-8.7825,53.6594],[-8.6803,53.7491],[-8.6685,53.9718],[-8.4899,53.9241],[-8.3572,53.9351],[-8.334,53.965],[-8.3073,54.0171],[-8.2891,54.0409],[-8.1725,54.1035],[-8.0797,54.1009],[-8.0531,54.0896],[-8.0758,53.9689],[-8.0763,53.9355],[-7.9019,53.8292]]]}},{"type":"Feature","properties":{"code":"IE027","name":"County Cavan"},"geometry":{"type":"Polygon","coordinates":[[[-7.295,54.1176],[-7.1877,54.0904],[-7.0422,54.0955],[-7.0133,54.0803],[-6.8185,53.9299],[-6.7826,53.92],[-6.7468,53.9023],[-6.7692,53.8881],[-6.9048,53.8672],[-6.9492,53.8552],[-6.9444,53.7894],[-6.988,53.7857],[-7.2932,53.808],[-7.3308,53.7909],[-7.3657,53.7867],[-7.3985,53.7691],[-7.517,53.8565],[-7.5736,53.856],[-7.5618,53.8933],[-7.5976,53.9318],[-7.5861,53.9603],[-7.6392,54.0325],[-7.6614,54.0545],[-7.8015,54.1151],[-7.9844,54.1793],[-8.0107,54.1922],[-8.0374,54.2164],[-8.0499,54.2388],[-7.9585,54.2908],[-7.9278,54.2985],[-7.8046,54.2145],[-7.7618,54.1971],[-7.4888,54.1204],[-7.295,54.1176]]]}},{"type":"Feature","properties":{"code":"IE028","name":"County Offaly"},"geometry":{"type":"Polygon","coordinates":[[[-7.1825,53.4246],[-7.009,53.3274],[-6.9838,53.304],[-7.0656,53.1906],[-7.0854,53.1525],[-7.1163,53.1592],[-7.2003,53.1632],[-7.2929,53.1442],[-7.3253,53.152],[-7.3591,53.1979],[-7.3915,53.2007],[-7.6011,53.1555],[-7.6341,53.1433],[-7.6009,53.0946],[-7.6859,53.0335],[-7.7142,52.9769],[-7.7497,52.9604],[-7.7929,52.974],[-7.8256,52.9585],[-7.9729,52.8556],[-7.999,52.875],[-8.0345,52.9317],[-8.0231,52.9632],[-7.9233,53.0978],[-8.0739,53.1557],[-8.0587,53.1779],[-8.0094,53.214],[-7.9894,53.2363],[-8.0601,53.2607],[-7.9371,53.3491],[-7.913,53.3584],[-7.8364,53.3415],[-7.7451,53.3519],[-7.7107,53.3641],[-7.6779,53.3912],[-7.632,53.4018],[-7.5942,53.3968],[-7.56,53.3808],[-7.4615,53.3214],[-7.4204,53.3264],[-7.3875,53.3364],[-7.2175,53.4128],[-7.1825,53.4246]]]}},{"type":"Feature","properties":{"code":"IE029","name":"County Leitrim"},"geometry":{"type":"Polygon","coordinates":[[[-8.1654,54.462],[-7.9278,54.2985],[-7.9585,54.2908],[-8.0499,54.2388],[-8.0374,54.2164],[-8.0107,54.1922],[-7.9844,54.1793],[-7.8015,54.1151],[-7.6614,54.0545],[-7.6392,54.0325],[-7.5861,53.9603],[-7.5976,53.9318],[-7.6323,53.925],[-7.8248,53.8136],[-7.9019,53.8292],[-8.0763,53.9355],[-8.0758,53.9689],[-8.0531,54.0896],[-8.0797,54.1009],[-8.1725,54.1035],[-8.192,54.1223],[-8.3293,54.2158],[-8.3436,54.2549],[-8.3719,54.4052],[-8.3757,54.4467],[-8.3323,54.4604],[-8.2952,54.4647],[-8.1654,54.462]]]}},{"type":"Feature","properties":{"code":"IE030","name":"County Kildare"},"geometry":{"type":"Polygon","coordinates":[[[-6.4607,53.3881],[-6.4788,53.3633],[-6.5248,53.3185],[-6.5166,53.2456],[-6.4766,53.233],[-6.4929,53.2099],[-6.5587,53.1384],[-6.6989,53.0756],[-6.7371,53.0524],[-6.7625,53.0166],[-6.7789,52.9773],[-6.7181,52.9165],[-6.8177,52.8748],[-6.9277,52.8672],[-6.9736,52.9704],[-6.9977,52.9816],[-7.0825,53.004],[-7.0502,53.0689],[-7.0854,53.1525],[-7.0656,53.1906],[-6.9838,53.304],[-7.009,53.3274],[-7.0894,53.3699],[-7.0608,53.3822],[-6.9674,53.4432],[-6.9403,53.4423],[-6.8341,53.4093],[-6.8016,53.4039],[-6.7835,53.4222],[-6.7561,53.427],[-6.4607,53.3881]]]}},{"type":"Feature","properties":{"code":"IE031","name":"County Monaghan"},"geometry":{"type":"Polygon","coordinates":[[[-6.6057,54.0671],[-6.5584,53.9987],[-6.6613,53.9219],[-6.6813,53.8929],[-6.7468,53.9023],[-6.7826,53.92],[-6.8185,53.9299],[-7.0133,54.0803],[-7.0422,54.0955],[-7.1877,54.0904],[-7.295,54.1176],[-7.1637,54.2345],[-7.1462,54.3385],[-7.0512,54.4032],[-7.0185,54.4122],[-6.7567,54.2014],[-6.7182,54.1867],[-6.6677,54.1787],[-6.6397,54.1664],[-6.6057,54.0671]]]}},{"type":"Feature","properties":{"code":"IE801","name":"Ireland West"},"geometry":{"type":"MultiPolygon","coordinates":[[[[-9.1561,52.6104],[-9.1383,52.6403],[-9.04,52.7314],[-9.0085,52.7532],[-8.9748,52.741],[-8.9484,52.7219],[-8.9111,52.7097],[-8.7827,52.6953],[-8.7462,52.6814],[-8.7736,52.6651],[-9.0272,52.6163],[-9.1119,52.6046],[-9.1561,52.6104]]],[[[-9.1561,52.6104],[-9.1966,52.5928],[-9.359,52.5702],[-9.6693,52.5474],[-9.6919,52.5318],[-9.7423,52.4724],[-9.8812,52.4364],[-9.9299,52.4152],[-9.9125,52.383],[-9.8273,52.271],[-9.8137,52.2467],[-9.8494,52.2427],[-10.302,52.2392],[-10.3236,52.2257],[-10.44,52.1087],[-10.4052,52.1012],[-9.8001,52.1619],[-9.8059,52.1257],[-10.3372,51.9046],[-10.3746,51.8777],[-10.3471,51.7886],[-10.3177,51.7793],[-10.1561,51.7617],[-10.1181,51.7613],[-9.7874,51.8367],[-9.7302,51.8366],[-9.8736,51.7382],[-10.0309,51.6496],[-10.0578,51.6197],[-10.005,51.6131],[-9.9101,51.6247],[-9.6185,51.682],[-9.5247,51.7181],[-9.4902,51.7191],[-9.4644,51.703],[-9.4854,51.6805],[-9.6816,51.604],[-9.715,51.5806],[-9.6438,51.5766],[-9.6654,51.5544],[-9.8043,51.4956],[-9.8305,51.4779],[-9.8178,51.443],[-9.8996,51.2909],[-9.9097,51.2644],[-9.9349,51.2706],[-10.0814,51.3407],[-10.196,51.4093],[-10.2775,51.4309],[-10.3108,51.4468],[-10.5083,51.6069],[-10.6259,51.6951],[-10.6461,51.713],[-10.7003,51.7871],[-10.7153,51.8144],[-10.739,51.9522],[-10.7727,52.0534],[-10.7899,52.156],[-10.7876,52.1985],[-10.7699,52.2435],[-10.7513,52.2756],[-10.5083,52.4054],[-10.3665,52.4538],[-10.3264,52.4721],[-10.2549,52.5726],[-10.1921,52.6771],[-9.9894,52.7865],[-9.8949,52.8499],[-9.8729,52.8744],[-9.8798,52.9088],[-9.8921,52.9365],[-10.006,52.9695],[-10.1004,53.028],[-10.1265,53.0493],[-10.1688,53.153],[-10.2303,53.2031],[-10.2552,53.2183],[-10.3694,53.2501],[-10.4047,53.2641],[-10.4857,53.3372],[-10.5074,53.366],[-10.5267,53.5135],[-10.564,53.5637],[-10.5668,53.6035],[-10.5588,53.6648],[-10.5472,53.7011],[-10.4562,53.7699],[-10.4364,53.7914],[-10.451,53.8134],[-10.4757,53.8374],[-10.5509,53.8985],[-10.5623,53.9285],[-10.5727,53.9785],[-10.5726,54.0101],[-10.4909,54.1192],[-10.4239,54.274],[-10.3424,54.3922],[-10.3133,54.4091],[-10.0974,54.4848],[-9.9458,54.5226],[-9.8134,54.5427],[-9.8175,54.5064],[-9.7813,54.3378],[-9.8152,54.3165],[-9.904,54.2263],[-9.9385,54.2265],[-10.0282,54.2762],[-10.059,54.2642],[-10.09,54.2426],[-10.1033,54.214],[-10.1116,54.1792],[-10.1145,54.1496],[-10.0273,54.1853],[-9.997,54.1904],[-9.9643,54.1748],[-9.9416,54.1179],[-9.8855,54.0254],[-9.8797,53.9912],[-9.9192,53.9998],[-9.9495,54.0158],[-9.983,54.0256],[-10.1385,53.9939],[-10.182,53.9785],[-10.1509,53.9571],[-9.9712,53.8764],[-9.9354,53.8741],[-9.5733,53.8843],[-9.5584,53.84],[-9.5554,53.7956],[-9.8938,53.7631],[-9.9067,53.7341],[-9.9106,53.6782],[-9.9071,53.6468],[-9.8786,53.6238],[-9.9047,53.6025],[-10.1694,53.5574],[-10.1536,53.53],[-10.0435,53.3947],[-10.0162,53.3891],[-9.8325,53.3867],[-9.7948,53.3759],[-9.7779,53.3343],[-9.7606,53.3063],[-9.6701,53.3432],[-9.6417,53.3451],[-9.5732,53.2576],[-9.5471,53.2362],[-9.005,53.2663],[-8.9739,53.2561],[-8.9491,53.1825],[-8.9502,53.148],[-8.9874,53.1452],[-9.0187,53.1348],[-9.0669,53.1474],[-9.2358,53.152],[-9.2695,53.1433],[-9.4943,52.7587],[-9.5184,52.7432],[-9.8435,52.595],[-9.8663,52.5733],[-9.8224,52.5691],[-9.3167,52.6344],[-9.2885,52.6357],[-9.1879,52.6211],[-9.1561,52.6104]]]]}},{"type":"Feature","properties":{"code":"IE802","name":"Ireland North-West"},"geometry":{"type":"Polygon","coordinates":[[[-6.9353,55.2257],[-7.3628,55.3795],[-7.3919,55.366],[-7.5265,55.2377],[-7.5684,55.2302],[-7.7049,55.2499],[-8.2682,55.1359],[-8.3037,55.1202],[-8.519,54.8263],[-8.5561,54.8009],[-8.7654,54.7173],[-8.786,54.6951],[-8.5433,54.6204],[-8.2088,54.6168],[-8.1658,54.6061],[-8.1823,54.5827],[-8.2952,54.4647],[-8.3323,54.4604],[-8.3757,54.4467],[-8.418,54.4559],[-8.4663,54.4534],[-8.4972,54.444],[-8.6476,54.3739],[-8.6681,54.3585],[-8.5279,54.3119],[-8.539,54.2807],[-8.5868,54.2231],[-8.6192,54.2305],[-8.6642,54.2604],[-8.6929,54.2723],[-9.0246,54.2916],[-9.0649,54.2851],[-9.1214,54.1821],[-9.1387,54.1602],[-9.2559,54.2982],[-9.2936,54.3088],[-9.7091,54.3237],[-9.7448,54.3273],[-9.7813,54.3378],[-9.8175,54.5064],[-9.8134,54.5427],[-9.5921,54.5238],[-9.3324,54.5171],[-9.1614,54.495],[-9.1158,54.5018],[-9.0868,54.5494],[-9.1091,54.5831],[-9.1203,54.6212],[-9.1373,54.735],[-9.1289,54.7654],[-9.0087,54.8699],[-8.934,54.9574],[-8.911,54.9894],[-8.8448,55.1132],[-8.8155,55.135],[-8.6158,55.242],[-8.4292,55.3349],[-8.114,55.4058],[-7.7925,55.4634],[-7.4782,55.5677],[-7.4323,55.5778],[-7.1924,55.5589],[-6.9324,55.4791],[-6.7222,55.4001],[-6.7381,55.3722],[-6.8399,55.2373],[-6.8647,55.2302],[-6.9353,55.2257]]]}},{"type":"Feature","properties":{"code":"IE803","name":"Irish Sea"},"geometry":{"type":"Polygon","coordinates":[[[-6.1115,53.993],[-6.0768,53.9901],[-5.8871,53.9095],[-5.8769,53.7703],[-5.853,53.7187],[-5.8246,53.6851],[-5.7897,53.6538],[-5.7648,53.6134],[-5.7491,53.5753],[-5.7376,53.4584],[-5.7173,53.3967],[-5.7239,53.335],[-5.7557,53.2669],[-5.7488,53.225],[-5.7266,53.1802],[-5.7078,53.0897],[-5.6829,53.0093],[-5.6833,52.9667],[-5.6882,52.9233],[-5.7309,52.8239],[-5.8038,52.7184],[-5.8686,52.5912],[-5.8991,52.4796],[-5.9818,52.3851],[-6.0129,52.323],[-5.9956,52.2219],[-6.0193,52.1648],[-6.0375,52.1334],[-6.0927,52.0624],[-6.1213,52.0404],[-6.1501,52.0285],[-6.3396,52.1597],[-6.3558,52.1799],[-6.333,52.2134],[-6.3308,52.2477],[-6.458,52.344],[-6.3875,52.3474],[-6.3568,52.3547],[-6.2872,52.4712],[-6.195,52.564],[-6.2009,52.6492],[-6.1933,52.6891],[-6.1596,52.7379],[-6.1361,52.8043],[-6.0362,52.9059],[-6.0198,52.9434],[-6.0126,52.9895],[-6.0374,53.0738],[-6.0802,53.1704],[-6.1005,53.1996],[-6.1002,53.2793],[-6.1782,53.3504],[-6.1232,53.3885],[-6.1456,53.4246],[-6.1679,53.4462],[-6.1501,53.4653],[-6.1021,53.4898],[-6.0884,53.5185],[-6.0924,53.5493],[-6.2093,53.6288],[-6.2484,53.7243],[-6.2314,53.7699],[-6.2274,53.808],[-6.2673,53.8637],[-6.3003,53.8795],[-6.3599,53.8977],[-6.3643,53.9289],[-6.3493,54.0141],[-6.1675,53.9822],[-6.136,53.9803],[-6.1115,53.993]]]}},{"type":"Feature","properties":{"code":"IE804","name":"Ireland South"},"geometry":{"type":"Polygon","coordinates":[[[-6.3558,52.1799],[-6.3396,52.1597],[-6.1501,52.0285],[-6.1741,52.0147],[-6.2642,51.9839],[-6.2951,51.9806],[-6.5071,51.9759],[-6.7215,51.9866],[-6.8696,51.9559],[-7.1658,51.9344],[-7.304,51.8874],[-7.4203,51.8206],[-7.7069,51.7049],[-8.3919,51.4691],[-8.575,51.3903],[-8.6205,51.3805],[-8.9845,51.3449],[-9.0635,51.3097],[-9.1135,51.2977],[-9.2476,51.2812],[-9.4634,51.2269],[-9.6409,51.242],[-9.7997,51.2489],[-9.9097,51.2644],[-9.8996,51.2909],[-9.8178,51.443],[-9.7799,51.4592],[-9.466,51.5271],[-9.4331,51.5251],[-9.4111,51.494],[-9.3873,51.4716],[-9.1814,51.4951],[-9.1523,51.5001],[-8.9251,51.579],[-8.6856,51.6011],[-8.4925,51.6792],[-8.3026,51.7417],[-8.2905,51.8266],[-8.19,51.7955],[-8.0439,51.8147],[-8.0171,51.824],[-7.9892,51.8491],[-7.9563,51.869],[-7.9083,51.873],[-7.8685,51.8841],[-7.8452,51.9438],[-7.818,51.9452],[-7.5935,51.9918],[-7.5763,52.0303],[-7.6115,52.0548],[-7.5918,52.073],[-7.3694,52.1389],[-7.0611,52.1374],[-7.0209,52.1518],[-6.9907,52.1663],[-6.9728,52.185],[-6.9821,52.221],[-6.9804,52.2554],[-6.8867,52.1664],[-6.8477,52.1711],[-6.7255,52.2095],[-6.6927,52.2121],[-6.5972,52.173],[-6.3889,52.1731],[-6.3558,52.1799]]]}}]}