{"type":"FeatureCollection","features":[{"type":"Feature","properties":{"code":"MD001","name":"Briceni"},"geometry":{"type":"Polygon","coordinates":[[[27.2776,48.3294],[27.2581,48.2478],[27.2391,48.2308],[27.1602,48.245],[27.1272,48.2347],[27.0975,48.2175],[27.0767,48.1984],[27.0408,48.1587],[27.0258,48.1283],[26.888,48.2061],[26.8216,48.2368],[26.7951,48.2452],[26.6528,48.2549],[26.6251,48.2678],[26.662,48.2996],[26.765,48.3546],[27.2308,48.3716],[27.2776,48.3294]]]}},{"type":"Feature","properties":{"code":"MD002","name":"Edinet"},"geometry":{"type":"Polygon","coordinates":[[[27.4841,48.2161],[27.4953,48.1923],[27.5227,48.0677],[27.504,48.0495],[27.4207,48.015],[27.2656,48.0097],[27.2183,47.9537],[27.1846,47.9323],[27.1469,47.9889],[27.0258,48.1283],[27.0408,48.1587],[27.0767,48.1984],[27.0975,48.2175],[27.1272,48.2347],[27.1602,48.245],[27.2391,48.2308],[27.2581,48.2478],[27.2776,48.3294],[27.3164,48.3453],[27.3415,48.3389],[27.366,48.3259],[27.3686,48.2949],[27.364,48.258],[27.3868,48.2423],[27.4841,48.2161]]]}},{"type":"Feature","properties":{"code":"MD003","name":"Ocnita"},"geometry":{"type":"Polygon","coordinates":[[[27.8463,48.3862],[27.7761,48.3439],[27.7484,48.3418],[27.5729,48.3506],[27.5371,48.3435],[27.499,48.2402],[27.4841,48.2161],[27.3868,48.2423],[27.364,48.258],[27.3686,48.2949],[27.366,48.3259],[27.3415,48.3389],[27.3164,48.3453],[27.2776,48.3294],[27.2308,48.3716],[27.3118,48.4369],[27.352,48.4495],[27.5457,48.4847],[27.5801,48.4872],[27.8146,48.4092],[27.8463,48.3862]]]}},{"type":"Feature","properties":{"code":"MD004","name":"Donduseni"},"geometry":{"type":"Polygon","coordinates":[[[27.8967,48.3535],[27.8308,48.3034],[27.8799,48.2883],[27.9114,48.2688],[27.8594,48.2404],[27.7989,48.227],[27.7607,48.2121],[27.6832,48.1387],[27.667,48.1142],[27.6793,48.0895],[27.6767,48.0596],[27.6477,48.0603],[27.5446,48.0888],[27.5151,48.1024],[27.4953,48.1923],[27.4841,48.2161],[27.499,48.2402],[27.5371,48.3435],[27.5729,48.3506],[27.7484,48.3418],[27.7761,48.3439],[27.8463,48.3862],[27.8739,48.3835],[27.8967,48.3535]]]}},{"type":"Feature","properties":{"code":"MD005","name":"Drochia"},"geometry":{"type":"Polygon","coordinates":[[[28.0277,47.9924],[28.0312,47.9479],[28.0504,47.9067],[28.0218,47.8988],[27.9244,47.8543],[27.8646,47.856],[27.8375,47.8481],[27.801,47.8516],[27.655,47.9357],[27.6384,47.9666],[27.6369,47.9992],[27.6538,48.0311],[27.6767,48.0596],[27.6793,48.0895],[27.667,48.1142],[27.6832,48.1387],[27.7607,48.2121],[27.7989,48.227],[27.8594,48.2404],[28.0238,48.1639],[28.0508,48.1381],[28.0767,48.0904],[28.0795,48.0599],[28.0343,48.0423],[28.0025,48.0227],[28.0277,47.9924]]]}},{"type":"Feature","properties":{"code":"MD006","name":"Soroca"},"geometry":{"type":"Polygon","coordinates":[[[28.5148,48.1147],[28.6276,48.0776],[28.5288,48.029],[28.491,48.0211],[28.4538,48.0062],[28.4175,48.0022],[28.0664,47.9977],[28.0277,47.9924],[28.0025,48.0227],[28.0343,48.0423],[28.0795,48.0599],[28.0767,48.0904],[28.0508,48.1381],[28.0238,48.1639],[27.8594,48.2404],[27.9114,48.2688],[27.8799,48.2883],[27.8308,48.3034],[27.8967,48.3535],[27.9312,48.349],[28.0559,48.3181],[28.0984,48.3033],[28.2148,48.2323],[28.258,48.2185],[28.3267,48.2375],[28.3724,48.2343],[28.4737,48.1403],[28.5148,48.1147]]]}},{"type":"Feature","properties":{"code":"MD007","name":"Riscani"},"geometry":{"type":"Polygon","coordinates":[[[27.6767,48.0596],[27.6538,48.0311],[27.6369,47.9992],[27.6384,47.9666],[27.655,47.9357],[27.801,47.8516],[27.8375,47.8481],[27.8646,47.856],[27.9244,47.8543],[27.9174,47.7996],[27.8893,47.7804],[27.8225,47.7858],[27.7906,47.7823],[27.776,47.8098],[27.7271,47.8497],[27.6957,47.8504],[27.6166,47.8341],[27.3867,47.8471],[27.3546,47.8415],[27.2837,47.7776],[27.1846,47.9323],[27.2183,47.9537],[27.2656,48.0097],[27.4207,48.015],[27.504,48.0495],[27.5227,48.0677],[27.5151,48.1024],[27.5446,48.0888],[27.6477,48.0603],[27.6767,48.0596]]]}},{"type":"Feature","properties":{"code":"MD008","name":"Glodeni"},"geometry":{"type":"Polygon","coordinates":[[[27.7906,47.7823],[27.7248,47.7198],[27.6929,47.7013],[27.3948,47.5907],[27.3764,47.6279],[27.2837,47.7776],[27.3546,47.8415],[27.3867,47.8471],[27.6166,47.8341],[27.6957,47.8504],[27.7271,47.8497],[27.776,47.8098],[27.7906,47.7823]]]}},{"type":"Feature","properties":{"code":"MD009","name":"Falesti"},"geometry":{"type":"Polygon","coordinates":[[[27.8905,47.7264],[27.9742,47.6522],[27.9905,47.6229],[27.965,47.5927],[27.9342,47.5712],[27.9036,47.5605],[27.8999,47.534],[27.9588,47.5184],[27.951,47.4838],[27.8927,47.4897],[27.8698,47.4675],[27.8495,47.4365],[27.8204,47.4236],[27.5935,47.3729],[27.567,47.3953],[27.3948,47.5907],[27.6929,47.7013],[27.7248,47.7198],[27.7906,47.7823],[27.812,47.7575],[27.8905,47.7264]]]}},{"type":"Feature","properties":{"code":"MD010","name":"mun. Balti"},"geometry":{"type":"Polygon","coordinates":[[[27.8905,47.7264],[27.812,47.7575],[27.7906,47.7823],[27.8225,47.7858],[27.8893,47.7804],[27.9174,47.7996],[27.958,47.794],[27.9847,47.8112],[28.0136,47.8178],[28.0425,47.7905],[27.9921,47.7606],[27.9139,47.7378],[27.8905,47.7264]]]}},{"type":"Feature","properties":{"code":"MD011","name":"Singerei"},"geometry":{"type":"Polygon","coordinates":[[[28.3848,47.6927],[28.3843,47.6655],[28.3612,47.5656],[28.3333,47.5587],[28.1517,47.5685],[28.1576,47.4511],[28.0632,47.452],[28.0241,47.457],[27.9819,47.4705],[27.951,47.4838],[27.9588,47.5184],[27.8999,47.534],[27.9036,47.5605],[27.9342,47.5712],[27.965,47.5927],[27.9905,47.6229],[27.9742,47.6522],[27.8905,47.7264],[27.9139,47.7378],[27.9921,47.7606],[28.0425,47.7905],[28.0136,47.8178],[27.9847,47.8112],[27.958,47.794],[27.9174,47.7996],[27.9244,47.8543],[28.0218,47.8988],[28.0504,47.9067],[28.1661,47.7904],[28.1984,47.7699],[28.3848,47.6927]]]}},{"type":"Feature","properties":{"code":"MD012","name":"Floresti"},"geometry":{"type":"Polygon","coordinates":[[[28.7492,47.9741],[28.6892,47.9456],[28.6633,47.8906],[28.6276,47.8818],[28.5537,47.8952],[28.5188,47.8847],[28.4209,47.8319],[28.473,47.8216],[28.4928,47.8049],[28.5141,47.7738],[28.5282,47.7368],[28.418,47.6993],[28.3848,47.6927],[28.1984,47.7699],[28.1661,47.7904],[28.0504,47.9067],[28.0312,47.9479],[28.0277,47.9924],[28.0664,47.9977],[28.4175,48.0022],[28.4538,48.0062],[28.491,48.0211],[28.5288,48.029],[28.5525,48.006],[28.579,47.9989],[28.6362,48.0268],[28.6962,48.0144],[28.7264,47.9992],[28.7492,47.9741]]]}},{"type":"Feature","properties":{"code":"MD013","name":"Soldanesti"},"geometry":{"type":"Polygon","coordinates":[[[28.9264,47.8782],[28.9146,47.8489],[28.825,47.7836],[28.6514,47.7154],[28.6098,47.705],[28.5695,47.7248],[28.5282,47.7368],[28.5141,47.7738],[28.4928,47.8049],[28.473,47.8216],[28.4209,47.8319],[28.5188,47.8847],[28.5537,47.8952],[28.6276,47.8818],[28.6633,47.8906],[28.6892,47.9456],[28.7492,47.9741],[28.7899,47.963],[28.8263,47.9447],[28.837,47.905],[28.8994,47.8899],[28.9264,47.8782]]]}},{"type":"Feature","properties":{"code":"MD014","name":"Telenesti"},"geometry":{"type":"Polygon","coordinates":[[[28.6098,47.705],[28.6085,47.6633],[28.6722,47.6366],[28.7068,47.6156],[28.696,47.5508],[28.5307,47.4498],[28.5055,47.4215],[28.4696,47.4299],[28.188,47.4312],[28.1576,47.4511],[28.1517,47.5685],[28.3333,47.5587],[28.3612,47.5656],[28.3843,47.6655],[28.3848,47.6927],[28.418,47.6993],[28.5282,47.7368],[28.5695,47.7248],[28.6098,47.705]]]}},{"type":"Feature","properties":{"code":"MD015","name":"Rezina"},"geometry":{"type":"Polygon","coordinates":[[[29.0156,47.5389],[28.9088,47.5691],[28.8666,47.5767],[28.7638,47.5748],[28.6722,47.6366],[28.6085,47.6633],[28.6098,47.705],[28.6514,47.7154],[28.825,47.7836],[28.9146,47.8489],[28.9264,47.8782],[28.9564,47.8807],[28.9902,47.8713],[29.016,47.8571],[29.0111,47.829],[28.971,47.7276],[28.9737,47.6971],[29.0156,47.5389]]]}},{"type":"Feature","properties":{"code":"MD016","name":"Ungheni"},"geometry":{"type":"Polygon","coordinates":[[[27.951,47.4838],[28.0241,47.457],[28.0632,47.452],[28.1576,47.4511],[28.188,47.4312],[28.1906,47.3847],[28.13,47.3464],[28.0604,47.2645],[28.0216,47.2603],[27.9902,47.2402],[27.9592,47.1745],[27.9637,47.1452],[28.0282,47.0767],[28.0401,47.0398],[28.0033,47.0401],[27.9192,47.069],[27.7251,47.2854],[27.7043,47.3047],[27.5935,47.3729],[27.8204,47.4236],[27.8495,47.4365],[27.8698,47.4675],[27.8927,47.4897],[27.951,47.4838]]]}},{"type":"Feature","properties":{"code":"MD017","name":"Calarasi"},"geometry":{"type":"Polygon","coordinates":[[[28.5055,47.4215],[28.5319,47.356],[28.5372,47.322],[28.4765,47.295],[28.4511,47.2742],[28.4622,47.2346],[28.4633,47.203],[28.3483,47.1686],[28.3111,47.1617],[28.2466,47.1763],[28.0865,47.2476],[28.0604,47.2645],[28.13,47.3464],[28.1906,47.3847],[28.188,47.4312],[28.4696,47.4299],[28.5055,47.4215]]]}},{"type":"Feature","properties":{"code":"MD018","name":"Orhei"},"geometry":{"type":"Polygon","coordinates":[[[29.0156,47.5389],[29.0391,47.5234],[29.0873,47.4796],[29.1065,47.4497],[29.084,47.4216],[29.0499,47.407],[29.0151,47.3205],[28.803,47.2615],[28.793,47.1812],[28.7694,47.1997],[28.6724,47.2514],[28.6471,47.2746],[28.632,47.3022],[28.6084,47.3283],[28.5372,47.322],[28.5319,47.356],[28.5055,47.4215],[28.5307,47.4498],[28.696,47.5508],[28.7068,47.6156],[28.7638,47.5748],[28.8666,47.5767],[28.9088,47.5691],[29.0156,47.5389]]]}},{"type":"Feature","properties":{"code":"MD019","name":"Nisporeni"},"geometry":{"type":"Polygon","coordinates":[[[28.2466,47.1763],[28.2474,47.1425],[28.3253,47.0744],[28.301,47.0413],[28.2455,46.9259],[28.2151,46.9207],[28.1805,46.9337],[28.1099,46.9254],[28.0761,46.9694],[28.0401,47.0398],[28.0282,47.0767],[27.9637,47.1452],[27.9592,47.1745],[27.9902,47.2402],[28.0216,47.2603],[28.0604,47.2645],[28.0865,47.2476],[28.2466,47.1763]]]}},{"type":"Feature","properties":{"code":"MD020","name":"Straseni"},"geometry":{"type":"Polygon","coordinates":[[[28.793,47.1812],[28.7813,47.14],[28.7434,47.1213],[28.6858,47.0768],[28.6618,47.0459],[28.6273,47.0315],[28.5913,47.0281],[28.5013,47.0561],[28.4754,47.0539],[28.4411,47.0644],[28.3253,47.0744],[28.2474,47.1425],[28.2466,47.1763],[28.3111,47.1617],[28.3483,47.1686],[28.4633,47.203],[28.4622,47.2346],[28.4511,47.2742],[28.4765,47.295],[28.5372,47.322],[28.5723,47.3269],[28.6084,47.3283],[28.632,47.3022],[28.6471,47.2746],[28.6724,47.2514],[28.7694,47.1997],[28.793,47.1812]]]}},{"type":"Feature","properties":{"code":"MD021","name":"Dubasari"},"geometry":{"type":"MultiPolygon","coordinates":[[[[29.2525,47.1521],[29.2183,47.1529],[29.1803,47.1464],[29.1182,47.0796],[29.0784,47.1047],[29.1012,47.1396],[29.1604,47.1899],[29.1793,47.2124],[29.2129,47.2214],[29.3119,47.2657],[29.3495,47.2737],[29.335,47.2432],[29.2617,47.1759],[29.2525,47.1521]]],[[[29.1523,47.239],[29.1172,47.2321],[29.0931,47.2219],[29.0742,47.2941],[29.0466,47.3109],[29.0151,47.3205],[29.0499,47.407],[29.084,47.4216],[29.1834,47.3397],[29.2099,47.3428],[29.2386,47.3533],[29.2707,47.3527],[29.2418,47.3263],[29.167,47.2987],[29.1333,47.2804],[29.1523,47.239]]]]}},{"type":"Feature","properties":{"code":"MD022","name":"mun. Chisinau"},"geometry":{"type":"Polygon","coordinates":[[[29.0784,47.1047],[29.1182,47.0796],[29.0871,47.0698],[28.9858,47.0515],[28.975,47.0177],[28.9824,46.9451],[29.0208,46.929],[29.0254,46.8947],[29.0167,46.8637],[28.9216,46.8693],[28.89,46.8765],[28.8273,46.9237],[28.7854,46.9695],[28.6618,47.0459],[28.6858,47.0768],[28.7434,47.1213],[28.7813,47.14],[28.8221,47.1182],[28.894,47.1404],[28.9442,47.0922],[29.0402,47.1049],[29.0784,47.1047]]]}},{"type":"Feature","properties":{"code":"MD023","name":"Criuleni"},"geometry":{"type":"MultiPolygon","coordinates":[[[[28.9792,46.9872],[28.975,47.0177],[28.9858,47.0515],[29.0871,47.0698],[29.1182,47.0796],[29.1803,47.1464],[29.2183,47.1529],[29.2525,47.1521],[29.2843,47.1449],[29.2809,47.1157],[29.26,47.097],[29.248,47.0733],[29.2449,47.0393],[29.2123,47.0146],[29.1521,46.9865],[29.1242,46.9811],[29.1029,47.0018],[29.0763,47.0143],[28.9792,46.9872]]],[[[29.1523,47.239],[29.1793,47.2124],[29.1604,47.1899],[29.1012,47.1396],[29.0784,47.1047],[29.0402,47.1049],[28.9442,47.0922],[28.894,47.1404],[28.8221,47.1182],[28.7813,47.14],[28.793,47.1812],[28.803,47.2615],[29.0151,47.3205],[29.0466,47.3109],[29.0742,47.2941],[29.0931,47.2219],[29.1172,47.2321],[29.1523,47.239]]]]}},{"type":"Feature","properties":{"code":"MD024","name":"Hincesti"},"geometry":{"type":"Polygon","coordinates":[[[28.4754,47.0539],[28.5152,47.0058],[28.5425,46.9819],[28.6981,46.8784],[28.7088,46.8489],[28.7213,46.7649],[28.5804,46.6631],[28.5545,46.6658],[28.3993,46.704],[28.3912,46.6243],[28.3194,46.607],[28.3046,46.6281],[28.2754,46.6357],[28.249,46.6267],[28.2376,46.6812],[28.1836,46.773],[28.1632,46.8025],[28.1086,46.8486],[28.1099,46.9254],[28.1805,46.9337],[28.2151,46.9207],[28.2455,46.9259],[28.301,47.0413],[28.3253,47.0744],[28.4411,47.0644],[28.4754,47.0539]]]}},{"type":"Feature","properties":{"code":"MD025","name":"Ialoveni"},"geometry":{"type":"Polygon","coordinates":[[[28.6618,47.0459],[28.7854,46.9695],[28.8273,46.9237],[28.89,46.8765],[28.9216,46.8693],[29.0583,46.8612],[29.0714,46.8266],[29.0741,46.7588],[29.0687,46.7229],[28.9669,46.6913],[28.9385,46.6872],[28.912,46.7154],[28.8718,46.7419],[28.846,46.7101],[28.82,46.7163],[28.761,46.7502],[28.7213,46.7649],[28.7088,46.8489],[28.6981,46.8784],[28.5425,46.9819],[28.5152,47.0058],[28.4754,47.0539],[28.5013,47.0561],[28.5913,47.0281],[28.6273,47.0315],[28.6618,47.0459]]]}},{"type":"Feature","properties":{"code":"MD026","name":"Anenii Noi"},"geometry":{"type":"Polygon","coordinates":[[[29.487,46.8631],[29.4536,46.8482],[29.4077,46.8376],[29.3963,46.812],[29.2851,46.7829],[29.2387,46.7318],[29.2004,46.7132],[29.1722,46.7138],[29.1469,46.7416],[29.0687,46.7229],[29.0741,46.7588],[29.0714,46.8266],[29.0583,46.8612],[29.0167,46.8637],[29.0254,46.8947],[29.0208,46.929],[28.9824,46.9451],[28.9792,46.9872],[29.0763,47.0143],[29.1029,47.0018],[29.1242,46.9811],[29.1521,46.9865],[29.2123,47.0146],[29.2449,47.0393],[29.248,47.0733],[29.26,47.097],[29.2809,47.1157],[29.3416,47.1001],[29.3645,47.0711],[29.3719,47.0268],[29.3284,47.0064],[29.3024,46.987],[29.3469,46.9462],[29.3889,46.9458],[29.4187,46.9565],[29.444,46.9545],[29.4742,46.9043],[29.487,46.8631]]]}},{"type":"Feature","properties":{"code":"MD027","name":"Leova"},"geometry":{"type":"Polygon","coordinates":[[[28.5804,46.6631],[28.5736,46.5458],[28.5615,46.5181],[28.5546,46.4741],[28.53,46.4457],[28.5425,46.4156],[28.5683,46.3964],[28.565,46.3711],[28.5466,46.3455],[28.4863,46.3851],[28.466,46.4047],[28.4263,46.392],[28.2725,46.3871],[28.2339,46.3806],[28.2435,46.4492],[28.249,46.6267],[28.2754,46.6357],[28.3046,46.6281],[28.3194,46.607],[28.3912,46.6243],[28.3993,46.704],[28.5545,46.6658],[28.5804,46.6631]]]}},{"type":"Feature","properties":{"code":"MD028","name":"Cimislia"},"geometry":{"type":"Polygon","coordinates":[[[28.9385,46.6872],[28.9624,46.6123],[29.0003,46.6042],[29.0469,46.607],[29.0611,46.563],[29.0533,46.5134],[29.0134,46.499],[28.979,46.4972],[28.9558,46.5299],[28.8415,46.4641],[28.8169,46.4375],[28.7884,46.4317],[28.7624,46.4158],[28.7331,46.4206],[28.6417,46.4558],[28.5546,46.4741],[28.5615,46.5181],[28.5736,46.5458],[28.5804,46.6631],[28.7213,46.7649],[28.761,46.7502],[28.82,46.7163],[28.846,46.7101],[28.8718,46.7419],[28.912,46.7154],[28.9385,46.6872]]]}},{"type":"Feature","properties":{"code":"MD029","name":"Causeni"},"geometry":{"type":"Polygon","coordinates":[[[29.6785,46.6776],[29.4973,46.6157],[29.4694,46.5969],[29.425,46.5574],[29.4049,46.5328],[29.4316,46.4982],[29.4163,46.4707],[29.3954,46.4531],[29.3581,46.4535],[29.0533,46.5134],[29.0611,46.563],[29.0469,46.607],[29.0003,46.6042],[28.9624,46.6123],[28.9385,46.6872],[28.9669,46.6913],[29.1049,46.7343],[29.1469,46.7416],[29.1722,46.7138],[29.2004,46.7132],[29.2387,46.7318],[29.2851,46.7829],[29.3963,46.812],[29.4356,46.8087],[29.5367,46.7892],[29.5629,46.7888],[29.5769,46.8139],[29.6142,46.8159],[29.6563,46.8051],[29.6754,46.777],[29.6868,46.7432],[29.6785,46.6776]]]}},{"type":"Feature","properties":{"code":"MD030","name":"mun. Tighina"},"geometry":{"type":"Polygon","coordinates":[[[29.5027,46.797],[29.4356,46.8087],[29.3963,46.812],[29.4077,46.8376],[29.4536,46.8482],[29.487,46.8631],[29.5027,46.797]]]}},{"type":"Feature","properties":{"code":"MD031","name":"Transnistria"},"geometry":{"type":"Polygon","coordinates":[[[29.9097,46.5375],[29.7549,46.6074],[29.751,46.6331],[29.7575,46.662],[29.6785,46.6776],[29.6868,46.7432],[29.6754,46.777],[29.6563,46.8051],[29.6142,46.8159],[29.5769,46.8139],[29.5629,46.7888],[29.5367,46.7892],[29.5027,46.797],[29.4742,46.9043],[29.444,46.9545],[29.4187,46.9565],[29.3889,46.9458],[29.3469,46.9462],[29.3024,46.987],[29.3284,47.0064],[29.3719,47.0268],[29.3645,47.0711],[29.3416,47.1001],[29.2809,47.1157],[29.2843,47.1449],[29.2525,47.1521],[29.2617,47.1759],[29.335,47.2432],[29.3495,47.2737],[29.3119,47.2657],[29.2129,47.2214],[29.1793,47.2124],[29.1523,47.239],[29.1333,47.2804],[29.167,47.2987],[29.2418,47.3263],[29.2707,47.3527],[29.2386,47.3533],[29.2099,47.3428],[29.1834,47.3397],[29.084,47.4216],[29.1065,47.4497],[29.0873,47.4796],[29.0391,47.5234],[29.0156,47.5389],[28.9737,47.6971],[28.971,47.7276],[29.0111,47.829],[29.016,47.8571],[28.9902,47.8713],[28.9564,47.8807],[28.9264,47.8782],[28.8994,47.8899],[28.837,47.905],[28.8263,47.9447],[28.7899,47.963],[28.7492,47.9741],[28.7264,47.9992],[28.6962,48.0144],[28.6362,48.0268],[28.579,47.9989],[28.5525,48.006],[28.5288,48.029],[28.6276,48.0776],[28.5148,48.1147],[28.5246,48.1434],[28.5475,48.1634],[28.5849,48.1658],[28.8348,48.1293],[28.8398,48.0696],[28.8555,48.0278],[29.0096,47.9547],[29.0426,47.9463],[29.1493,47.9839],[29.1795,47.982],[29.2474,47.7597],[29.2439,47.726],[29.2174,47.6196],[29.1937,47.5982],[29.144,47.5692],[29.1253,47.5449],[29.1797,47.4562],[29.2175,47.45],[29.285,47.4506],[29.3174,47.4438],[29.3366,47.4182],[29.3923,47.3153],[29.4288,47.292],[29.5442,47.2549],[29.5654,47.2234],[29.6116,47.1097],[29.611,47.0662],[29.6021,46.9982],[29.6067,46.9618],[29.8601,46.8934],[29.8928,46.8777],[29.9574,46.7818],[29.9751,46.7402],[29.9526,46.5917],[29.9415,46.56],[29.9097,46.5375]]]}},{"type":"Feature","properties":{"code":"MD032","name":"Stefan-Voda"},"geometry":{"type":"Polygon","coordinates":[[[29.9097,46.5375],[29.9483,46.5127],[30.0317,46.4726],[30.066,46.4488],[30.0372,46.4272],[29.8184,46.386],[29.7751,46.3946],[29.4316,46.4982],[29.4049,46.5328],[29.425,46.5574],[29.4973,46.6157],[29.6785,46.6776],[29.7575,46.662],[29.751,46.6331],[29.7549,46.6074],[29.9097,46.5375]]]}},{"type":"Feature","properties":{"code":"MD033","name":"Cantemir"},"geometry":{"type":"Polygon","coordinates":[[[28.4863,46.3851],[28.4686,46.3618],[28.5491,46.2828],[28.5448,46.1956],[28.5143,46.1881],[28.4845,46.1696],[28.5008,46.1328],[28.475,46.1118],[28.4362,46.0928],[28.401,46.0824],[28.3274,46.1286],[28.3001,46.1356],[28.2306,46.1033],[28.1429,46.1049],[28.1072,46.0926],[28.1181,46.1366],[28.1112,46.2029],[28.123,46.2492],[28.2097,46.3601],[28.2339,46.3806],[28.2725,46.3871],[28.4263,46.392],[28.466,46.4047],[28.4863,46.3851]]]}},{"type":"Feature","properties":{"code":"MD034","name":"Basarabeasca"},"geometry":{"type":"Polygon","coordinates":[[[28.979,46.4972],[28.979,46.4613],[28.9561,46.2895],[28.9456,46.2651],[28.9083,46.2888],[28.8684,46.2906],[28.7894,46.2782],[28.7475,46.2833],[28.7579,46.3202],[28.8597,46.3405],[28.8579,46.3764],[28.8439,46.4046],[28.8169,46.4375],[28.8415,46.4641],[28.9558,46.5299],[28.979,46.4972]]]}},{"type":"Feature","properties":{"code":"MD035","name":"Taraclia"},"geometry":{"type":"MultiPolygon","coordinates":[[[[28.6436,45.7995],[28.6169,45.7722],[28.5812,45.7517],[28.5415,45.7414],[28.5211,45.7718],[28.4285,45.8055],[28.4023,45.8207],[28.3909,45.8603],[28.4335,45.8826],[28.4643,45.8588],[28.54,45.8434],[28.5864,45.805],[28.615,45.8082],[28.6436,45.7995]]],[[[28.8009,45.9858],[28.7935,45.9471],[28.7781,45.9075],[28.7503,45.8744],[28.5705,45.8601],[28.4567,45.9],[28.4443,45.9337],[28.4388,46.0088],[28.4593,46.0417],[28.4812,46.0579],[28.4984,46.0358],[28.5891,45.9669],[28.6825,45.9618],[28.7161,45.9722],[28.7111,46.0152],[28.7131,46.0488],[28.7746,46.0588],[28.8009,45.9858]]]]}},{"type":"Feature","properties":{"code":"MD036","name":"Cahul"},"geometry":{"type":"MultiPolygon","coordinates":[[[[28.4883,45.6572],[28.5324,45.5982],[28.4381,45.5849],[28.435,45.6184],[28.4501,45.6546],[28.4883,45.6572]]],[[[28.475,46.1118],[28.5101,46.1021],[28.5424,46.0774],[28.5203,46.0495],[28.4984,46.0358],[28.4812,46.0579],[28.4593,46.0417],[28.4388,46.0088],[28.4443,45.9337],[28.4567,45.9],[28.3909,45.8603],[28.4023,45.8207],[28.4285,45.8055],[28.5211,45.7718],[28.5415,45.7414],[28.4987,45.7168],[28.3013,45.7437],[28.3047,45.5961],[28.3103,45.5459],[28.2405,45.4932],[28.2244,45.4723],[28.1966,45.4723],[28.1839,45.4969],[28.1023,45.5966],[28.0943,45.6954],[28.0868,46.0152],[28.1072,46.0926],[28.1429,46.1049],[28.2306,46.1033],[28.3001,46.1356],[28.3274,46.1286],[28.401,46.0824],[28.4362,46.0928],[28.475,46.1118]]]]}},{"type":"Feature","properties":{"code":"MD037","name":"UTA Gagauza"},"geometry":{"type":"MultiPolygon","coordinates":[[[[28.5324,45.5982],[28.5298,45.5603],[28.518,45.5119],[28.4889,45.5057],[28.3103,45.5459],[28.3047,45.5961],[28.3013,45.7437],[28.4987,45.7168],[28.4962,45.683],[28.4883,45.6572],[28.4501,45.6546],[28.435,45.6184],[28.4381,45.5849],[28.5324,45.5982]]],[[[28.7503,45.8744],[28.7242,45.8432],[28.6963,45.8188],[28.6436,45.7995],[28.615,45.8082],[28.5864,45.805],[28.54,45.8434],[28.4643,45.8588],[28.4335,45.8826],[28.4567,45.9],[28.5705,45.8601],[28.7503,45.8744]]],[[[28.8169,46.4375],[28.8439,46.4046],[28.8579,46.3764],[28.8597,46.3405],[28.7579,46.3202],[28.7475,46.2833],[28.7894,46.2782],[28.8684,46.2906],[28.9083,46.2888],[28.9964,46.2308],[28.9687,46.1497],[28.9051,45.9987],[28.8776,45.9872],[28.8411,45.9813],[28.8009,45.9858],[28.7746,46.0588],[28.7131,46.0488],[28.7111,46.0152],[28.7161,45.9722],[28.6825,45.9618],[28.5891,45.9669],[28.4984,46.0358],[28.5203,46.0495],[28.5424,46.0774],[28.5101,46.1021],[28.475,46.1118],[28.5008,46.1328],[28.4845,46.1696],[28.5143,46.1881],[28.5448,46.1956],[28.5491,46.2828],[28.4686,46.3618],[28.4863,46.3851],[28.5466,46.3455],[28.565,46.3711],[28.5683,46.3964],[28.5425,46.4156],[28.53,46.4457],[28.5546,46.4741],[28.6417,46.4558],[28.7331,46.4206],[28.7624,46.4158],[28.7884,46.4317],[28.8169,46.4375]]]]}}]}