{"type":"FeatureCollection","features":[{"type":"Feature","properties":{"code":"ME001","name":"Continental and Mountains"},"geometry":{"type":"Polygon","coordinates":[[[19.1818,43.5176],[19.2603,43.3983],[19.2915,43.3616],[19.6281,43.1936],[19.9055,43.0839],[20.2534,42.9086],[20.2573,42.8693],[20.2111,42.757],[20.1813,42.7479],[20.0239,42.7454],[20.0,42.7345],[20.0285,42.6084],[20.0448,42.5741],[20.0778,42.5626],[20.025,42.5239],[19.9769,42.5134],[19.9311,42.5112],[19.8618,42.4849],[19.8246,42.4922],[19.7849,42.5096],[19.7619,42.5425],[19.7374,42.6631],[19.7074,42.6572],[19.6836,42.6407],[19.6527,42.6382],[19.557,42.7105],[19.5233,42.7235],[19.4911,42.7023],[19.4507,42.6666],[19.4171,42.6628],[19.2847,42.6673],[19.1476,42.6953],[19.101,42.6981],[19.0586,42.6948],[18.9699,42.6314],[18.9411,42.6185],[18.7811,42.6892],[18.7418,42.7004],[18.7162,42.6752],[18.7006,42.6456],[18.6671,42.62],[18.6332,42.6166],[18.5476,42.596],[18.4533,42.5988],[18.4449,42.6298],[18.4747,42.8534],[18.4908,42.9423],[18.5024,42.9748],[18.6957,43.2607],[18.9867,43.4835],[19.0079,43.5051],[19.0392,43.517],[19.1459,43.5222],[19.1818,43.5176]]]}},{"type":"Feature","properties":{"code":"ME002","name":"Adriatic coast"},"geometry":{"type":"MultiPolygon","coordinates":[[[[19.0885,42.3201],[19.0961,42.2915],[19.1369,42.2255],[19.3845,42.0806],[19.3911,42.0279],[19.3842,41.8725],[19.3617,41.8501],[18.7995,42.277],[18.6392,42.4108],[18.6658,42.428],[18.7342,42.4398],[18.761,42.4543],[18.7702,42.4955],[18.7833,42.4713],[18.8054,42.4002],[18.808,42.3735],[18.8222,42.3442],[18.9124,42.3206],[19.0001,42.2711],[19.066,42.2978],[19.0885,42.3201]]],[[[18.6671,42.62],[18.685,42.5798],[18.7414,42.5066],[18.6987,42.5096],[18.6676,42.5063],[18.5484,42.4685],[18.5147,42.4482],[18.501,42.4244],[18.4873,42.461],[18.4493,42.5289],[18.4343,42.5665],[18.4533,42.5988],[18.5476,42.596],[18.6332,42.6166],[18.6671,42.62]]]]}},{"type":"Feature","properties":{"code":"ME003","name":"Central"},"geometry":{"type":"Polygon","coordinates":[[[19.6527,42.6382],[19.6493,42.6113],[19.4355,42.3729],[19.3602,42.2624],[19.3349,42.2395],[19.2256,42.2548],[19.1895,42.2645],[19.1197,42.3111],[19.0885,42.3201],[19.066,42.2978],[19.0001,42.2711],[18.9124,42.3206],[18.8222,42.3442],[18.808,42.3735],[18.8054,42.4002],[18.7833,42.4713],[18.7702,42.4955],[18.7414,42.5066],[18.685,42.5798],[18.6671,42.62],[18.7006,42.6456],[18.7162,42.6752],[18.7418,42.7004],[18.7811,42.6892],[18.9411,42.6185],[18.9699,42.6314],[19.0586,42.6948],[19.101,42.6981],[19.1476,42.6953],[19.2847,42.6673],[19.4171,42.6628],[19.4507,42.6666],[19.4911,42.7023],[19.5233,42.7235],[19.557,42.7105],[19.6527,42.6382]]]}}]}