{"type":"FeatureCollection","features":[{"type":"Feature","properties":{"code":"MK001","name":"Vardar Region"},"geometry":{"type":"Polygon","coordinates":[[[21.4055,41.7032],[21.3945,41.7165],[21.3842,41.7144],[21.3931,41.6883],[21.3883,41.6832],[21.3986,41.6652],[21.3904,41.6555],[21.3691,41.6493],[21.3753,41.6057],[21.4227,41.5975],[21.4295,41.5908],[21.4295,41.5826],[21.4446,41.5723],[21.4439,41.5667],[21.4645,41.5559],[21.4618,41.5333],[21.481,41.5003],[21.492,41.5045],[21.5359,41.4993],[21.5401,41.4839],[21.6074,41.454],[21.628,41.4571],[21.6472,41.4407],[21.6747,41.4468],[21.6705,41.4623],[21.7159,41.4849],[21.7392,41.488],[21.7749,41.4602],[21.7859,41.4273],[21.8202,41.4407],[21.8271,41.4221],[21.8161,41.4139],[21.823,41.382],[21.8422,41.3572],[21.8285,41.351],[21.812,41.3108],[21.8381,41.2799],[21.8738,41.2861],[21.8958,41.2788],[21.871,41.253],[21.8724,41.2117],[21.893,41.1983],[21.8875,41.1714],[21.8765,41.1652],[21.893,41.1569],[21.8985,41.1445],[21.9328,41.1404],[21.9273,41.1259],[21.9164,41.1249],[21.9273,41.1021],[21.9524,41.1099],[21.9768,41.1306],[22.0293,41.1324],[22.0636,41.16],[22.1316,41.1226],[22.1721,41.1569],[22.2065,41.1616],[22.2226,41.2004],[22.2432,41.2019],[22.2689,41.2148],[22.2676,41.2249],[22.2432,41.2437],[22.2992,41.2546],[22.2902,41.3088],[22.3009,41.3175],[22.2974,41.3302],[22.3218,41.3356],[22.3204,41.3415],[22.3283,41.3366],[22.3565,41.3441],[22.3517,41.3557],[22.3689,41.3562],[22.3537,41.3701],[22.3733,41.3809],[22.3737,41.3887],[22.338,41.3928],[22.3325,41.4131],[22.3445,41.4304],[22.3338,41.4453],[22.3513,41.4744],[22.3476,41.4826],[22.3125,41.4985],[22.2906,41.5417],[22.2734,41.5448],[22.2652,41.5559],[22.2507,41.5479],[22.2144,41.5641],[22.1838,41.5869],[22.178,41.6021],[22.1556,41.6052],[22.1268,41.599],[22.1107,41.6573],[22.0983,41.6596],[22.0726,41.6301],[22.0523,41.6555],[22.0235,41.6701],[21.9672,41.675],[21.9692,41.6924],[21.9534,41.7001],[21.9527,41.7165],[21.974,41.7278],[21.9788,41.7355],[22.0001,41.7206],[22.0118,41.7247],[22.0001,41.7303],[22.0077,41.739],[22.018,41.7329],[22.0248,41.7396],[22.0166,41.7431],[22.0228,41.7498],[22.0331,41.7401],[22.0413,41.7411],[22.0509,41.7303],[22.0496,41.7508],[22.0578,41.7626],[22.0448,41.7867],[22.0647,41.7882],[22.112,41.8358],[22.0956,41.8563],[22.112,41.888],[22.0963,41.8997],[22.1278,41.9007],[22.0599,41.9631],[22.0303,41.9789],[22.0255,41.9947],[22.0379,42.0029],[22.0351,42.0146],[22.02,42.0218],[21.937,41.9871],[21.9218,42.0207],[21.869,42.007],[21.8511,41.9922],[21.8573,41.9825],[21.8264,41.962],[21.8099,41.9186],[21.7426,41.9013],[21.7522,41.8742],[21.7337,41.822],[21.72,41.8199],[21.6987,41.8368],[21.6743,41.8184],[21.6764,41.8348],[21.6355,41.834],[21.6396,41.7961],[21.6118,41.759],[21.5775,41.7511],[21.5699,41.76],[21.526,41.7536],[21.5208,41.769],[21.4937,41.7603],[21.4515,41.7549],[21.4384,41.7257],[21.4055,41.7032]]]}},{"type":"Feature","properties":{"code":"MK002","name":"Eastern Region"},"geometry":{"type":"Polygon","coordinates":[[[22.969,41.5199],[22.9601,41.5394],[22.9779,41.5579],[22.9491,41.5929],[22.9532,41.6462],[22.9848,41.6524],[23.0342,41.7129],[23.0081,41.7703],[22.9724,41.7693],[22.9106,41.8777],[22.9037,41.8747],[22.8983,41.9074],[22.879,41.9217],[22.879,41.9962],[22.8612,42.0003],[22.868,42.0218],[22.8227,42.0177],[22.7994,42.0493],[22.7884,42.035],[22.7541,42.0462],[22.7156,42.0687],[22.6868,42.0625],[22.592,42.1084],[22.5179,42.1542],[22.3613,42.1196],[22.3846,42.0891],[22.3627,42.0452],[22.2638,42.0758],[22.2583,42.0248],[22.2212,42.0483],[22.2089,42.034],[22.191,42.0524],[22.0949,42.034],[22.0811,42.0085],[22.0345,42.0218],[22.0235,41.9932],[22.0811,41.9452],[22.1169,41.9002],[22.0949,41.8604],[22.1072,41.8348],[22.0715,41.7897],[22.0468,41.7867],[22.0578,41.7682],[22.0482,41.7324],[22.018,41.7488],[22.0248,41.7385],[22.018,41.7314],[22.0084,41.7385],[22.0029,41.7334],[22.0084,41.7262],[21.9974,41.7211],[21.9809,41.7314],[21.9493,41.7109],[21.9562,41.6924],[21.9713,41.6965],[21.9754,41.6893],[21.9658,41.6698],[22.0317,41.6647],[22.077,41.6308],[22.1072,41.6575],[22.1292,41.6],[22.1539,41.6062],[22.1786,41.598],[22.1786,41.5887],[22.2487,41.5497],[22.2652,41.5548],[22.3421,41.6103],[22.3174,41.6226],[22.3283,41.6411],[22.3132,41.6544],[22.3064,41.676],[22.3297,41.6914],[22.3819,41.6821],[22.4176,41.7262],[22.43,41.76],[22.467,41.7846],[22.5069,41.7641],[22.5522,41.7693],[22.6318,41.7344],[22.6579,41.6965],[22.6414,41.6657],[22.6442,41.6257],[22.6689,41.6452],[22.7019,41.6216],[22.6909,41.5816],[22.7225,41.5877],[22.7664,41.5733],[22.7678,41.5579],[22.809,41.5404],[22.8145,41.5271],[22.8639,41.5415],[22.8763,41.525],[22.8869,41.5299],[22.9007,41.5212],[22.947,41.5266],[22.9645,41.5181],[22.969,41.5199]]]}},{"type":"Feature","properties":{"code":"MK003","name":"Southwestern Region"},"geometry":{"type":"Polygon","coordinates":[[[21.3794,41.6272],[21.3698,41.6514],[21.3979,41.6693],[21.3801,41.7103],[21.3931,41.718],[21.3753,41.739],[21.3375,41.7308],[21.2757,41.7887],[21.2565,41.8256],[21.2016,41.8547],[21.1954,41.846],[21.1425,41.844],[21.0958,41.7964],[21.021,41.7908],[21.0072,41.7759],[21.0381,41.7088],[21.0574,41.6965],[21.0512,41.6611],[21.0443,41.6657],[20.9599,41.6432],[20.9544,41.6544],[20.8981,41.675],[20.8363,41.6678],[20.8115,41.6473],[20.7985,41.6509],[20.78,41.6272],[20.8143,41.6247],[20.8363,41.5862],[20.8102,41.5841],[20.782,41.488],[20.7559,41.4926],[20.7491,41.5101],[20.7319,41.4937],[20.7092,41.5101],[20.6831,41.5081],[20.6605,41.5261],[20.6687,41.5389],[20.6364,41.5333],[20.6138,41.5523],[20.598,41.5502],[20.5589,41.5816],[20.5218,41.5636],[20.4593,41.5564],[20.4576,41.5502],[20.4682,41.543],[20.4727,41.5327],[20.4528,41.5225],[20.4593,41.5096],[20.4789,41.5073],[20.4692,41.497],[20.4795,41.4988],[20.5043,41.4757],[20.508,41.4553],[20.5125,41.4517],[20.507,41.4456],[20.5163,41.4376],[20.5403,41.436],[20.5386,41.427],[20.5575,41.4175],[20.5616,41.4028],[20.5468,41.3871],[20.5513,41.3776],[20.5365,41.3595],[20.5245,41.3549],[20.5187,41.3379],[20.4981,41.3474],[20.4974,41.3371],[20.4902,41.3309],[20.5012,41.3253],[20.5207,41.245],[20.5142,41.2306],[20.5317,41.2104],[20.5324,41.2006],[20.5599,41.1838],[20.5801,41.1582],[20.5966,41.1285],[20.5829,41.1138],[20.5949,41.0933],[20.6721,41.084],[20.7315,40.9112],[20.7611,40.9024],[20.7745,40.9047],[20.8026,40.8979],[20.827,40.9065],[20.837,40.9312],[20.8331,40.9612],[20.8809,41.0283],[20.8751,41.0522],[20.8998,41.0584],[20.9101,41.1329],[21.0433,41.2179],[21.0134,41.2458],[21.0079,41.2701],[20.9976,41.2886],[20.9626,41.2969],[20.9496,41.3247],[20.9846,41.349],[21.0203,41.3619],[21.0711,41.3557],[21.1047,41.3717],[21.1095,41.3845],[21.1343,41.3984],[21.1281,41.4185],[21.1507,41.4371],[21.2283,41.4432],[21.2606,41.4782],[21.2565,41.4937],[21.308,41.5111],[21.3348,41.5003],[21.3375,41.561],[21.3773,41.6072],[21.3794,41.6272]]]}},{"type":"Feature","properties":{"code":"MK004","name":"Southeastern Region"},"geometry":{"type":"Polygon","coordinates":[[[22.2659,41.5559],[22.2741,41.5456],[22.2906,41.541],[22.3125,41.4988],[22.3483,41.4823],[22.3517,41.4741],[22.3345,41.4448],[22.3455,41.4299],[22.3325,41.4129],[22.3386,41.3923],[22.3737,41.3881],[22.3737,41.3804],[22.3544,41.3696],[22.3675,41.3562],[22.351,41.3557],[22.3558,41.3438],[22.3263,41.3371],[22.3208,41.3418],[22.3201,41.3345],[22.2981,41.3294],[22.3016,41.3165],[22.2899,41.3088],[22.2981,41.2541],[22.2432,41.2437],[22.2679,41.2252],[22.2693,41.2148],[22.2432,41.2014],[22.2226,41.2004],[22.2116,41.1725],[22.2418,41.1626],[22.2604,41.1673],[22.2748,41.1626],[22.2789,41.1544],[22.2899,41.1554],[22.3077,41.1445],[22.3208,41.1528],[22.329,41.1207],[22.3489,41.1347],[22.4011,41.1383],[22.4197,41.1182],[22.4815,41.1197],[22.5604,41.1301],[22.59,41.1171],[22.6428,41.1642],[22.6476,41.1823],[22.6669,41.1864],[22.7122,41.1409],[22.7348,41.1466],[22.7444,41.1626],[22.7596,41.2706],[22.7568,41.2778],[22.765,41.2923],[22.7589,41.299],[22.765,41.3237],[22.8076,41.3438],[22.82,41.333],[22.9381,41.3397],[22.9649,41.3536],[22.9669,41.3948],[22.9539,41.4196],[22.9724,41.4324],[22.9813,41.4484],[22.9621,41.4659],[22.9676,41.4741],[22.9614,41.4777],[22.9559,41.4937],[22.9697,41.5045],[22.9683,41.5199],[22.948,41.5266],[22.9003,41.5214],[22.8873,41.5302],[22.8759,41.525],[22.8639,41.5412],[22.8145,41.5279],[22.8097,41.5407],[22.7671,41.5589],[22.7657,41.5741],[22.7232,41.5877],[22.6899,41.5823],[22.7005,41.6219],[22.6693,41.6452],[22.6442,41.6262],[22.6411,41.6665],[22.6576,41.6965],[22.6311,41.7347],[22.5522,41.7695],[22.5062,41.7641],[22.4657,41.7844],[22.431,41.7603],[22.4183,41.7262],[22.3816,41.6829],[22.3301,41.6909],[22.3057,41.676],[22.3125,41.6544],[22.329,41.6406],[22.3184,41.6224],[22.3417,41.6098],[22.2659,41.5559]]]}},{"type":"Feature","properties":{"code":"MK005","name":"Pelagonia Region"},"geometry":{"type":"Polygon","coordinates":[[[20.8369,40.9312],[20.8486,40.9378],[20.9106,40.9161],[20.9178,40.9232],[20.9353,40.9243],[20.958,40.9118],[20.9665,40.9117],[20.9679,40.9052],[20.9799,40.8952],[20.9822,40.8559],[21.1506,40.8559],[21.206,40.8838],[21.2426,40.8746],[21.2608,40.8587],[21.2724,40.8642],[21.3136,40.8664],[21.3569,40.8776],[21.4158,40.9162],[21.4427,40.9173],[21.4651,40.9068],[21.4899,40.9116],[21.527,40.91],[21.5643,40.8785],[21.5677,40.8663],[21.5857,40.869],[21.5928,40.8646],[21.6032,40.8799],[21.6111,40.8774],[21.6195,40.8874],[21.6307,40.8878],[21.6372,40.8972],[21.6707,40.8985],[21.6647,40.9153],[21.6856,40.9417],[21.6935,40.9396],[21.704,40.9443],[21.7304,40.9301],[21.7552,40.926],[21.7852,40.9284],[21.79,40.9391],[21.8015,40.9424],[21.8073,40.9516],[21.8007,40.9566],[21.8001,40.9743],[21.8455,40.9958],[21.8489,41.0074],[21.8642,41.0214],[21.8837,41.0263],[21.8812,41.0403],[21.8971,41.0378],[21.9127,41.0514],[21.9045,41.0681],[21.9091,41.0916],[21.9291,41.1003],[21.916,41.1254],[21.928,41.1254],[21.9335,41.1407],[21.8985,41.1451],[21.8937,41.1572],[21.8741,41.1662],[21.8875,41.1712],[21.8944,41.1962],[21.8724,41.2076],[21.8683,41.2551],[21.8971,41.2799],[21.8752,41.2871],[21.8367,41.284],[21.8134,41.3108],[21.8271,41.351],[21.8449,41.3567],[21.8223,41.382],[21.814,41.4144],[21.8271,41.4211],[21.8209,41.4407],[21.7866,41.4273],[21.7742,41.4597],[21.7413,41.4885],[21.7179,41.4859],[21.6712,41.4628],[21.6753,41.4474],[21.6479,41.4407],[21.6297,41.4569],[21.607,41.4535],[21.5404,41.4836],[21.5366,41.4993],[21.4927,41.5047],[21.4814,41.5009],[21.4614,41.533],[21.4649,41.5559],[21.4433,41.5672],[21.445,41.5723],[21.4299,41.5816],[21.4305,41.5911],[21.4233,41.5977],[21.3753,41.6062],[21.3396,41.5589],[21.3354,41.4993],[21.3066,41.5106],[21.2572,41.4931],[21.2613,41.4767],[21.228,41.4427],[21.1521,41.4371],[21.1274,41.4183],[21.1329,41.3964],[21.1102,41.3825],[21.104,41.3701],[21.0718,41.3546],[21.0203,41.3619],[20.9839,41.3474],[20.9516,41.3242],[20.9626,41.2953],[20.9956,41.2866],[21.01,41.2695],[21.0155,41.2448],[21.0429,41.2169],[20.9825,41.1828],[20.9097,41.1321],[20.8987,41.0576],[20.8754,41.0514],[20.8809,41.0276],[20.8328,40.9612],[20.8369,40.9312]]]}},{"type":"Feature","properties":{"code":"MK006","name":"Polog Region"},"geometry":{"type":"Polygon","coordinates":[[[21.2132,42.1135],[21.2173,42.1318],[21.1665,42.1848],[21.1638,42.195],[21.0979,42.2061],[21.0127,42.1502],[20.9454,42.139],[20.9138,42.1267],[20.885,42.0952],[20.8411,42.0972],[20.826,42.0799],[20.7916,42.084],[20.7587,42.0483],[20.7669,42.0411],[20.7477,42.0197],[20.7491,41.9789],[20.7642,41.9554],[20.7532,41.9431],[20.7751,41.9145],[20.7477,41.8951],[20.7257,41.8634],[20.6776,41.8573],[20.6598,41.8757],[20.6186,41.8512],[20.5939,41.8767],[20.5595,41.8706],[20.5733,41.7928],[20.5486,41.7887],[20.5321,41.7734],[20.5376,41.7631],[20.517,41.7221],[20.5307,41.6986],[20.5156,41.6616],[20.5266,41.6503],[20.5238,41.6339],[20.5582,41.5836],[20.6461,41.5363],[20.6667,41.5394],[20.6598,41.5291],[20.7257,41.4921],[20.7477,41.5075],[20.7587,41.4921],[20.782,41.4911],[20.7875,41.5106],[20.7985,41.5199],[20.793,41.5343],[20.8095,41.5374],[20.8081,41.5846],[20.8397,41.5887],[20.8122,41.6247],[20.7806,41.6288],[20.7957,41.6493],[20.8163,41.6483],[20.8301,41.6698],[20.9042,41.675],[20.9523,41.6575],[20.9633,41.6421],[20.9949,41.6514],[21.0251,41.6534],[21.0347,41.6678],[21.0539,41.6575],[21.0471,41.6996],[21.0127,41.7785],[21.0265,41.7908],[21.1075,41.801],[21.1418,41.8399],[21.205,41.8512],[21.2393,41.8317],[21.2448,41.8839],[21.1789,41.9125],[21.1871,41.9809],[21.1528,42.0136],[21.1761,42.033],[21.1693,42.0483],[21.1954,42.0697],[21.1803,42.0911],[21.161,42.0819],[21.1583,42.1003],[21.2132,42.1135]]]}},{"type":"Feature","properties":{"code":"MK007","name":"Northeastern Region"},"geometry":{"type":"Polygon","coordinates":[[[21.8161,41.9636],[21.8573,41.9779],[21.8546,42.0003],[21.9205,42.0187],[21.9397,41.9881],[22.0139,42.0207],[22.0386,42.0207],[22.0798,42.0085],[22.0963,42.035],[22.1924,42.0513],[22.2061,42.035],[22.2226,42.0473],[22.2583,42.0228],[22.2638,42.0738],[22.3627,42.0452],[22.3846,42.086],[22.3599,42.1166],[22.5165,42.1532],[22.5,42.196],[22.4725,42.2041],[22.3627,42.3159],[22.2885,42.3484],[22.2995,42.3727],[22.2363,42.3565],[22.2446,42.3423],[22.1979,42.3382],[22.1677,42.3139],[22.0358,42.2997],[21.9397,42.3423],[21.9315,42.3098],[21.8985,42.3017],[21.8408,42.32],[21.8188,42.2956],[21.7996,42.2997],[21.7694,42.2529],[21.7365,42.2631],[21.709,42.2367],[21.5881,42.261],[21.5332,42.2468],[21.5112,42.2732],[21.4453,42.2814],[21.4398,42.2367],[21.4728,42.2407],[21.4975,42.2285],[21.514,42.2061],[21.5195,42.1777],[21.4975,42.1573],[21.5552,42.0697],[21.6129,42.0554],[21.6129,42.0819],[21.6403,42.0697],[21.6458,42.0432],[21.6623,42.0473],[21.6678,42.0309],[21.7035,42.033],[21.6925,41.9983],[21.7447,41.9758],[21.8024,41.986],[21.8161,41.9636]]]}},{"type":"Feature","properties":{"code":"MK008","name":"Skopje Region"},"geometry":{"type":"Polygon","coordinates":[[[21.2132,42.1145],[21.1583,42.0982],[21.1624,42.0819],[21.1789,42.0921],[21.1967,42.0697],[21.1693,42.0503],[21.1761,42.035],[21.1501,42.0126],[21.1899,41.9789],[21.1816,41.9125],[21.2448,41.8829],[21.2421,41.8327],[21.2984,41.758],[21.3478,41.7314],[21.3698,41.7385],[21.4082,41.7078],[21.4536,41.7529],[21.4769,41.7611],[21.573,41.757],[21.5813,41.7498],[21.6129,41.7611],[21.6431,41.802],[21.6293,41.8205],[21.6389,41.8348],[21.6486,41.8297],[21.6747,41.8338],[21.6705,41.8194],[21.7021,41.8358],[21.7337,41.8194],[21.7337,41.8532],[21.7516,41.8757],[21.7419,41.9043],[21.757,41.9033],[21.8106,41.9186],[21.8175,41.9656],[21.7928,41.9881],[21.7433,41.9758],[21.6939,42.0024],[21.7007,42.034],[21.6664,42.034],[21.665,42.0462],[21.6486,42.0462],[21.6389,42.0605],[21.6389,42.0727],[21.6087,42.0799],[21.6101,42.0524],[21.5552,42.0697],[21.5456,42.0992],[21.492,42.1593],[21.5181,42.1817],[21.5195,42.2082],[21.5016,42.2265],[21.4714,42.2397],[21.4288,42.2367],[21.3876,42.2468],[21.3396,42.2031],[21.3341,42.2122],[21.3382,42.1858],[21.3176,42.1715],[21.3245,42.1614],[21.3039,42.1461],[21.3217,42.1094],[21.2984,42.1074],[21.2476,42.0911],[21.2132,42.1145]]]}}]}