{"type":"FeatureCollection","features":[{"type":"Feature","properties":{"code":"MT001","name":"Malta"},"geometry":{"type":"MultiPolygon","coordinates":[[[[14.636,35.772],[14.541,35.7587],[14.5049,35.769],[14.3731,35.8232],[14.3401,35.8542],[14.3278,35.8893],[14.3213,35.9424],[14.3259,35.9715],[14.3891,35.9922],[14.4237,35.9958],[14.5194,35.9579],[14.6441,35.8798],[14.6492,35.8241],[14.636,35.772]]],[[[14.3081,35.9979],[14.2546,35.9874],[14.2177,35.9918],[14.1559,36.0225],[14.1383,36.0559],[14.1438,36.0856],[14.2354,36.0969],[14.3342,36.0636],[14.3567,36.0489],[14.3414,36.0134],[14.3081,35.9979]]]]}}]}