{"type":"FeatureCollection","features":[{"type":"Feature","properties":{"code":"NO001","name":"Aust-Agder"},"geometry":{"type":"Polygon","coordinates":[[[8.1875,58.1198],[8.1588,58.1495],[8.1114,58.2785],[8.041,58.3784],[7.66,58.7709],[7.5655,58.8617],[7.163,59.1179],[6.9586,59.1816],[6.8831,59.185],[6.8476,59.1921],[6.8286,59.2525],[6.8255,59.2786],[6.8651,59.3784],[6.9773,59.5754],[6.9961,59.6],[7.0875,59.6481],[7.1878,59.6746],[7.405,59.6575],[7.4688,59.6382],[7.5149,59.6082],[7.5357,59.5822],[7.6319,59.4409],[7.7503,59.2401],[7.7502,59.2143],[7.7374,59.1869],[7.7455,59.1599],[7.9362,58.9992],[7.967,58.977],[8.0071,58.9603],[8.082,58.9449],[8.7512,58.8388],[9.3566,58.7681],[9.1761,58.6598],[8.9135,58.5264],[8.8815,58.5044],[8.9295,58.5051],[8.8999,58.4709],[8.8704,58.4484],[8.8409,58.4371],[8.7951,58.4475],[8.7568,58.4287],[8.7077,58.3755],[8.5317,58.2687],[8.1875,58.1198]]]}},{"type":"Feature","properties":{"code":"NO002","name":"Vestfold"},"geometry":{"type":"Polygon","coordinates":[[[9.87,58.9631],[9.833,58.9878],[9.8132,59.0296],[9.8183,59.0763],[9.7765,59.3873],[9.7662,59.4109],[9.7992,59.4237],[10.311,59.6851],[10.3395,59.6975],[10.3637,59.6839],[10.406,59.6309],[10.4222,59.5947],[10.5242,59.3246],[10.514,59.2875],[10.4958,59.268],[10.4716,59.2495],[10.443,59.2408],[10.4582,59.1951],[10.4446,59.1577],[10.4183,59.1438],[10.4207,59.0983],[10.4092,59.0656],[10.3873,59.0952],[10.3691,59.1638],[10.3404,59.1704],[10.3149,59.1022],[10.3073,59.0642],[10.2799,59.045],[10.1616,59.0096],[10.0137,58.9734],[9.9713,58.9672],[9.87,58.9631]]]}},{"type":"Feature","properties":{"code":"NO003","name":"Rogaland"},"geometry":{"type":"MultiPolygon","coordinates":[[[[5.8586,59.1797],[5.8247,59.1413],[5.7838,59.1455],[5.7789,59.1776],[5.8155,59.1953],[5.8586,59.1797]]],[[[5.4627,59.1784],[5.4185,59.1611],[5.3796,59.1722],[5.3929,59.2362],[5.4482,59.2065],[5.4627,59.1784]]],[[[6.9261,59.1839],[6.6764,58.9947],[6.6016,58.9332],[6.5762,58.8989],[6.5218,58.7741],[6.5415,58.6944],[6.5604,58.6549],[6.6003,58.595],[6.6095,58.568],[6.6308,58.4487],[6.6096,58.3864],[6.5723,58.3366],[6.542,58.3187],[6.3847,58.2725],[6.0766,58.368],[6.0482,58.3801],[6.0182,58.4034],[5.9856,58.4162],[5.9463,58.4137],[5.8854,58.4315],[5.9093,58.4607],[5.8684,58.4686],[5.7877,58.4943],[5.6676,58.5525],[5.55,58.6644],[5.522,58.724],[5.516,58.7497],[5.5573,58.9674],[5.5753,59.0229],[5.6091,59.0369],[5.648,59.0413],[5.7264,59.0617],[5.6913,59.0831],[5.6511,59.0778],[5.6249,59.0849],[5.5987,59.0791],[5.5741,59.0945],[5.6015,59.1074],[5.5843,59.1318],[5.6237,59.1366],[5.748,59.1235],[5.7632,59.0595],[5.804,59.059],[5.8821,59.0677],[6.0121,59.1383],[6.0411,59.16],[6.0566,59.1856],[6.023,59.1818],[5.9977,59.1993],[6.0099,59.224],[5.9657,59.2285],[5.9367,59.2383],[5.9276,59.2677],[5.9539,59.2867],[6.077,59.299],[6.0492,59.3293],[6.011,59.3481],[5.9759,59.3557],[5.683,59.3243],[5.5597,59.2755],[5.3888,59.2707],[5.3406,59.2876],[5.3255,59.3304],[5.2937,59.3584],[5.2841,59.3301],[5.3241,59.2652],[5.3209,59.2202],[5.3123,59.1816],[5.2962,59.1546],[5.2634,59.1467],[5.2255,59.1448],[5.1869,59.1611],[5.1684,59.1938],[5.1672,59.2344],[5.189,59.3607],[5.2069,59.3836],[5.2388,59.4118],[5.2346,59.442],[5.2087,59.5079],[5.4267,59.5086],[5.4673,59.5111],[5.5053,59.5235],[5.5268,59.5427],[5.5604,59.5543],[5.558,59.5902],[5.5376,59.6223],[5.5592,59.6538],[5.596,59.6804],[5.6301,59.6796],[5.7819,59.6457],[5.8824,59.6322],[5.9135,59.6133],[5.9574,59.6024],[6.1027,59.5909],[6.6884,59.696],[7.1062,59.7876],[7.1245,59.753],[7.1786,59.6995],[7.1878,59.6746],[7.0875,59.6481],[6.9961,59.6],[6.9773,59.5754],[6.8651,59.3784],[6.8255,59.2786],[6.8286,59.2525],[6.8476,59.1921],[6.8831,59.185],[6.9261,59.1839]],[[6.0696,59.2363],[6.0923,59.2249],[6.1269,59.2368],[6.1526,59.2595],[6.1167,59.282],[6.0963,59.2507],[6.0696,59.2363]]]]}},{"type":"Feature","properties":{"code":"NO004","name":"Sogn og Fjordane"},"geometry":{"type":"MultiPolygon","coordinates":[[[[4.7275,60.9937],[4.6912,60.9932],[4.6665,61.0033],[4.6489,61.0237],[4.6563,61.0573],[4.6931,61.0849],[4.7151,61.0717],[4.7327,61.0421],[4.7275,60.9937]]],[[[4.8237,61.0958],[4.8144,61.0633],[4.7924,61.0402],[4.7676,61.0308],[4.7541,61.0629],[4.7521,61.0935],[4.8237,61.0958]]],[[[4.8237,61.0958],[4.8368,61.1303],[4.8668,61.1509],[4.8875,61.1748],[4.8956,61.2097],[4.9623,61.2066],[4.9989,61.1939],[5.013,61.1607],[5.0167,61.1071],[4.9911,61.0903],[4.9229,61.0646],[4.8506,61.0741],[4.8237,61.0958]]],[[[5.1151,61.9296],[5.0739,61.9242],[5.0383,61.9326],[5.0114,61.9459],[4.9898,61.9975],[4.9903,62.0234],[5.0278,62.0314],[5.0912,62.0328],[5.1297,62.0261],[5.1533,61.9864],[5.1368,61.9469],[5.1151,61.9296]]],[[[5.296,61.4815],[5.3197,61.4645],[5.3548,61.4775],[5.296,61.4815],[5.2566,61.4992],[5.1802,61.5165],[5.0093,61.6175],[4.9887,61.6337],[4.9747,61.6662],[4.9773,61.7249],[5.0361,61.7558],[5.1569,61.7359],[5.2207,61.7504],[5.2455,61.7666],[5.1612,61.7799],[5.154,61.8147],[5.1186,61.8219],[5.0045,61.785],[4.9708,61.7781],[4.9439,61.7814],[4.919,61.7905],[4.8313,61.8537],[4.856,61.8709],[4.9183,61.9004],[4.9559,61.9083],[5.0155,61.8907],[5.1823,61.8735],[5.2474,61.861],[5.25,61.823],[5.2812,61.8253],[5.3059,61.8364],[5.3058,61.8664],[5.3377,61.8857],[5.3944,61.9105],[5.4431,61.9207],[5.4265,61.9491],[5.1716,62.1067],[5.1025,62.1893],[5.1302,62.2029],[5.1947,62.2119],[5.2344,62.204],[5.4375,62.0764],[5.4802,62.0412],[5.4988,61.9863],[5.5279,61.9751],[5.6047,61.9662],[6.0487,61.9591],[6.365,62.0012],[6.4071,62.008],[6.5383,62.0429],[6.6954,62.0614],[7.2824,62.0199],[7.3187,62.0122],[7.4054,61.8723],[7.5047,61.741],[7.5493,61.7215],[7.9141,61.6414],[8.2261,61.5445],[8.2657,61.525],[8.2974,61.4617],[8.2927,61.4253],[8.2415,61.3336],[8.1481,61.2708],[8.1542,61.2377],[8.2715,61.0459],[8.2664,61.0152],[8.2282,60.9732],[8.2036,60.9613],[8.0196,60.8987],[7.947,60.8987],[7.9156,60.8891],[7.7117,60.7967],[7.5005,60.6926],[7.4732,60.6751],[7.1146,60.6971],[6.9829,60.7209],[6.8645,60.7737],[6.767,60.8344],[6.084,61.0179],[6.0375,61.0255],[5.2663,60.9257],[5.2284,60.9158],[5.1919,60.8997],[5.1631,60.8693],[5.1499,60.8423],[5.101,60.8363],[5.0624,60.86],[5.0339,60.8938],[5.0196,60.8472],[4.9838,60.8518],[4.9665,60.8738],[4.9622,60.9068],[4.9699,60.9348],[5.0052,60.9504],[5.0292,60.9704],[4.9416,60.9731],[4.9474,61.0065],[4.9844,61.0132],[5.0203,61.0116],[5.0558,61.0631],[5.1001,61.0723],[5.1876,61.0776],[5.3146,61.0532],[5.4037,61.0248],[5.44,61.0268],[5.4815,61.0342],[5.5107,61.056],[5.5429,61.0687],[5.8997,61.1279],[6.1802,61.1162],[6.2911,61.0976],[6.3142,61.085],[6.3442,61.0779],[6.4213,61.0719],[6.603,61.1185],[6.6216,61.1621],[6.5574,61.1624],[6.5348,61.135],[6.4908,61.1205],[6.4547,61.1136],[6.3846,61.1108],[6.2607,61.1355],[6.18,61.1597],[5.7249,61.1612],[5.6042,61.1366],[5.5143,61.0955],[5.4351,61.0732],[5.3892,61.0713],[5.2184,61.1103],[5.0718,61.1758],[4.9938,61.252],[4.9773,61.2776],[5.0367,61.3003],[5.0675,61.3181],[5.043,61.3495],[5.0183,61.3234],[4.9796,61.3196],[4.9455,61.321],[4.9147,61.3308],[4.893,61.3526],[4.9812,61.3721],[5.0034,61.3855],[4.9863,61.414],[5.0157,61.4348],[5.0897,61.4523],[5.2687,61.474],[5.296,61.4815]],[[7.3328,61.3641],[7.2619,61.3031],[7.2734,61.2773],[7.3225,61.2288],[7.3436,61.2005],[7.3008,61.1944],[6.8218,61.1753],[6.7959,61.1576],[6.8795,61.1335],[7.0021,61.0721],[7.0275,61.0262],[7.0377,60.9842],[7.0757,60.9727],[7.0361,61.0703],[7.036,61.0967],[7.0752,61.1115],[7.4093,61.1144],[7.4519,61.1323],[7.5762,61.4494],[7.5849,61.4816],[7.5566,61.481],[7.3769,61.3942],[7.3328,61.3641]],[[5.2475,61.3485],[5.2219,61.3614],[5.1924,61.3586],[5.1699,61.3374],[5.2028,61.3348],[5.2475,61.3485]],[[7.1453,60.9496],[7.1579,60.8988],[7.1884,60.9199],[7.1794,60.9483],[7.1453,60.9496]],[[6.7516,61.8813],[6.5899,61.884],[6.3084,61.8644],[6.0222,61.879],[5.7691,61.9034],[5.7329,61.8947],[5.7789,61.8764],[6.1148,61.8313],[6.4795,61.8059],[6.5169,61.8078],[6.7679,61.8516],[6.7946,61.8677],[6.7516,61.8813]]]]}},{"type":"Feature","properties":{"code":"NO005","name":"Møre og Romsdal"},"geometry":{"type":"MultiPolygon","coordinates":[[[[5.9211,62.2579],[5.8795,62.2515],[5.8366,62.2533],[5.859,62.2733],[5.8492,62.306],[5.8256,62.3402],[5.8225,62.3761],[5.8657,62.4144],[5.9399,62.4274],[5.9783,62.4175],[6.0298,62.3229],[6.011,62.3043],[5.9211,62.2579]]],[[[6.129,62.5785],[6.1321,62.5309],[6.0514,62.5367],[6.0206,62.5463],[6.0396,62.5667],[6.0703,62.5836],[6.1013,62.5883],[6.129,62.5785]]],[[[6.9273,62.7973],[6.8933,62.7913],[6.8516,62.7918],[6.779,62.8085],[6.7834,62.8374],[6.8129,62.8536],[6.9116,62.8592],[6.9528,62.856],[6.9506,62.8176],[6.9273,62.7973]]],[[[7.6855,63.035],[7.7138,63.0565],[7.8829,63.0941],[7.8783,63.0605],[7.8371,63.0401],[7.8003,63.0281],[7.7615,63.0266],[7.6855,63.035]]],[[[8.1587,63.2082],[8.1063,63.162],[8.0675,63.1493],[7.9923,63.1505],[7.9566,63.1559],[7.932,63.1793],[7.9553,63.1994],[8.0482,63.2277],[8.1111,63.2413],[8.1402,63.2339],[8.1587,63.2082]]],[[[8.4849,63.2786],[8.4877,63.2419],[8.5519,63.2062],[8.5877,63.1985],[8.5769,63.1647],[8.5391,63.169],[8.5017,63.1619],[8.4614,63.1609],[8.2983,63.1652],[8.2487,63.1513],[8.1997,63.1692],[8.1587,63.2082],[8.1911,63.2262],[8.2354,63.231],[8.2651,63.2264],[8.2848,63.2565],[8.3544,63.2632],[8.4446,63.2821],[8.4849,63.2786]]],[[[7.6855,63.035],[7.6747,63.0091],[7.6748,62.9733],[7.9573,62.9749],[7.9998,62.9719],[8.0528,62.9572],[8.0813,62.9424],[8.1044,62.9173],[8.1,62.8861],[8.1376,62.8284],[8.2336,62.7865],[8.5116,62.6828],[8.5461,62.6795],[8.5484,62.7185],[8.5163,62.7417],[8.1569,62.9353],[8.0201,62.9994],[7.9965,63.0174],[8.0235,63.0507],[8.078,63.0932],[8.1049,63.107],[8.1525,63.0726],[8.192,63.0518],[8.187,63.0775],[8.1662,63.1093],[8.1833,63.1333],[8.2487,63.1513],[8.2906,63.1406],[8.5793,63.1321],[8.5769,63.1647],[8.6141,63.1839],[8.5877,63.1985],[8.5789,63.2252],[8.5569,63.2499],[8.5243,63.2709],[8.4849,63.2786],[8.541,63.3147],[8.467,63.3349],[8.4814,63.3633],[8.5452,63.3958],[8.5731,63.4001],[8.6027,63.3988],[8.6337,63.3845],[8.6679,63.3821],[8.6617,63.4112],[8.7398,63.4237],[8.769,63.4178],[8.8219,63.255],[8.8556,63.1872],[8.8833,63.1675],[8.9679,63.141],[9.0381,63.1417],[9.2347,63.2023],[9.3344,63.2034],[9.3748,63.1998],[9.4168,63.1888],[9.4512,63.1689],[9.4911,63.0061],[9.4876,62.9668],[9.4621,62.8562],[9.4466,62.8274],[9.1813,62.4372],[9.1404,62.3991],[9.1041,62.3821],[9.064,62.3736],[8.8587,62.38],[8.4699,62.365],[8.2142,62.3425],[7.5167,62.0998],[7.342,62.03],[7.3187,62.0122],[7.2824,62.0199],[6.6954,62.0614],[6.5383,62.0429],[6.4071,62.008],[6.365,62.0012],[6.0487,61.9591],[5.6047,61.9662],[5.5279,61.9751],[5.4988,61.9863],[5.4919,62.0146],[5.5156,62.0366],[5.5984,62.0552],[5.4168,62.1302],[5.4393,62.1708],[5.4804,62.1965],[5.5446,62.194],[5.5733,62.1983],[5.5397,62.2208],[5.5326,62.2648],[5.5577,62.2903],[5.6387,62.3091],[5.6135,62.3344],[5.7009,62.3644],[5.7347,62.3684],[5.7313,62.3345],[5.6961,62.3114],[5.8211,62.2852],[5.7721,62.2161],[5.7486,62.1944],[5.7808,62.1895],[5.8939,62.2075],[6.0059,62.2762],[6.2008,62.3458],[6.4806,62.4066],[6.5105,62.424],[6.4811,62.4329],[6.3927,62.4271],[6.3563,62.423],[6.3197,62.4086],[6.2871,62.4037],[6.1664,62.396],[6.1242,62.4019],[6.0989,62.4105],[6.0723,62.4264],[6.0964,62.4388],[6.2124,62.4494],[6.2494,62.4594],[6.2905,62.4787],[6.2375,62.5008],[6.3001,62.5253],[6.2715,62.5417],[6.2643,62.5724],[6.2821,62.5934],[6.3388,62.6169],[6.654,62.6466],[6.6823,62.6593],[6.6683,62.6887],[6.6891,62.7076],[6.7144,62.725],[6.7545,62.7355],[6.8864,62.7452],[6.929,62.7404],[6.9368,62.7081],[6.835,62.6848],[6.8005,62.6679],[6.8403,62.6563],[7.0738,62.6554],[7.2787,62.612],[7.3182,62.6087],[7.541,62.6712],[7.5658,62.6914],[7.5269,62.7048],[7.0116,62.7228],[6.9821,62.7305],[6.9746,62.7578],[6.9772,62.7906],[7.0058,62.8133],[7.0088,62.8487],[6.9354,62.9223],[7.0432,62.9703],[7.1535,63.002],[7.3112,63.017],[7.3362,63.0016],[7.3776,62.9881],[7.4011,63.0218],[7.4242,63.0455],[7.4623,63.0629],[7.5883,63.1055],[7.6641,63.0951],[7.6684,63.066],[7.6855,63.035]],[[7.4372,62.915],[7.4723,62.9019],[7.5883,62.9297],[7.6121,62.9525],[7.5814,62.955],[7.5236,62.9398],[7.4845,62.943],[7.4501,62.9571],[7.4233,62.9583],[7.4372,62.915]],[[6.3289,62.5232],[6.344,62.4931],[6.492,62.5046],[6.5222,62.5223],[6.4894,62.5339],[6.4612,62.535],[6.367,62.5328],[6.3289,62.5232]],[[6.5507,62.52],[6.5983,62.5137],[6.574,62.5304],[6.5507,62.52]],[[6.7149,62.4971],[6.6705,62.491],[6.6202,62.4461],[6.6513,62.4412],[6.7083,62.4527],[6.7405,62.454],[6.8678,62.4316],[6.9037,62.418],[6.9535,62.3507],[6.9943,62.3435],[6.9829,62.3686],[6.9309,62.4315],[6.865,62.4614],[6.7149,62.4971]],[[8.561,62.9575],[8.4291,62.9756],[8.3615,62.9731],[8.2498,63.0194],[8.213,63.026],[8.3034,62.9228],[8.3183,62.8879],[8.3466,62.8725],[8.5218,62.8365],[8.6576,62.826],[8.6922,62.8357],[8.561,62.9575]]],[[[7.9863,63.4678],[8.112,63.4647],[8.1617,63.4323],[8.1938,63.4045],[8.2023,63.3667],[8.1398,63.332],[8.006,63.3236],[7.8169,63.3644],[7.7939,63.3939],[7.8265,63.4256],[7.9863,63.4678]]]]}},{"type":"Feature","properties":{"code":"NO006","name":"Nord-Trøndelag"},"geometry":{"type":"MultiPolygon","coordinates":[[[[11.032,63.7883],[11.0789,63.7951],[11.1267,63.7967],[11.1017,63.776],[11.0448,63.7483],[11.0126,63.7505],[11.032,63.7883]]],[[[11.0731,64.9776],[11.1436,64.9733],[11.2978,64.9041],[11.2737,64.8824],[11.242,64.8634],[11.1562,64.8345],[11.1149,64.8346],[11.0793,64.8424],[11.0598,64.8661],[11.0322,64.8703],[10.8595,64.8677],[10.7967,64.8547],[10.7635,64.867],[10.7475,64.8924],[10.7625,64.9136],[10.7988,64.9256],[10.8732,64.9339],[10.9631,64.9568],[11.0731,64.9776]]],[[[11.032,63.7883],[10.994,63.7784],[10.9649,63.7544],[10.9321,63.7362],[10.3202,63.5591],[10.1996,63.5335],[10.1601,63.5371],[10.137,63.5775],[10.1645,63.6086],[10.2234,63.6471],[10.4998,63.821],[10.7239,63.9493],[10.7547,63.9787],[10.8467,64.0886],[10.872,64.127],[10.9268,64.2668],[10.9049,64.2885],[10.6699,64.3904],[10.6392,64.3902],[10.6025,64.4058],[10.5542,64.4154],[10.53,64.4386],[10.5577,64.4494],[10.8957,64.5338],[10.9326,64.5489],[10.9148,64.5778],[10.9421,64.5958],[10.9752,64.6037],[11.0237,64.5981],[11.0264,64.6288],[11.0598,64.6467],[11.0986,64.6543],[11.1289,64.6455],[11.1616,64.649],[11.2028,64.6788],[11.2367,64.6845],[11.3042,64.6898],[11.3415,64.6836],[11.3541,64.6524],[11.3448,64.6257],[11.3234,64.604],[11.283,64.5981],[11.2752,64.5578],[11.2945,64.541],[11.3241,64.5415],[11.3622,64.5988],[11.4051,64.6176],[11.3896,64.6543],[11.3889,64.6856],[11.5554,64.7624],[11.5957,64.7691],[11.7687,64.7776],[11.7997,64.7933],[11.7599,64.8091],[11.6877,64.8165],[11.6507,64.8323],[11.6147,64.8303],[11.3939,64.7553],[11.2288,64.7293],[11.1996,64.7427],[11.2378,64.8117],[11.2621,64.8397],[11.362,64.9075],[11.8802,65.1266],[11.9156,65.146],[11.9923,65.164],[12.0228,65.1461],[12.0166,65.0975],[11.9948,65.0776],[12.0161,65.0516],[12.0432,65.0316],[12.0809,65.0088],[12.1259,64.9956],[12.248,64.9735],[12.2934,64.9699],[12.7067,64.9505],[12.931,64.9937],[13.3876,65.1037],[14.0833,65.1235],[14.2564,65.1152],[14.298,65.1078],[14.2737,65.0834],[14.0171,64.8922],[13.734,64.6642],[13.6992,64.6339],[13.6761,64.6051],[13.6635,64.581],[13.8854,64.5112],[14.0905,64.4758],[14.1151,64.4562],[14.1514,64.2214],[14.1404,64.1817],[13.9972,64.0407],[13.9666,64.0155],[13.9332,64.0152],[13.7317,64.0453],[13.2071,64.0972],[12.9323,64.0596],[12.746,63.9963],[12.6731,63.9656],[12.1633,63.6036],[12.1369,63.5694],[11.9812,63.2855],[11.988,63.2542],[12.0449,63.1887],[10.8405,63.4361],[10.8543,63.5976],[11.027,63.7008],[11.0559,63.7133],[11.4124,63.7697],[11.4468,63.791],[11.4874,63.989],[11.4814,64.0186],[11.3995,64.0972],[11.3556,64.114],[11.3271,64.1127],[11.2255,64.0765],[10.9497,63.9067],[11.0157,63.8847],[11.0503,63.8679],[11.0635,63.8391],[11.0451,63.8204],[11.032,63.7883]],[[11.1727,64.5019],[11.1364,64.5549],[11.167,64.5814],[11.1353,64.5889],[11.085,64.58],[11.1167,64.5226],[11.1416,64.5048],[11.1727,64.5019],[11.1964,64.475],[11.2237,64.46],[11.3368,64.4235],[12.1509,64.4486],[12.1771,64.4592],[12.143,64.4754],[12.0141,64.4976],[11.9784,64.4998],[11.5992,64.4792],[11.4729,64.4614],[11.4354,64.4632],[11.4081,64.4812],[11.3702,64.4789],[11.3006,64.487],[11.2723,64.5114],[11.2343,64.5158],[11.1727,64.5019]]]]}},{"type":"Feature","properties":{"code":"NO008","name":"Hedmark"},"geometry":{"type":"Polygon","coordinates":[[[12.2436,62.3339],[12.2695,62.3113],[12.2882,62.2844],[12.2848,62.2531],[12.1483,61.7288],[12.1691,61.7059],[12.2612,61.649],[12.3825,61.5862],[12.4387,61.5678],[12.5381,61.5673],[12.5806,61.5601],[12.8583,61.3666],[12.8596,61.3274],[12.818,61.2375],[12.7843,61.1886],[12.7027,61.0895],[12.6854,61.0551],[12.4652,61.0511],[12.2845,61.0252],[12.2425,61.0132],[12.2501,60.981],[12.3696,60.7917],[12.445,60.7028],[12.5212,60.6286],[12.5895,60.5415],[12.608,60.5081],[12.6091,60.4164],[12.5056,60.1072],[12.4866,60.0812],[12.4476,60.044],[12.3441,59.9698],[12.1829,59.8952],[12.137,59.883],[11.8972,59.8428],[11.8583,59.8313],[11.8359,59.8586],[11.777,59.9767],[11.5812,60.2518],[11.2412,60.5451],[11.2062,60.5662],[11.1354,60.5902],[10.7639,60.7662],[10.7408,60.7814],[10.5512,61.0331],[10.5344,61.0613],[10.5612,61.089],[10.8337,61.2615],[10.8393,61.2964],[10.821,61.3883],[10.6738,61.5527],[10.6499,61.5733],[10.39,61.6696],[10.081,61.7448],[10.0371,61.7628],[9.6108,62.1565],[9.5961,62.1817],[9.6207,62.2044],[9.6973,62.2521],[9.7797,62.2842],[10.0494,62.4113],[10.0769,62.4306],[10.0665,62.4638],[10.0439,62.4988],[10.0379,62.5376],[10.0442,62.5728],[10.1228,62.6671],[10.1546,62.6859],[10.1963,62.6919],[10.8322,62.6907],[10.979,62.6809],[11.1159,62.6628],[11.1482,62.646],[11.3693,62.4997],[11.4642,62.4512],[11.7942,62.3785],[12.0586,62.3439],[12.2436,62.3339]]]}},{"type":"Feature","properties":{"code":"NO009","name":"Oppland"},"geometry":{"type":"Polygon","coordinates":[[[9.6973,62.2521],[9.6207,62.2044],[9.5961,62.1817],[9.6108,62.1565],[10.0371,61.7628],[10.081,61.7448],[10.39,61.6696],[10.6499,61.5733],[10.6738,61.5527],[10.821,61.3883],[10.8393,61.2964],[10.8337,61.2615],[10.5612,61.089],[10.5344,61.0613],[10.5981,60.9693],[10.7408,60.7814],[10.7639,60.7662],[11.1354,60.5902],[11.0986,60.5634],[10.7038,60.1589],[10.6713,60.135],[10.5999,60.1295],[10.5751,60.1431],[10.3012,60.2492],[9.5122,60.5235],[9.4384,60.5625],[9.4051,60.5885],[9.3357,60.6807],[9.3219,60.7264],[9.2191,60.7739],[8.322,61.0893],[8.2495,61.0847],[8.1542,61.2377],[8.1481,61.2708],[8.2415,61.3336],[8.2927,61.4253],[8.2974,61.4617],[8.2657,61.525],[8.2261,61.5445],[7.9141,61.6414],[7.5493,61.7215],[7.5047,61.741],[7.4054,61.8723],[7.3187,62.0122],[7.342,62.03],[7.5167,62.0998],[8.2142,62.3425],[8.4699,62.365],[8.8587,62.38],[9.064,62.3736],[9.1041,62.3821],[9.1251,62.3608],[9.6657,62.2686],[9.6973,62.2521]]]}},{"type":"Feature","properties":{"code":"NO010","name":"Oslo"},"geometry":{"type":"Polygon","coordinates":[[[10.7615,59.8345],[10.6526,59.8927],[10.496,60.0178],[10.5999,60.1295],[10.6713,60.135],[10.6877,60.1049],[10.7615,59.8345]]]}},{"type":"Feature","properties":{"code":"NO011","name":"Akershus"},"geometry":{"type":"MultiPolygon","coordinates":[[[[10.4965,59.7884],[10.4921,59.9601],[10.496,60.0178],[10.6526,59.8927],[10.4965,59.7884]]],[[[10.6866,59.5001],[10.6897,59.5416],[10.7578,59.7941],[10.7615,59.8345],[10.6877,60.1049],[10.6713,60.135],[10.7038,60.1589],[11.0986,60.5634],[11.1354,60.5902],[11.2062,60.5662],[11.2412,60.5451],[11.5812,60.2518],[11.777,59.9767],[11.8359,59.8586],[11.8583,59.8313],[11.912,59.7948],[11.874,59.7873],[11.2451,59.7676],[10.9953,59.7105],[10.9593,59.6977],[10.6866,59.5001]]]]}},{"type":"Feature","properties":{"code":"NO012","name":"Telemark"},"geometry":{"type":"Polygon","coordinates":[[[9.7662,59.4109],[9.7765,59.3873],[9.8183,59.0763],[9.8132,59.0296],[9.7723,59.0121],[9.399,58.7911],[9.3566,58.7681],[8.7512,58.8388],[8.0401,58.9521],[7.967,58.977],[7.7455,59.1599],[7.7374,59.1869],[7.7502,59.2143],[7.7503,59.2401],[7.6099,59.4757],[7.5149,59.6082],[7.4688,59.6382],[7.405,59.6575],[7.1878,59.6746],[7.1786,59.6995],[7.1245,59.753],[7.1062,59.7876],[7.1372,59.8178],[7.3358,59.9764],[7.5094,60.1091],[7.5461,60.11],[7.6089,60.1207],[8.1664,60.1842],[8.7233,60.1791],[8.8446,60.1446],[8.9535,60.1011],[8.9816,60.0828],[9.3572,59.7879],[9.3723,59.7641],[9.4546,59.5881],[9.5551,59.4931],[9.6932,59.42],[9.7662,59.4109]]]}},{"type":"Feature","properties":{"code":"NO013","name":"Buskerud"},"geometry":{"type":"Polygon","coordinates":[[[10.5999,60.1295],[10.496,60.0178],[10.4921,59.9601],[10.4965,59.7884],[10.3395,59.6975],[9.7992,59.4237],[9.7662,59.4109],[9.7287,59.4136],[9.6932,59.42],[9.5551,59.4931],[9.4771,59.564],[9.4546,59.5881],[9.3723,59.7641],[9.3572,59.7879],[8.9816,60.0828],[8.9535,60.1011],[8.8066,60.1584],[8.7233,60.1791],[8.1664,60.1842],[7.6089,60.1207],[7.5461,60.11],[7.5094,60.1091],[7.586,60.184],[7.6609,60.2888],[7.6827,60.3671],[7.7065,60.5041],[7.7061,60.5356],[7.6483,60.6142],[7.623,60.6372],[7.5364,60.6623],[7.4732,60.6751],[7.5005,60.6926],[7.7117,60.7967],[7.9156,60.8891],[7.947,60.8987],[8.0196,60.8987],[8.2282,60.9732],[8.2664,61.0152],[8.2715,61.0459],[8.2495,61.0847],[8.322,61.0893],[9.1801,60.7883],[9.2823,60.7473],[9.3219,60.7264],[9.3357,60.6807],[9.4051,60.5885],[9.4384,60.5625],[9.5122,60.5235],[10.3012,60.2492],[10.5751,60.1431],[10.5999,60.1295]]]}},{"type":"Feature","properties":{"code":"NO014","name":"Østfold"},"geometry":{"type":"Polygon","coordinates":[[[11.6472,58.9026],[11.5124,58.9642],[11.4845,58.9858],[11.3928,59.1045],[11.3566,59.1118],[11.1804,59.1024],[11.1544,59.0919],[11.1222,59.1057],[11.0933,59.1105],[11.0633,59.1031],[11.0815,59.0685],[11.0504,59.0305],[11.0137,59.0233],[10.9887,59.0351],[10.9987,59.0866],[11.0339,59.1095],[11.0065,59.1249],[10.9089,59.1428],[10.8178,59.1753],[10.7812,59.2],[10.6644,59.3278],[10.6476,59.389],[10.6694,59.4707],[10.6866,59.5001],[10.9593,59.6977],[10.9953,59.7105],[11.2451,59.7676],[11.874,59.7873],[11.912,59.7948],[11.922,59.7635],[11.8375,59.2933],[11.8413,59.2525],[11.8209,59.2351],[11.6576,58.9434],[11.6472,58.9026]]]}},{"type":"Feature","properties":{"code":"NO015","name":"Finnmark"},"geometry":{"type":"MultiPolygon","coordinates":[[[[21.4703,70.1906],[21.4281,70.1929],[21.2611,70.2218],[21.2262,70.2358],[21.2883,70.2569],[21.3852,70.2699],[21.4251,70.2656],[21.4266,70.2307],[21.4703,70.1906]]],[[[21.7606,70.2856],[21.7218,70.266],[21.6896,70.2766],[21.679,70.3046],[21.6987,70.3664],[21.7185,70.3841],[21.7695,70.3641],[21.8023,70.3454],[21.7889,70.3124],[21.7606,70.2856]]],[[[23.4383,70.7562],[23.0667,70.5703],[22.9442,70.5324],[22.8326,70.516],[22.7006,70.5034],[22.5347,70.4954],[22.2897,70.5431],[22.1457,70.5808],[22.1034,70.594],[22.0248,70.6477],[22.0716,70.6605],[22.7613,70.7628],[22.8093,70.7644],[22.9073,70.73],[22.9185,70.7063],[22.9404,70.6786],[22.9831,70.66],[23.0225,70.6572],[23.2757,70.7571],[23.3095,70.7734],[23.3364,70.8025],[23.4107,70.7794],[23.4383,70.7562]]],[[[24.077,70.9161],[23.9995,70.9165],[23.9311,70.9317],[23.8813,70.9574],[23.8516,70.988],[23.8705,71.0116],[23.8991,71.0227],[24.0597,71.0287],[24.1579,71.0032],[24.2059,70.9749],[24.2249,70.9523],[24.191,70.9397],[24.077,70.9161]]],[[[24.7822,71.0382],[24.7503,71.0264],[24.7195,71.0294],[24.6223,71.0584],[24.6428,71.0755],[24.7026,71.1065],[24.7438,71.1097],[24.7819,71.1029],[24.8177,71.0871],[24.7822,71.0382]]],[[[30.8497,69.7747],[30.9024,69.7199],[30.9449,69.6533],[30.9483,69.6033],[30.9306,69.5648],[30.9074,69.5513],[30.8809,69.5427],[30.8044,69.5309],[30.5286,69.5477],[30.492,69.5536],[30.4055,69.5933],[30.2106,69.6562],[30.1708,69.6641],[30.1431,69.6563],[30.1729,69.5932],[30.1766,69.5521],[30.1221,69.483],[30.085,69.4552],[30.0256,69.4244],[29.0706,69.0211],[29.0312,69.0139],[28.9409,69.0466],[28.9008,69.05],[28.8796,69.0688],[28.8501,69.0816],[28.8252,69.099],[28.8082,69.119],[28.827,69.203],[28.8484,69.2315],[29.2296,69.4036],[29.313,69.4647],[29.3247,69.49],[29.1489,69.679],[29.0976,69.7014],[28.3612,69.8425],[28.327,69.8443],[28.3064,69.8664],[27.9616,70.0866],[27.9224,70.0894],[26.4842,69.9431],[26.4474,69.9275],[25.9674,69.6451],[25.9439,69.62],[25.7996,69.4299],[25.7403,69.3231],[25.7033,69.2136],[25.7173,69.1436],[25.7525,69.063],[25.7589,69.025],[25.6577,68.9118],[25.6033,68.8832],[24.8945,68.5748],[24.8607,68.5677],[24.7928,68.6302],[24.6001,68.6847],[23.978,68.8262],[23.8973,68.8325],[23.8589,68.8324],[23.8126,68.8237],[23.7719,68.8085],[23.7386,68.7613],[23.6791,68.7102],[23.6403,68.6999],[23.1995,68.632],[23.1564,68.629],[22.7841,68.69],[22.603,68.7268],[22.5288,68.7468],[22.3358,68.8294],[21.9957,69.0692],[22.2811,69.0817],[22.4399,69.1079],[22.4742,69.1177],[22.4984,69.1411],[22.7235,69.6263],[22.7303,69.655],[22.4263,69.9337],[22.2171,70.0384],[22.1846,70.0517],[21.8648,70.1163],[21.5323,70.1747],[21.498,70.1909],[21.4954,70.2346],[21.5024,70.264],[21.5372,70.2765],[21.5728,70.2824],[21.7382,70.223],[21.7713,70.223],[21.7863,70.2594],[21.818,70.2781],[21.9367,70.3255],[21.9751,70.328],[22.3996,70.2734],[22.4272,70.2853],[22.3915,70.3023],[22.3571,70.3334],[22.3821,70.3528],[22.5423,70.3815],[22.6791,70.3925],[22.7591,70.3916],[22.7923,70.383],[22.8006,70.3546],[22.8696,70.3443],[22.9099,70.3456],[22.8282,70.4099],[22.8524,70.4353],[22.8801,70.4523],[23.1251,70.5466],[23.3858,70.6247],[23.4591,70.6278],[23.5355,70.611],[23.552,70.5903],[23.5665,70.5566],[23.6157,70.5061],[23.6328,70.4666],[23.6415,70.4279],[23.6812,70.43],[23.8574,70.501],[23.7707,70.5103],[23.745,70.5241],[23.6275,70.6323],[23.6512,70.6541],[23.7919,70.7],[23.8573,70.7136],[23.9847,70.7016],[24.0435,70.6849],[24.1148,70.6341],[24.1334,70.6082],[24.114,70.5875],[24.0579,70.5571],[24.0209,70.528],[24.0534,70.5155],[24.1786,70.5821],[24.2919,70.6709],[24.3237,70.701],[24.3465,70.7337],[24.3369,70.768],[24.2786,70.813],[24.2531,70.84],[24.2879,70.8613],[24.5086,70.9579],[24.5481,70.9726],[24.641,70.9911],[24.8027,70.9858],[25.2663,70.9592],[25.3028,70.9635],[25.3459,70.9806],[25.3211,71.0072],[25.2584,71.0268],[25.2526,71.0562],[25.2634,71.0808],[25.2831,71.0988],[25.4656,71.0931],[25.7497,71.1114],[26.1923,71.0629],[26.2212,71.0477],[26.1981,71.019],[26.129,70.9917],[26.0147,70.9703],[25.627,70.9356],[25.5843,70.9245],[25.6131,70.9141],[25.8545,70.8993],[25.8978,70.8866],[25.883,70.8552],[25.6188,70.7436],[25.3721,70.6309],[25.2443,70.5695],[25.2189,70.5461],[24.9337,70.2174],[24.9196,70.1662],[24.9137,70.056],[24.9986,70.0527],[25.1581,70.0674],[25.2304,70.0945],[25.3872,70.2087],[25.4848,70.2905],[25.4595,70.3088],[25.4243,70.3178],[25.4034,70.3345],[25.4377,70.3579],[26.0909,70.7312],[26.3876,70.8797],[26.5152,70.934],[26.5778,70.9521],[26.6717,70.9633],[26.7044,70.9513],[26.7173,70.9264],[26.7089,70.8217],[26.7025,70.7867],[26.6888,70.7518],[26.6048,70.5615],[26.4894,70.3887],[26.4891,70.3584],[26.5273,70.3573],[26.72,70.4149],[26.9512,70.4964],[26.9859,70.5112],[27.0067,70.5414],[27.153,70.8575],[27.165,70.892],[27.1074,70.922],[27.124,70.9555],[27.1571,70.9867],[27.2106,71.0228],[27.2464,71.0382],[27.6572,71.1255],[28.1854,71.0977],[29.2325,70.8871],[30.1631,70.69],[30.9283,70.4517],[30.9814,70.4274],[31.0155,70.4024],[31.0327,70.3735],[31.0533,70.2929],[31.0249,70.2798],[30.0977,70.0794],[29.9081,70.061],[29.8121,70.0627],[28.9736,70.1358],[28.847,70.1505],[28.687,70.177],[28.6425,70.1782],[28.6066,70.163],[28.6449,70.137],[28.8336,70.0755],[29.6145,69.9818],[29.6494,69.9738],[29.7522,69.8917],[29.7661,69.8584],[29.7628,69.8264],[29.7974,69.829],[29.8111,69.9079],[29.8408,69.9119],[29.9122,69.9045],[29.9608,69.8943],[29.994,69.8772],[30.0151,69.853],[30.0127,69.819],[29.9908,69.7914],[30.0225,69.7725],[30.069,69.7304],[30.0939,69.7227],[30.1307,69.8468],[30.1599,69.8741],[30.2007,69.8792],[30.2966,69.8781],[30.7917,69.7932],[30.8497,69.7747]],[[23.333,70.293],[23.2944,70.2953],[23.2051,70.2759],[23.1507,70.2709],[23.0852,70.2829],[23.001,70.3148],[22.9757,70.3111],[22.9977,70.2755],[22.9999,70.2415],[22.9612,70.237],[22.8097,70.2425],[22.7815,70.2283],[22.8224,70.2179],[22.9521,70.198],[22.9914,70.1976],[23.2092,70.2254],[23.312,70.2709],[23.333,70.293]],[[23.5966,70.3962],[23.6162,70.4173],[23.5747,70.4116],[23.5418,70.3845],[23.5706,70.3848],[23.5966,70.3962]],[[29.6889,69.7719],[29.6696,69.7497],[29.7221,69.7498],[29.7187,69.7844],[29.6889,69.7719]]]]}},{"type":"Feature","properties":{"code":"NO016","name":"Vest-Agder"},"geometry":{"type":"Polygon","coordinates":[[[8.1875,58.1198],[8.1437,58.1163],[7.5822,58.0093],[7.1044,58.0021],[6.6428,58.0718],[6.6119,58.0834],[6.5538,58.1179],[6.4178,58.2469],[6.3847,58.2725],[6.542,58.3187],[6.5723,58.3366],[6.6096,58.3864],[6.6308,58.4487],[6.6095,58.568],[6.6003,58.595],[6.5604,58.6549],[6.5415,58.6944],[6.5218,58.7741],[6.5762,58.8989],[6.6016,58.9332],[6.6764,58.9947],[6.9261,59.1839],[6.9586,59.1816],[7.163,59.1179],[7.5655,58.8617],[7.66,58.7709],[8.041,58.3784],[8.1114,58.2785],[8.1588,58.1495],[8.1875,58.1198]]]}},{"type":"Feature","properties":{"code":"NO017","name":"Hordaland"},"geometry":{"type":"MultiPolygon","coordinates":[[[[5.3184,59.6352],[5.3595,59.6455],[5.467,59.7067],[5.4964,59.7191],[5.5252,59.7215],[5.5376,59.6223],[5.5217,59.5857],[5.5268,59.5427],[5.5053,59.5235],[5.4673,59.5111],[5.2087,59.5079],[5.3001,59.6051],[5.3184,59.6352]]],[[[5.3184,59.6352],[5.2858,59.627],[5.2207,59.5842],[5.1816,59.5809],[5.1644,59.6118],[5.1141,59.7474],[5.1075,59.7793],[5.1491,59.8663],[5.1832,59.8682],[5.2231,59.8479],[5.3404,59.7275],[5.3822,59.7084],[5.3677,59.6834],[5.3404,59.6646],[5.3184,59.6352]]],[[[5.2013,60.0135],[5.2121,59.9837],[5.1868,59.9745],[5.15,59.9817],[5.1152,59.9983],[5.1741,60.0171],[5.2013,60.0135]]],[[[5.2013,60.0135],[5.1824,60.0537],[5.1981,60.0873],[5.2219,60.0979],[5.2853,60.0692],[5.2957,60.0189],[5.2689,59.9976],[5.2013,60.0135]]],[[[4.8548,60.6178],[4.8338,60.589],[4.8016,60.6023],[4.7923,60.6342],[4.7913,60.6663],[4.8187,60.6634],[4.8548,60.6178]]],[[[5.4577,60.0302],[5.4121,60.0046],[5.4453,59.9907],[5.4732,59.9953],[5.4577,60.0302],[5.5059,60.0523],[5.593,60.0665],[5.6231,60.0824],[5.5939,60.0994],[5.4487,60.131],[5.3885,60.1543],[5.2513,60.2371],[5.2246,60.2583],[5.1775,60.308],[5.162,60.2759],[5.1532,60.1959],[5.1253,60.1796],[5.0922,60.176],[4.993,60.2189],[4.9713,60.2393],[4.9527,60.2695],[4.9495,60.3244],[4.9546,60.4545],[4.9827,60.4527],[5.0306,60.4247],[5.1074,60.4014],[5.1515,60.3995],[5.0103,60.5159],[4.9686,60.5902],[4.9504,60.6094],[5.0383,60.6202],[4.9177,60.6891],[4.8969,60.7558],[4.8654,60.793],[4.8918,60.8059],[4.9273,60.801],[4.956,60.7787],[4.97,60.7433],[4.9949,60.7267],[5.0317,60.7139],[5.0761,60.6703],[5.1062,60.6522],[5.1674,60.6267],[5.1978,60.6018],[5.2068,60.5737],[5.2339,60.5441],[5.2444,60.5027],[5.1946,60.504],[5.2242,60.4787],[5.2391,60.446],[5.2612,60.4196],[5.2814,60.4387],[5.2444,60.5027],[5.2834,60.5188],[5.3548,60.53],[5.385,60.5612],[5.6585,60.718],[5.6284,60.7387],[5.3673,60.8603],[5.3284,60.8622],[5.1499,60.8423],[5.1631,60.8693],[5.1919,60.8997],[5.2284,60.9158],[5.3119,60.9329],[6.0375,61.0255],[6.084,61.0179],[6.767,60.8344],[6.8645,60.7737],[6.9829,60.7209],[7.1146,60.6971],[7.4732,60.6751],[7.5364,60.6623],[7.623,60.6372],[7.6483,60.6142],[7.7061,60.5356],[7.7065,60.5041],[7.6719,60.318],[7.6609,60.2888],[7.586,60.184],[7.5094,60.1091],[7.3358,59.9764],[7.1372,59.8178],[7.1062,59.7876],[7.0692,59.7777],[6.6884,59.696],[6.1027,59.5909],[5.9574,59.6024],[5.9135,59.6133],[5.8824,59.6322],[5.9194,59.6496],[5.9276,59.6753],[5.859,59.7443],[5.8311,59.7569],[5.7883,59.738],[5.7455,59.7306],[5.7238,59.7774],[5.6901,59.78],[5.6567,59.7968],[5.6756,59.8155],[5.7494,59.8184],[5.7247,59.8497],[5.7361,59.8819],[5.7637,59.905],[5.7959,59.9254],[5.9253,59.9567],[5.9622,59.9741],[6.0035,59.9986],[6.1038,60.0822],[6.1272,60.1057],[6.1126,60.1455],[6.0898,60.1867],[6.1139,60.217],[6.4951,60.4019],[6.667,60.4405],[6.7013,60.4549],[6.6726,60.4696],[6.5133,60.4506],[6.2856,60.389],[6.1798,60.3505],[6.053,60.2851],[6.0137,60.2601],[5.969,60.2011],[5.9544,60.1625],[6.021,60.1642],[6.0516,60.1531],[6.0601,60.1286],[5.9964,60.0836],[5.9614,60.0853],[5.9327,60.1015],[5.9237,60.065],[5.7193,60.0736],[5.6842,60.0799],[5.701,60.0547],[5.7,60.0255],[5.6887,59.9981],[5.6593,59.9772],[5.6224,59.9238],[5.5912,59.9038],[5.5596,59.8904],[5.5181,59.9036],[5.5348,59.8172],[5.5297,59.7821],[5.4899,59.7589],[5.4465,59.7474],[5.4026,59.7533],[5.3648,59.7696],[5.3279,59.7977],[5.2966,59.856],[5.288,59.9127],[5.2925,59.9648],[5.327,59.9793],[5.3735,59.9694],[5.3467,60.0239],[5.3587,60.073],[5.3887,60.0828],[5.4187,60.0759],[5.4577,60.0302]]]]}},{"type":"Feature","properties":{"code":"NO018","name":"Sør-Trøndelag"},"geometry":{"type":"MultiPolygon","coordinates":[[[[9.0494,63.4984],[9.0779,63.4915],[9.2276,63.5223],[9.6074,63.6228],[9.719,63.6134],[9.762,63.5939],[9.8439,63.5006],[9.8758,63.4802],[9.9377,63.4577],[9.9719,63.4363],[9.9626,63.4017],[9.9227,63.3458],[10.0373,63.3519],[10.1707,63.3166],[10.2031,63.3316],[10.1037,63.361],[10.0683,63.3896],[10.097,63.419],[10.1984,63.4527],[10.3033,63.4566],[10.8405,63.4361],[12.0449,63.1887],[12.057,63.1639],[12.1354,62.7524],[12.2469,62.363],[12.2436,62.3339],[12.0586,62.3439],[11.7942,62.3785],[11.4978,62.4421],[11.4642,62.4512],[11.3693,62.4997],[11.1482,62.646],[11.1159,62.6628],[10.979,62.6809],[10.8322,62.6907],[10.2953,62.6944],[10.1963,62.6919],[10.1546,62.6859],[10.1228,62.6671],[10.0442,62.5728],[10.0379,62.5376],[10.0439,62.4988],[10.0665,62.4638],[10.0769,62.4306],[10.0494,62.4113],[9.7797,62.2842],[9.6973,62.2521],[9.6657,62.2686],[9.1251,62.3608],[9.1041,62.3821],[9.1404,62.3991],[9.1813,62.4372],[9.4466,62.8274],[9.4621,62.8562],[9.4876,62.9668],[9.4911,63.0061],[9.4512,63.1689],[9.4168,63.1888],[9.3748,63.1998],[9.3344,63.2034],[9.2347,63.2023],[9.0381,63.1417],[8.9679,63.141],[8.8833,63.1675],[8.8556,63.1872],[8.8219,63.255],[8.769,63.4178],[8.7942,63.4337],[9.021,63.48],[9.0494,63.4984]]],[[[9.0494,63.4984],[9.024,63.5064],[8.5629,63.433],[8.5127,63.4172],[8.4139,63.4163],[8.3457,63.4454],[8.3115,63.469],[8.317,63.5008],[8.3887,63.5361],[8.6557,63.6337],[8.7245,63.651],[8.8057,63.661],[8.914,63.6506],[8.9449,63.6537],[8.9992,63.6491],[9.0328,63.636],[9.0733,63.6301],[9.064,63.6596],[9.1087,63.6634],[9.1459,63.6578],[9.1781,63.646],[9.1243,63.6126],[9.1484,63.5907],[9.1972,63.5667],[9.1751,63.5502],[9.0842,63.5195],[9.0494,63.4984]]],[[[8.5042,63.6635],[8.3544,63.6621],[8.3186,63.674],[8.3463,63.692],[8.7451,63.7679],[8.7747,63.7627],[8.8076,63.7092],[8.7803,63.6898],[8.5042,63.6635]]],[[[9.9341,64.0127],[9.8964,63.9991],[9.8704,64.0333],[9.9018,64.0483],[9.9341,64.0127]]],[[[10.1601,63.5371],[10.1387,63.5083],[10.1101,63.4991],[10.04,63.4948],[9.9542,63.5001],[9.931,63.5124],[9.8151,63.6287],[9.8194,63.6673],[9.8383,63.6906],[9.976,63.7032],[10.0531,63.7264],[10.0877,63.7456],[10.0948,63.7741],[10.0531,63.7743],[9.9468,63.757],[9.6884,63.7057],[9.6223,63.6836],[9.5861,63.6778],[9.5708,63.7679],[9.6055,63.8093],[9.6416,63.8241],[9.8266,63.8707],[9.9986,63.9293],[10.0014,64.0243],[10.0285,64.0951],[10.0648,64.1236],[10.2115,64.2116],[10.502,64.3734],[10.5425,64.3757],[10.5732,64.3725],[10.6021,64.358],[10.6532,64.3591],[10.6392,64.3902],[10.6699,64.3904],[10.9049,64.2885],[10.9268,64.2668],[10.872,64.127],[10.8467,64.0886],[10.7547,63.9787],[10.7239,63.9493],[10.4998,63.821],[10.1645,63.6086],[10.137,63.5775],[10.1601,63.5371]]],[[[10.5542,64.4154],[10.529,64.4067],[10.4608,64.4128],[10.5013,64.4364],[10.53,64.4386],[10.5542,64.4154]]]]}},{"type":"Feature","properties":{"code":"NO019","name":"Nordland"},"geometry":{"type":"MultiPolygon","coordinates":[[[[11.9902,65.6294],[11.9334,65.5974],[11.8921,65.5903],[11.8294,65.6111],[11.8012,65.6108],[11.7681,65.624],[11.8077,65.6777],[11.8438,65.6995],[11.9129,65.713],[12.0211,65.6945],[12.0234,65.6551],[11.9902,65.6294]]],[[[12.7955,66.1525],[12.7587,66.1409],[12.7218,66.1425],[12.6923,66.1487],[12.6831,66.1736],[12.7084,66.1846],[12.747,66.186],[12.7749,66.1737],[12.7955,66.1525]]],[[[12.4825,66.044],[12.3074,66.0177],[12.3158,66.0445],[12.4494,66.1852],[12.4884,66.1985],[12.5558,66.2055],[12.6207,66.198],[12.6558,66.1267],[12.6578,66.0991],[12.6306,66.0874],[12.4825,66.044]]],[[[12.8787,66.241],[12.8036,66.2094],[12.7669,66.2172],[12.7383,66.2303],[12.7132,66.2485],[12.7377,66.2709],[12.809,66.2968],[12.8753,66.288],[12.8787,66.241]]],[[[14.384,67.3986],[14.292,67.3796],[14.2549,67.3846],[14.2863,67.4162],[14.3486,67.4368],[14.4065,67.4169],[14.384,67.3986]]],[[[12.7163,67.6481],[12.6623,67.6397],[12.6134,67.6415],[12.5779,67.6545],[12.6103,67.6701],[12.6813,67.6914],[12.7151,67.6834],[12.7163,67.6481]]],[[[15.1794,67.9593],[15.1678,68.0006],[15.1929,68.0209],[15.2231,68.0364],[15.2643,68.0114],[15.293,67.9796],[15.2615,67.9667],[15.2158,67.9666],[15.1794,67.9593]]],[[[13.0343,67.892],[12.9123,67.8628],[12.8758,67.8707],[12.8763,67.9009],[12.8998,67.9517],[12.9232,67.9825],[13.0674,68.0964],[13.11,68.106],[13.1399,68.1047],[13.048,67.9231],[13.0672,67.906],[13.0343,67.892]]],[[[13.2832,68.0029],[13.2415,68.0016],[13.2014,68.0061],[13.1806,68.025],[13.1812,68.0573],[13.2372,68.1098],[13.3154,68.1655],[13.3563,68.1695],[13.3928,68.1573],[13.4192,68.0871],[13.4015,68.0481],[13.3715,68.0271],[13.2832,68.0029]]],[[[14.1871,68.3207],[14.1014,68.3061],[14.0636,68.3166],[14.0823,68.3425],[14.163,68.3432],[14.1871,68.3207]]],[[[13.5496,68.0651],[13.4911,68.0631],[13.4673,68.0844],[13.4656,68.1226],[13.4825,68.2101],[13.521,68.2549],[13.6053,68.2921],[13.668,68.3092],[13.9383,68.3455],[13.9645,68.3452],[13.9981,68.3373],[14.0108,68.3099],[13.8613,68.1842],[13.8546,68.1292],[13.7209,68.0834],[13.5496,68.0651]]],[[[14.9657,68.873],[14.8985,68.8718],[14.8619,68.8777],[14.8377,68.8936],[14.8576,68.9284],[14.8938,68.9373],[14.9563,68.9307],[14.9657,68.873]]],[[[13.2878,66.2301],[13.3145,66.2255],[13.368,66.2298],[13.3925,66.2442],[13.4214,66.234],[13.5284,66.2424],[13.6282,66.2332],[13.7699,66.2461],[13.8015,66.2413],[13.8644,66.2568],[13.894,66.2778],[13.8688,66.2982],[13.4251,66.2595],[13.3925,66.2442],[13.3556,66.2534],[13.3208,66.2503],[13.2878,66.2301],[13.2453,66.2405],[13.1138,66.2546],[13.0031,66.2341],[12.9654,66.2189],[12.9654,66.1799],[12.8995,66.1661],[12.8663,66.1705],[12.9,66.2052],[12.9337,66.2224],[12.9582,66.2566],[12.9906,66.2738],[13.0691,66.2864],[13.1036,66.2972],[13.0802,66.3128],[13.0218,66.3264],[12.9942,66.3403],[12.9915,66.3679],[13.01,66.3917],[13.0747,66.3925],[13.1085,66.4123],[13.0823,66.4334],[13.0507,66.4338],[13.0259,66.4204],[13.01,66.3917],[12.9886,66.4313],[12.9792,66.5028],[12.982,66.5349],[13.5002,66.9559],[14.1086,67.234],[14.7525,67.5208],[14.9498,67.5793],[15.0588,67.5953],[15.0959,67.5888],[15.1334,67.5739],[15.1524,67.5569],[15.1285,67.5315],[15.159,67.5196],[15.2581,67.5122],[15.2774,67.532],[15.2409,67.5473],[15.2025,67.5738],[15.1655,67.624],[15.1283,67.6364],[14.9056,67.6596],[14.7564,67.6614],[14.7368,67.6807],[14.7635,67.7971],[14.7769,67.8323],[14.8706,67.8822],[14.9407,67.8945],[14.9663,67.911],[14.974,67.9593],[15.0062,67.972],[15.0662,67.9774],[15.1076,67.9756],[15.1498,67.9589],[15.1794,67.9593],[15.2109,67.9346],[15.2415,67.921],[15.274,67.9184],[15.3119,67.9224],[15.3649,67.918],[15.7081,67.9672],[15.7314,67.9807],[15.8084,67.9596],[15.9349,67.9714],[15.96,68.0007],[15.9222,68.0135],[15.8958,68.003],[15.7574,67.9942],[15.7314,67.9807],[15.6958,67.991],[15.6018,67.9861],[15.5593,67.9898],[15.5198,68.0068],[15.5544,68.0238],[15.67,68.0357],[15.8136,68.0299],[15.8515,68.0383],[15.8307,68.0551],[15.5641,68.0877],[15.5181,68.0818],[15.4471,68.0215],[15.4206,68.0267],[15.3637,68.0525],[15.3374,68.0695],[15.3621,68.0912],[15.4451,68.1429],[15.9821,68.2666],[16.8877,68.391],[17.6977,68.4417],[17.6822,68.4671],[17.5582,68.5465],[16.554,68.484],[16.5201,68.4764],[16.4587,68.4383],[16.4168,68.4245],[16.2717,68.4177],[16.1559,68.3936],[16.1223,68.3916],[16.0898,68.4115],[16.1,68.439],[16.1542,68.4981],[16.203,68.5241],[16.2339,68.5511],[16.1903,68.5522],[16.1274,68.533],[16.0134,68.4216],[15.9675,68.3999],[15.6583,68.3128],[15.281,68.3027],[15.02,68.3011],[14.9975,68.3215],[15.0126,68.3541],[14.954,68.3371],[14.9207,68.3223],[14.9476,68.2929],[14.9229,68.2582],[14.8948,68.2405],[14.8647,68.2378],[14.819,68.2845],[14.7846,68.2791],[14.6641,68.2377],[14.3475,68.1825],[14.2154,68.1709],[14.2164,68.2022],[14.2356,68.2379],[14.2701,68.2529],[14.3094,68.3194],[14.3453,68.3502],[14.4033,68.387],[14.4388,68.3991],[14.6133,68.4365],[15.0544,68.4622],[15.1557,68.4653],[15.1962,68.4618],[15.2333,68.475],[15.2993,68.5107],[15.3699,68.572],[15.4556,68.6625],[15.4427,68.7061],[15.4441,68.7432],[15.4596,68.8043],[15.487,68.8278],[15.5548,68.868],[15.6197,68.9354],[15.6551,68.9566],[15.7189,68.9679],[15.8479,68.9686],[15.7905,68.7358],[15.79,68.6933],[15.8215,68.6751],[15.9631,68.6145],[16.2523,68.5835],[16.2758,68.5612],[16.3521,68.5651],[16.3812,68.5613],[16.4588,68.5378],[16.4445,68.5633],[17.2028,68.5573],[17.3391,68.565],[17.6224,68.598],[17.9788,68.608],[18.0268,68.602],[18.1136,68.5468],[18.1371,68.5371],[18.133,68.4937],[18.1498,68.241],[18.1466,68.1936],[17.906,67.9811],[17.868,67.9769],[17.6492,68.0406],[17.2846,68.1197],[16.747,67.9171],[16.7228,67.8961],[16.4122,67.5407],[16.0505,66.9276],[16.0264,66.9031],[15.4159,66.5092],[15.3864,66.4808],[15.4408,66.3748],[15.4633,66.3413],[15.4719,66.3144],[15.4735,66.2857],[15.4357,66.2709],[15.0337,66.1569],[14.5508,66.1349],[14.5209,66.1263],[14.5833,65.893],[14.5037,65.4717],[14.4968,65.4454],[14.3227,65.1282],[14.298,65.1078],[14.2564,65.1152],[14.0833,65.1235],[13.3876,65.1037],[12.931,64.9937],[12.7067,64.9505],[12.248,64.9735],[12.1259,64.9956],[12.0809,65.0088],[12.0161,65.0516],[11.9948,65.0776],[12.0166,65.0975],[12.0411,65.0818],[12.074,65.0793],[12.3154,65.0815],[12.4671,65.109],[12.4955,65.1251],[12.4526,65.1355],[12.0154,65.2023],[11.9646,65.2188],[12.2489,65.5624],[12.2709,65.5775],[12.3004,65.5843],[12.3316,65.5714],[12.3606,65.5488],[12.3885,65.5387],[12.3605,65.6309],[12.386,65.6579],[12.6551,65.9082],[12.6803,65.9246],[12.7625,65.9498],[12.8006,65.9716],[12.7656,65.9764],[12.6978,65.9597],[12.5757,65.9114],[12.5464,65.904],[12.43,65.8861],[12.3937,65.8918],[12.4235,65.9301],[12.4764,65.9666],[12.5154,65.9873],[12.5909,66.0166],[12.6746,66.0209],[12.682,66.0741],[12.7143,66.088],[12.9073,66.1387],[13.2635,66.2147],[13.2878,66.2301]],[[12.9389,66.0614],[12.9127,66.0505],[12.9239,66.025],[12.9254,65.9987],[12.9632,66.0283],[12.9831,66.0587],[12.9389,66.0614]],[[12.801,66.0368],[12.8434,66.0309],[12.8837,66.047],[12.8558,66.0545],[12.8281,66.0522],[12.801,66.0368],[12.7603,66.0446],[12.7205,66.0283],[12.7626,66.0184],[12.801,66.0368]],[[13.1022,65.8887],[13.1418,65.8781],[13.1621,65.9038],[13.1316,65.932],[13.0037,65.9382],[13.0426,65.915],[13.1022,65.8887]],[[12.4403,65.4569],[12.4546,65.4338],[12.472,65.4546],[12.5387,65.4509],[12.6032,65.4357],[12.6367,65.4474],[12.608,65.4646],[12.443,65.5208],[12.4132,65.5143],[12.4432,65.4844],[12.4403,65.4569]],[[12.5266,65.1317],[12.5618,65.1282],[12.5916,65.1358],[12.6807,65.1821],[12.6519,65.1869],[12.5487,65.1508],[12.5266,65.1317]],[[13.4573,66.3172],[13.4166,66.3341],[13.3759,66.3301],[13.3442,66.3117],[13.3804,66.3044],[13.434,66.3057],[13.4573,66.3172]],[[14.2982,67.1805],[14.2807,67.1993],[14.0932,67.1662],[14.0599,67.1548],[14.02,67.1086],[14.1681,67.0142],[14.2054,67.0081],[14.2301,67.0267],[14.2982,67.1805]],[[14.3627,67.2009],[14.4,67.1904],[14.4302,67.1986],[14.4716,67.2221],[14.4398,67.2286],[14.3975,67.221],[14.3627,67.2009]]],[[[15.3991,68.8144],[15.4174,68.6998],[15.3992,68.6804],[15.3377,68.6545],[15.0601,68.5878],[14.9465,68.584],[14.9218,68.5729],[14.9955,68.5451],[14.9722,68.5266],[14.9054,68.5016],[14.7644,68.4948],[14.726,68.4977],[14.6177,68.5565],[14.6321,68.5794],[14.5963,68.593],[14.4756,68.6012],[14.4361,68.6145],[14.3775,68.6821],[14.3912,68.7111],[14.4507,68.77],[14.5259,68.8089],[14.5717,68.8122],[14.9104,68.7985],[15.1443,68.8216],[15.1346,68.8584],[15.0888,68.8966],[15.0883,68.9342],[15.1001,69.0041],[15.1313,69.0164],[15.17,69.012],[15.1916,68.9818],[15.2005,68.9504],[15.2187,68.9185],[15.2532,68.9147],[15.3046,68.8956],[15.3825,68.855],[15.3991,68.8144]]],[[[15.4999,68.8776],[15.4611,68.8761],[15.4256,68.8943],[15.4269,68.9273],[15.4556,69.0011],[15.4761,69.0277],[15.5764,69.1123],[15.9013,69.2659],[16.0822,69.3116],[16.1284,69.3103],[16.162,69.2945],[16.1746,69.2702],[16.1593,69.2492],[15.9828,69.1178],[15.8628,69.042],[15.8106,69.0164],[15.6235,68.9821],[15.5947,68.9694],[15.5663,68.9199],[15.5369,68.8955],[15.4999,68.8776]]]]}},{"type":"Feature","properties":{"code":"NO020","name":"Troms"},"geometry":{"type":"MultiPolygon","coordinates":[[[[17.4568,68.8429],[17.4305,68.8475],[17.2516,68.7968],[17.209,68.7983],[17.1787,68.8115],[17.1333,68.8868],[17.1707,68.9096],[17.2458,68.931],[17.3391,68.925],[17.3812,68.9185],[17.4508,68.8904],[17.477,68.8741],[17.4568,68.8429]]],[[[16.6095,68.8881],[16.5624,68.8779],[16.5221,68.8786],[16.4252,68.893],[16.2697,68.9584],[16.2874,68.987],[16.3262,68.9891],[16.5979,68.9672],[16.6434,68.9386],[16.6458,68.9055],[16.6095,68.8881]]],[[[17.4189,68.9969],[17.3858,68.9905],[17.3572,69.0264],[17.3754,69.056],[17.3979,69.0747],[17.4312,69.084],[17.4714,69.088],[17.5343,69.0864],[17.5285,69.0576],[17.505,69.0378],[17.4189,68.9969]]],[[[18.5623,69.8275],[18.4733,69.82],[18.4505,69.8401],[18.5104,69.8621],[18.5709,69.8548],[18.5934,69.8392],[18.5623,69.8275]]],[[[20.8902,70.0767],[20.8593,70.0686],[20.8123,70.0756],[20.7786,70.101],[20.7887,70.1278],[20.8111,70.1431],[20.8504,70.1482],[20.8929,70.1229],[20.9196,70.0949],[20.8902,70.0767]]],[[[19.5356,70.0985],[19.4599,70.0981],[19.382,70.1077],[19.3413,70.1247],[19.3558,70.154],[19.3868,70.1629],[19.4164,70.1638],[19.5301,70.1279],[19.5606,70.1097],[19.5356,70.0985]]],[[[20.6089,70.0362],[20.5283,70.0367],[20.4364,70.0495],[20.4086,70.0578],[20.3755,70.0763],[20.3711,70.1137],[20.3786,70.1466],[20.4617,70.195],[20.5264,70.2204],[20.5557,70.2079],[20.6951,70.0713],[20.7131,70.0453],[20.6089,70.0362]]],[[[17.4568,68.8429],[17.4934,68.8436],[17.6266,68.8933],[18.0468,69.1538],[18.0653,69.1763],[18.0506,69.2079],[18.0242,69.2212],[17.9941,69.2283],[18.0033,69.1979],[17.9805,69.1831],[17.8421,69.1609],[17.5599,69.1541],[17.5187,69.1685],[17.4958,69.1858],[17.412,69.1736],[17.259,69.1035],[17.2079,69.0619],[17.2126,69.0315],[17.1836,69.019],[17.0533,69.0078],[16.7859,69.0569],[16.7846,69.092],[16.8588,69.3448],[16.8766,69.3754],[17.464,69.5847],[17.5044,69.5915],[17.5895,69.5606],[17.6453,69.5078],[17.6753,69.4864],[17.8509,69.5728],[17.8791,69.5777],[18.0629,69.4932],[18.0738,69.4668],[18.08,69.4354],[18.0635,69.3717],[18.037,69.359],[17.9411,69.34],[17.9093,69.3203],[17.9206,69.2918],[17.95,69.2683],[17.9802,69.253],[17.9969,69.2967],[18.0626,69.3233],[18.1118,69.3504],[18.1547,69.3913],[18.1612,69.4266],[18.1462,69.4548],[18.1712,69.4674],[18.4018,69.5038],[18.4411,69.522],[18.4073,69.5318],[18.2565,69.5213],[18.1848,69.5223],[18.0575,69.5485],[18.0127,69.5647],[18.0162,69.5963],[18.0455,69.6209],[18.2957,69.768],[18.3211,69.7807],[18.3799,69.7935],[18.457,69.782],[18.5872,69.8042],[18.6424,69.8036],[18.6532,69.7283],[18.6787,69.7167],[18.7057,69.7245],[18.7178,69.7596],[18.7186,69.7913],[18.6558,69.8345],[18.6511,69.8645],[18.6842,69.8812],[18.7605,69.8902],[18.7017,69.9276],[18.7185,69.9489],[18.7441,69.9685],[18.7697,69.9961],[18.7222,69.9884],[18.6793,69.9913],[18.6588,70.0146],[18.6546,70.0451],[18.6725,70.0749],[18.7011,70.1087],[18.7366,70.1154],[18.7905,70.0907],[18.9032,70.0805],[18.9409,70.0677],[18.9748,70.0679],[19.1828,70.0912],[19.2229,70.0868],[19.2558,70.0712],[19.2943,70.044],[19.3204,70.0147],[19.3613,70.004],[19.6585,69.9984],[19.583,69.9373],[19.6269,69.9408],[19.6982,69.9633],[19.7315,69.9795],[19.7629,70.0023],[19.8043,70.0044],[19.848,69.9949],[19.8717,69.9749],[19.736,69.8626],[19.4441,69.8399],[19.4136,69.8595],[19.3567,69.8294],[19.2885,69.809],[19.2502,69.7869],[19.2114,69.7948],[19.1163,69.788],[19.0749,69.7913],[18.8989,69.8499],[18.8606,69.8567],[18.8705,69.8317],[18.9699,69.7586],[18.9913,69.7358],[18.9697,69.712],[19.0062,69.7048],[19.0099,69.6734],[19.1899,69.7612],[19.2187,69.7686],[19.2502,69.7869],[19.2931,69.7798],[19.6313,69.8136],[19.717,69.8182],[20.2798,69.9769],[20.3374,69.9529],[20.3539,69.9151],[20.3556,69.8288],[20.2497,69.4887],[20.2254,69.4576],[20.1497,69.4024],[20.113,69.3873],[20.0181,69.3647],[19.9924,69.3542],[19.9201,69.2901],[19.9016,69.2667],[19.9406,69.27],[20.2303,69.4008],[20.2715,69.4245],[20.4539,69.5999],[20.4674,69.6306],[20.4694,69.7289],[20.4789,69.76],[20.5428,69.7721],[20.5728,69.7828],[20.5419,69.8002],[20.5249,69.8341],[20.5399,69.8731],[20.5613,69.8968],[20.594,69.9068],[20.7338,69.911],[20.7346,69.8718],[20.726,69.826],[20.6914,69.8062],[20.7242,69.8],[20.755,69.8125],[20.785,69.8397],[20.7782,69.8758],[20.8031,69.8999],[20.841,69.9226],[20.787,69.9355],[20.7441,69.9655],[20.7266,69.9916],[20.7175,70.0165],[20.7465,70.0303],[20.7828,70.0261],[20.8951,69.998],[21.0183,70.0051],[21.0595,69.9994],[21.0386,69.9707],[21.0677,69.9644],[21.3399,70.0185],[21.3561,70.0382],[21.236,70.1938],[21.2262,70.2358],[21.2611,70.2218],[21.4281,70.1929],[21.498,70.1909],[21.5323,70.1747],[21.8648,70.1163],[22.1846,70.0517],[22.4263,69.9337],[22.7303,69.655],[22.7235,69.6263],[22.4984,69.1411],[22.4742,69.1177],[22.4399,69.1079],[22.2811,69.0817],[21.9957,69.0692],[21.6461,69.267],[21.618,69.2777],[21.2746,69.3103],[21.0071,69.2253],[20.5863,69.0736],[20.5667,69.0568],[20.5209,69.06],[20.0715,69.0443],[20.239,68.954],[20.2968,68.9287],[20.3097,68.9033],[20.3315,68.8143],[20.3311,68.7862],[20.2305,68.4996],[20.1986,68.478],[19.9327,68.3619],[19.898,68.362],[18.9778,68.517],[18.4084,68.5825],[18.1371,68.5371],[18.1136,68.5468],[18.0268,68.602],[17.9788,68.608],[17.6224,68.598],[17.3391,68.565],[17.2028,68.5573],[16.4445,68.5633],[16.42,68.55],[16.3521,68.5651],[16.2758,68.5612],[16.2523,68.5835],[15.9631,68.6145],[15.8215,68.6751],[15.79,68.6933],[15.7905,68.7358],[15.8479,68.9686],[15.9424,68.9692],[15.9792,68.9501],[16.4353,68.8542],[16.5057,68.8312],[16.5397,68.8123],[16.5792,68.7774],[16.6075,68.6772],[16.6385,68.6708],[16.7351,68.6722],[16.9979,68.7152],[17.0357,68.7308],[17.0101,68.7379],[16.8783,68.7256],[16.842,68.7353],[16.9794,68.8378],[17.0068,68.8528],[17.0367,68.8591],[17.1507,68.7943],[17.1755,68.7731],[17.1418,68.7448],[17.1791,68.7446],[17.2451,68.7553],[17.4246,68.8187],[17.4568,68.8429]],[[19.4391,69.2578],[19.3992,69.3323],[19.3409,69.3701],[19.2728,69.3809],[19.1074,69.3786],[19.0753,69.3915],[18.9939,69.4437],[18.9715,69.4634],[18.9435,69.5532],[18.9334,69.6168],[18.9028,69.6526],[18.9065,69.695],[18.878,69.6934],[18.8455,69.67],[18.8174,69.6373],[18.816,69.6052],[18.7899,69.5745],[18.8561,69.546],[18.8885,69.4985],[18.918,69.4675],[19.0173,69.3806],[19.2255,69.24],[19.2571,69.2277],[19.321,69.226],[19.4105,69.2348],[19.4391,69.2578]],[[19.498,69.9078],[19.5175,69.9294],[19.4802,69.928],[19.4633,69.9002],[19.498,69.9078]]],[[[19.1261,70.1242],[19.0926,70.1166],[19.0202,70.1402],[18.9878,70.1558],[19.0122,70.1813],[19.0668,70.2253],[19.0975,70.2441],[19.1687,70.2602],[19.2094,70.2562],[19.2357,70.236],[19.2475,70.2113],[19.2492,70.1781],[19.2214,70.1614],[19.1261,70.1242]]],[[[19.9452,70.1386],[19.8954,70.1339],[19.6588,70.1657],[19.5395,70.2104],[19.5096,70.2334],[19.5415,70.2665],[19.5756,70.2817],[19.6068,70.2863],[19.6359,70.2846],[19.8385,70.203],[19.9179,70.1651],[19.9452,70.1386]]],[[[20.2474,70.2318],[20.2102,70.2313],[20.1765,70.2917],[20.2052,70.3002],[20.2592,70.2738],[20.2831,70.2554],[20.2474,70.2318]]]]}},{"type":"Feature","properties":{"code":"NO801","name":"NO801"},"geometry":{"type":"Polygon","coordinates":[[[10.6644,59.3278],[10.7812,59.2],[10.8178,59.1753],[10.9089,59.1428],[11.0065,59.1249],[11.0339,59.1095],[10.9987,59.0866],[10.9887,59.0351],[11.0137,59.0233],[11.0504,59.0305],[11.0815,59.0685],[11.0633,59.1031],[11.0933,59.1105],[11.1222,59.1057],[11.1544,59.0919],[11.1565,59.0554],[11.1234,59.0167],[11.0754,58.9847],[11.0483,58.9744],[10.8038,58.9215],[10.7717,58.9171],[10.662,58.9175],[10.6511,58.9795],[10.646,59.178],[10.5982,59.3006],[10.5947,59.3332],[10.6311,59.3354],[10.6644,59.3278]]]}},{"type":"Feature","properties":{"code":"NO802","name":"NO802"},"geometry":{"type":"Polygon","coordinates":[[[9.4928,58.4757],[9.4599,58.4491],[9.1489,58.2501],[8.8637,58.0992],[8.7226,58.0293],[8.5375,57.9501],[8.4035,57.9056],[8.3697,57.9106],[8.3491,57.9417],[8.2096,58.0806],[8.1875,58.1198],[8.5317,58.2687],[8.7077,58.3755],[8.7568,58.4287],[8.7951,58.4475],[8.8409,58.4371],[8.8704,58.4484],[8.8999,58.4709],[8.9295,58.5051],[8.8815,58.5044],[8.9135,58.5264],[9.1761,58.6598],[9.3566,58.7681],[9.3739,58.7484],[9.4719,58.5486],[9.4861,58.5176],[9.4928,58.4757]]]}},{"type":"Feature","properties":{"code":"NO803","name":"NO803"},"geometry":{"type":"MultiPolygon","coordinates":[[[[29.6889,69.7719],[29.7187,69.7844],[29.7221,69.7498],[29.6696,69.7497],[29.6889,69.7719]]],[[[23.333,70.293],[23.312,70.2709],[23.2092,70.2254],[22.9914,70.1976],[22.9521,70.198],[22.8224,70.2179],[22.7815,70.2283],[22.8097,70.2425],[22.9612,70.237],[22.9999,70.2415],[22.9977,70.2755],[22.9757,70.3111],[23.001,70.3148],[23.0852,70.2829],[23.1507,70.2709],[23.2051,70.2759],[23.2944,70.2953],[23.333,70.293]]],[[[23.5966,70.3962],[23.5706,70.3848],[23.5418,70.3845],[23.5747,70.4116],[23.6162,70.4173],[23.5966,70.3962]]],[[[30.8497,69.7747],[30.7917,69.7932],[30.2966,69.8781],[30.2007,69.8792],[30.1599,69.8741],[30.1307,69.8468],[30.0939,69.7227],[30.069,69.7304],[30.0225,69.7725],[29.9908,69.7914],[30.0127,69.819],[30.0151,69.853],[29.994,69.8772],[29.9608,69.8943],[29.9122,69.9045],[29.8408,69.9119],[29.8111,69.9079],[29.7974,69.829],[29.7628,69.8264],[29.7661,69.8584],[29.7522,69.8917],[29.6494,69.9738],[29.6145,69.9818],[28.8336,70.0755],[28.6449,70.137],[28.6066,70.163],[28.6425,70.1782],[28.687,70.177],[28.847,70.1505],[28.9736,70.1358],[29.8121,70.0627],[29.9081,70.061],[30.0977,70.0794],[31.0249,70.2798],[31.0533,70.2929],[31.0327,70.3735],[31.0155,70.4024],[30.9814,70.4274],[30.9283,70.4517],[30.1631,70.69],[29.2325,70.8871],[28.1854,71.0977],[27.6572,71.1255],[27.2827,71.0471],[27.2464,71.0382],[27.2106,71.0228],[27.1571,70.9867],[27.124,70.9555],[27.1074,70.922],[27.165,70.892],[27.153,70.8575],[27.0067,70.5414],[26.9859,70.5112],[26.72,70.4149],[26.5273,70.3573],[26.4891,70.3584],[26.4894,70.3887],[26.6048,70.5615],[26.6888,70.7518],[26.7025,70.7867],[26.7089,70.8217],[26.7173,70.9264],[26.7044,70.9513],[26.6717,70.9633],[26.5778,70.9521],[26.5152,70.934],[26.3528,70.8635],[26.0909,70.7312],[25.4377,70.3579],[25.4034,70.3345],[25.4243,70.3178],[25.4595,70.3088],[25.4848,70.2905],[25.4591,70.2661],[25.2304,70.0945],[25.1581,70.0674],[25.1141,70.0612],[24.9986,70.0527],[24.9137,70.056],[24.9196,70.1662],[24.9337,70.2174],[25.2189,70.5461],[25.2443,70.5695],[25.3721,70.6309],[25.6188,70.7436],[25.883,70.8552],[25.8978,70.8866],[25.8545,70.8993],[25.6131,70.9141],[25.5843,70.9245],[25.627,70.9356],[26.0147,70.9703],[26.129,70.9917],[26.1981,71.019],[26.2212,71.0477],[26.1923,71.0629],[25.7497,71.1114],[25.4656,71.0931],[25.2831,71.0988],[25.2634,71.0808],[25.2526,71.0562],[25.2584,71.0268],[25.3211,71.0072],[25.3459,70.9806],[25.3028,70.9635],[25.2663,70.9592],[24.6712,70.9915],[24.641,70.9911],[24.5481,70.9726],[24.2879,70.8613],[24.2531,70.84],[24.2786,70.813],[24.3369,70.768],[24.3465,70.7337],[24.3237,70.701],[24.2919,70.6709],[24.1786,70.5821],[24.0534,70.5155],[24.0209,70.528],[24.0579,70.5571],[24.114,70.5875],[24.1334,70.6082],[24.1148,70.6341],[24.0435,70.6849],[23.9847,70.7016],[23.8573,70.7136],[23.7919,70.7],[23.6512,70.6541],[23.6275,70.6323],[23.745,70.5241],[23.7707,70.5103],[23.8574,70.501],[23.6812,70.43],[23.6415,70.4279],[23.6328,70.4666],[23.6157,70.5061],[23.5665,70.5566],[23.552,70.5903],[23.5355,70.611],[23.4591,70.6278],[23.3858,70.6247],[23.1251,70.5466],[22.8801,70.4523],[22.8524,70.4353],[22.8282,70.4099],[22.9099,70.3456],[22.8696,70.3443],[22.8006,70.3546],[22.7923,70.383],[22.7591,70.3916],[22.6791,70.3925],[22.5423,70.3815],[22.3821,70.3528],[22.3571,70.3334],[22.3915,70.3023],[22.4272,70.2853],[22.3996,70.2734],[21.9751,70.328],[21.9367,70.3255],[21.818,70.2781],[21.7863,70.2594],[21.7713,70.223],[21.7382,70.223],[21.5728,70.2824],[21.5372,70.2765],[21.5024,70.264],[21.4954,70.2346],[21.498,70.1909],[21.4703,70.1906],[21.4266,70.2307],[21.4251,70.2656],[21.3852,70.2699],[21.2883,70.2569],[21.2262,70.2358],[21.1905,70.2556],[21.0452,70.45],[21.1313,70.4728],[21.0713,70.5051],[21.0999,70.5243],[21.2951,70.6],[21.3229,70.6163],[21.3632,70.6991],[21.3792,70.7227],[21.7565,70.9011],[22.557,71.0123],[22.9832,71.0962],[23.5528,71.2221],[23.9396,71.2978],[24.4393,71.3615],[24.4834,71.3657],[25.1519,71.3659],[25.8499,71.3609],[26.6935,71.2973],[27.0643,71.3094],[27.4493,71.3641],[27.9202,71.383],[28.2731,71.3614],[28.6232,71.313],[29.135,71.2136],[29.5916,71.1191],[30.5053,70.9201],[31.0785,70.7512],[31.5186,70.5756],[31.684,70.434],[31.6869,70.3841],[31.6803,70.2482],[31.4648,70.0656],[31.0008,69.8638],[30.8497,69.7747]],[[24.7822,71.0382],[24.8177,71.0871],[24.7819,71.1029],[24.7438,71.1097],[24.7026,71.1065],[24.6428,71.0755],[24.6223,71.0584],[24.7195,71.0294],[24.7503,71.0264],[24.7822,71.0382]],[[24.077,70.9161],[24.191,70.9397],[24.2249,70.9523],[24.2059,70.9749],[24.1579,71.0032],[24.0597,71.0287],[23.8991,71.0227],[23.8705,71.0116],[23.8516,70.988],[23.8813,70.9574],[23.9311,70.9317],[23.9995,70.9165],[24.077,70.9161]],[[23.0667,70.5703],[23.4383,70.7562],[23.4107,70.7794],[23.3364,70.8025],[23.3095,70.7734],[23.2757,70.7571],[23.0225,70.6572],[22.9831,70.66],[22.9404,70.6786],[22.9185,70.7063],[22.9073,70.73],[22.8093,70.7644],[22.7613,70.7628],[22.0716,70.6605],[22.0248,70.6477],[22.1034,70.594],[22.1457,70.5808],[22.2897,70.5431],[22.5347,70.4954],[22.7006,70.5034],[22.8326,70.516],[22.9442,70.5324],[23.0667,70.5703]],[[21.7606,70.2856],[21.7889,70.3124],[21.8023,70.3454],[21.7695,70.3641],[21.7185,70.3841],[21.6987,70.3664],[21.679,70.3046],[21.6896,70.2766],[21.7218,70.266],[21.7606,70.2856]]]]}},{"type":"Feature","properties":{"code":"NO804","name":"NO804"},"geometry":{"type":"MultiPolygon","coordinates":[[[[19.4391,69.2578],[19.4105,69.2348],[19.321,69.226],[19.2571,69.2277],[19.2255,69.24],[19.0173,69.3806],[18.918,69.4675],[18.8885,69.4985],[18.8561,69.546],[18.7899,69.5745],[18.816,69.6052],[18.8174,69.6373],[18.8455,69.67],[18.878,69.6934],[18.9065,69.695],[18.9028,69.6526],[18.9334,69.6168],[18.9435,69.5532],[18.9715,69.4634],[18.9939,69.4437],[19.0753,69.3915],[19.1074,69.3786],[19.2728,69.3809],[19.3409,69.3701],[19.3992,69.3323],[19.4391,69.2578]]],[[[19.2502,69.7869],[19.2187,69.7686],[19.1899,69.7612],[19.0099,69.6734],[19.0062,69.7048],[18.9697,69.712],[18.9913,69.7358],[18.9699,69.7586],[18.8705,69.8317],[18.8606,69.8567],[18.8989,69.8499],[19.0749,69.7913],[19.1163,69.788],[19.2114,69.7948],[19.2502,69.7869]]],[[[19.498,69.9078],[19.4633,69.9002],[19.4802,69.928],[19.5175,69.9294],[19.498,69.9078]]],[[[19.2502,69.7869],[19.2885,69.809],[19.3567,69.8294],[19.4136,69.8595],[19.4441,69.8399],[19.736,69.8626],[19.8717,69.9749],[19.848,69.9949],[19.8043,70.0044],[19.7629,70.0023],[19.7315,69.9795],[19.6982,69.9633],[19.6269,69.9408],[19.583,69.9373],[19.6585,69.9984],[19.3613,70.004],[19.3204,70.0147],[19.2943,70.044],[19.2558,70.0712],[19.2229,70.0868],[19.1828,70.0912],[18.9748,70.0679],[18.9409,70.0677],[18.9032,70.0805],[18.7905,70.0907],[18.7366,70.1154],[18.7011,70.1087],[18.6725,70.0749],[18.6546,70.0451],[18.6588,70.0146],[18.6793,69.9913],[18.7222,69.9884],[18.7697,69.9961],[18.7441,69.9685],[18.7185,69.9489],[18.7017,69.9276],[18.7605,69.8902],[18.6842,69.8812],[18.6511,69.8645],[18.6558,69.8345],[18.7186,69.7913],[18.7178,69.7596],[18.7057,69.7245],[18.6787,69.7167],[18.6532,69.7283],[18.6424,69.8036],[18.5872,69.8042],[18.457,69.782],[18.3799,69.7935],[18.3211,69.7807],[18.2957,69.768],[18.0455,69.6209],[18.0162,69.5963],[18.0127,69.5647],[18.0575,69.5485],[18.1848,69.5223],[18.2565,69.5213],[18.4073,69.5318],[18.4411,69.522],[18.4018,69.5038],[18.1712,69.4674],[18.1462,69.4548],[18.1612,69.4266],[18.1547,69.3913],[18.1118,69.3504],[18.0626,69.3233],[17.9969,69.2967],[17.9802,69.253],[17.95,69.2683],[17.9206,69.2918],[17.9093,69.3203],[17.9411,69.34],[18.037,69.359],[18.0635,69.3717],[18.08,69.4354],[18.0738,69.4668],[18.0629,69.4932],[17.8791,69.5777],[17.8509,69.5728],[17.6753,69.4864],[17.6453,69.5078],[17.5895,69.5606],[17.5044,69.5915],[17.464,69.5847],[16.8766,69.3754],[16.8588,69.3448],[16.7846,69.092],[16.7859,69.0569],[17.0533,69.0078],[17.1836,69.019],[17.2126,69.0315],[17.2079,69.0619],[17.259,69.1035],[17.412,69.1736],[17.4958,69.1858],[17.5187,69.1685],[17.5599,69.1541],[17.8421,69.1609],[17.9805,69.1831],[18.0033,69.1979],[17.9941,69.2283],[18.0242,69.2212],[18.0506,69.2079],[18.0653,69.1763],[18.0468,69.1538],[17.6266,68.8933],[17.4934,68.8436],[17.4568,68.8429],[17.477,68.8741],[17.4508,68.8904],[17.3812,68.9185],[17.3391,68.925],[17.2458,68.931],[17.1707,68.9096],[17.1333,68.8868],[17.1787,68.8115],[17.209,68.7983],[17.2516,68.7968],[17.4305,68.8475],[17.4568,68.8429],[17.4246,68.8187],[17.2451,68.7553],[17.1791,68.7446],[17.1418,68.7448],[17.1755,68.7731],[17.1507,68.7943],[17.0367,68.8591],[17.0068,68.8528],[16.9794,68.8378],[16.842,68.7353],[16.8783,68.7256],[17.0101,68.7379],[17.0357,68.7308],[16.9979,68.7152],[16.7351,68.6722],[16.6385,68.6708],[16.6075,68.6772],[16.5792,68.7774],[16.5397,68.8123],[16.5057,68.8312],[16.4353,68.8542],[15.9792,68.9501],[15.9424,68.9692],[15.9876,68.9895],[16.0781,69.0093],[16.2199,69.0931],[16.3659,69.203],[16.42,69.2852],[16.4317,69.316],[16.3937,69.5236],[16.3916,69.5579],[16.5699,69.627],[16.908,69.7486],[17.6765,69.9171],[17.8581,70.0084],[17.8891,70.0287],[17.9924,70.1237],[18.2507,70.2754],[18.5983,70.4201],[18.6366,70.43],[19.0578,70.5116],[19.3935,70.5408],[20.2244,70.5628],[21.0713,70.5051],[21.1313,70.4728],[21.0452,70.45],[21.1905,70.2556],[21.2262,70.2358],[21.236,70.1938],[21.3561,70.0382],[21.3399,70.0185],[21.0677,69.9644],[21.0386,69.9707],[21.0595,69.9994],[21.0183,70.0051],[20.8951,69.998],[20.7828,70.0261],[20.7465,70.0303],[20.7175,70.0165],[20.7266,69.9916],[20.7441,69.9655],[20.787,69.9355],[20.841,69.9226],[20.8031,69.8999],[20.7782,69.8758],[20.785,69.8397],[20.755,69.8125],[20.7242,69.8],[20.6914,69.8062],[20.726,69.826],[20.7346,69.8718],[20.7338,69.911],[20.594,69.9068],[20.5613,69.8968],[20.5399,69.8731],[20.5249,69.8341],[20.5419,69.8002],[20.5728,69.7828],[20.5428,69.7721],[20.4789,69.76],[20.4694,69.7289],[20.4674,69.6306],[20.4539,69.5999],[20.2715,69.4245],[20.2303,69.4008],[19.9406,69.27],[19.9016,69.2667],[19.9201,69.2901],[19.9924,69.3542],[20.0181,69.3647],[20.113,69.3873],[20.1497,69.4024],[20.2254,69.4576],[20.2497,69.4887],[20.3556,69.8288],[20.3539,69.9151],[20.3374,69.9529],[20.2798,69.9769],[19.717,69.8182],[19.6313,69.8136],[19.2931,69.7798],[19.2502,69.7869]],[[20.6089,70.0362],[20.7131,70.0453],[20.6951,70.0713],[20.5557,70.2079],[20.5264,70.2204],[20.4617,70.195],[20.3786,70.1466],[20.3711,70.1137],[20.3755,70.0763],[20.4086,70.0578],[20.4364,70.0495],[20.5283,70.0367],[20.6089,70.0362]],[[19.5356,70.0985],[19.5606,70.1097],[19.5301,70.1279],[19.4164,70.1638],[19.3868,70.1629],[19.3558,70.154],[19.3413,70.1247],[19.382,70.1077],[19.4599,70.0981],[19.5356,70.0985]],[[19.1261,70.1242],[19.2214,70.1614],[19.2492,70.1781],[19.2475,70.2113],[19.2357,70.236],[19.2094,70.2562],[19.1687,70.2602],[19.0975,70.2441],[19.0668,70.2253],[19.0122,70.1813],[18.9878,70.1558],[19.0202,70.1402],[19.0926,70.1166],[19.1261,70.1242]],[[19.9452,70.1386],[19.9179,70.1651],[19.8385,70.203],[19.6359,70.2846],[19.6068,70.2863],[19.5756,70.2817],[19.5415,70.2665],[19.5096,70.2334],[19.5395,70.2104],[19.6588,70.1657],[19.8954,70.1339],[19.9452,70.1386]],[[20.2474,70.2318],[20.2831,70.2554],[20.2592,70.2738],[20.2052,70.3002],[20.1765,70.2917],[20.2102,70.2313],[20.2474,70.2318]],[[20.8902,70.0767],[20.9196,70.0949],[20.8929,70.1229],[20.8504,70.1482],[20.8111,70.1431],[20.7887,70.1278],[20.7786,70.101],[20.8123,70.0756],[20.8593,70.0686],[20.8902,70.0767]],[[18.4733,69.82],[18.5623,69.8275],[18.5934,69.8392],[18.5709,69.8548],[18.5104,69.8621],[18.4505,69.8401],[18.4733,69.82]],[[17.4189,68.9969],[17.505,69.0378],[17.5285,69.0576],[17.5343,69.0864],[17.4714,69.088],[17.4312,69.084],[17.3979,69.0747],[17.3754,69.056],[17.3572,69.0264],[17.3858,68.9905],[17.4189,68.9969]],[[16.6095,68.8881],[16.6458,68.9055],[16.6434,68.9386],[16.5979,68.9672],[16.3262,68.9891],[16.2874,68.987],[16.2697,68.9584],[16.4252,68.893],[16.5221,68.8786],[16.5624,68.8779],[16.6095,68.8881]]]]}},{"type":"Feature","properties":{"code":"NO805","name":"NO805"},"geometry":{"type":"MultiPolygon","coordinates":[[[[12.5266,65.1317],[12.5487,65.1508],[12.6519,65.1869],[12.6807,65.1821],[12.5916,65.1358],[12.5618,65.1282],[12.5266,65.1317]]],[[[12.4403,65.4569],[12.4432,65.4844],[12.4132,65.5143],[12.443,65.5208],[12.608,65.4646],[12.6367,65.4474],[12.6032,65.4357],[12.5387,65.4509],[12.472,65.4546],[12.4546,65.4338],[12.4403,65.4569]]],[[[13.1022,65.8887],[13.0426,65.915],[13.0037,65.9382],[13.1316,65.932],[13.1621,65.9038],[13.1418,65.8781],[13.1022,65.8887]]],[[[12.801,66.0368],[12.7626,66.0184],[12.7205,66.0283],[12.7603,66.0446],[12.801,66.0368]]],[[[12.801,66.0368],[12.8281,66.0522],[12.8558,66.0545],[12.8837,66.047],[12.8434,66.0309],[12.801,66.0368]]],[[[12.9389,66.0614],[12.9831,66.0587],[12.9632,66.0283],[12.9254,65.9987],[12.9239,66.025],[12.9127,66.0505],[12.9389,66.0614]]],[[[13.3925,66.2442],[13.368,66.2298],[13.3145,66.2255],[13.2878,66.2301],[13.3208,66.2503],[13.3556,66.2534],[13.3925,66.2442]]],[[[13.3925,66.2442],[13.4251,66.2595],[13.8688,66.2982],[13.894,66.2778],[13.8644,66.2568],[13.8015,66.2413],[13.7699,66.2461],[13.6282,66.2332],[13.5284,66.2424],[13.4214,66.234],[13.3925,66.2442]]],[[[13.4573,66.3172],[13.434,66.3057],[13.3804,66.3044],[13.3442,66.3117],[13.3759,66.3301],[13.4166,66.3341],[13.4573,66.3172]]],[[[13.01,66.3917],[13.0259,66.4204],[13.0507,66.4338],[13.0823,66.4334],[13.1085,66.4123],[13.0747,66.3925],[13.01,66.3917]]],[[[14.2982,67.1805],[14.2301,67.0267],[14.2054,67.0081],[14.1681,67.0142],[14.02,67.1086],[14.0599,67.1548],[14.0932,67.1662],[14.2807,67.1993],[14.2982,67.1805]]],[[[14.3627,67.2009],[14.3975,67.221],[14.4398,67.2286],[14.4716,67.2221],[14.4302,67.1986],[14.4,67.1904],[14.3627,67.2009]]],[[[15.7314,67.9807],[15.7574,67.9942],[15.8958,68.003],[15.9222,68.0135],[15.96,68.0007],[15.9349,67.9714],[15.8447,67.9602],[15.8084,67.9596],[15.7314,67.9807]]],[[[16.4445,68.5633],[16.4588,68.5378],[16.42,68.55],[16.4445,68.5633]]],[[[15.7314,67.9807],[15.7081,67.9672],[15.3649,67.918],[15.3119,67.9224],[15.274,67.9184],[15.2415,67.921],[15.2109,67.9346],[15.1794,67.9593],[15.2158,67.9666],[15.2615,67.9667],[15.293,67.9796],[15.2643,68.0114],[15.2231,68.0364],[15.1929,68.0209],[15.1678,68.0006],[15.1794,67.9593],[15.1498,67.9589],[15.1076,67.9756],[15.0662,67.9774],[15.0062,67.972],[14.974,67.9593],[14.9663,67.911],[14.9407,67.8945],[14.8706,67.8822],[14.7769,67.8323],[14.7635,67.7971],[14.7368,67.6807],[14.7564,67.6614],[14.9056,67.6596],[15.1283,67.6364],[15.1655,67.624],[15.2025,67.5738],[15.2409,67.5473],[15.2774,67.532],[15.2581,67.5122],[15.159,67.5196],[15.1285,67.5315],[15.1524,67.5569],[15.1334,67.5739],[15.0959,67.5888],[15.0588,67.5953],[14.9498,67.5793],[14.7525,67.5208],[14.1086,67.234],[13.5002,66.9559],[12.982,66.5349],[12.9792,66.5028],[12.9886,66.4313],[13.01,66.3917],[12.9915,66.3679],[12.9942,66.3403],[13.0218,66.3264],[13.0802,66.3128],[13.1036,66.2972],[13.0691,66.2864],[12.9906,66.2738],[12.9582,66.2566],[12.9337,66.2224],[12.9,66.2052],[12.8663,66.1705],[12.8995,66.1661],[12.9654,66.1799],[12.9654,66.2189],[13.0031,66.2341],[13.0768,66.2501],[13.1138,66.2546],[13.2453,66.2405],[13.2878,66.2301],[13.2635,66.2147],[12.9073,66.1387],[12.7143,66.088],[12.682,66.0741],[12.6746,66.0209],[12.5909,66.0166],[12.5154,65.9873],[12.4764,65.9666],[12.4235,65.9301],[12.3937,65.8918],[12.43,65.8861],[12.5464,65.904],[12.5757,65.9114],[12.6978,65.9597],[12.7656,65.9764],[12.8006,65.9716],[12.7625,65.9498],[12.6803,65.9246],[12.6551,65.9082],[12.386,65.6579],[12.3605,65.6309],[12.3885,65.5387],[12.3606,65.5488],[12.3316,65.5714],[12.3004,65.5843],[12.2709,65.5775],[12.2489,65.5624],[11.9646,65.2188],[12.0154,65.2023],[12.4526,65.1355],[12.4955,65.1251],[12.4671,65.109],[12.3154,65.0815],[12.0411,65.0818],[12.0166,65.0975],[12.0228,65.1461],[11.9923,65.164],[11.9156,65.146],[11.8822,65.1698],[11.3527,65.4586],[11.188,65.6635],[11.2013,65.6994],[11.6917,66.0963],[12.159,66.4651],[12.6193,66.8041],[12.89,67.0148],[13.1666,67.1854],[13.4886,67.3524],[13.8566,67.5811],[14.0272,67.7008],[14.0623,67.7306],[14.0357,67.759],[13.9443,67.8101],[13.6669,67.7641],[13.4138,67.6454],[13.3742,67.6186],[13.2957,67.539],[13.2657,67.5221],[13.0755,67.456],[12.7474,67.3915],[12.7009,67.3925],[12.3427,67.4238],[12.0968,67.5001],[12.0619,67.5237],[11.9853,67.6677],[12.0008,67.709],[12.0838,67.8438],[12.286,68.0219],[12.4599,68.1639],[12.7776,68.3331],[12.9927,68.4035],[13.2708,68.5029],[13.5087,68.6143],[13.7395,68.7545],[13.9364,68.9084],[14.2158,69.0486],[14.4971,69.1506],[15.0082,69.2798],[15.2388,69.3745],[15.5088,69.4715],[15.9554,69.5604],[16.3916,69.5579],[16.3937,69.5236],[16.4317,69.316],[16.42,69.2852],[16.3659,69.203],[16.2199,69.0931],[16.0781,69.0093],[15.9876,68.9895],[15.9424,68.9692],[15.7189,68.9679],[15.6551,68.9566],[15.6197,68.9354],[15.5548,68.868],[15.487,68.8278],[15.4596,68.8043],[15.4441,68.7432],[15.4427,68.7061],[15.4556,68.6625],[15.3699,68.572],[15.2993,68.5107],[15.2679,68.4909],[15.1962,68.4618],[15.1557,68.4653],[15.0544,68.4622],[14.6133,68.4365],[14.4388,68.3991],[14.4033,68.387],[14.3453,68.3502],[14.3094,68.3194],[14.2701,68.2529],[14.2356,68.2379],[14.2164,68.2022],[14.2154,68.1709],[14.3475,68.1825],[14.6641,68.2377],[14.7846,68.2791],[14.819,68.2845],[14.8647,68.2378],[14.8948,68.2405],[14.9229,68.2582],[14.9476,68.2929],[14.9207,68.3223],[14.954,68.3371],[15.0126,68.3541],[14.9975,68.3215],[15.02,68.3011],[15.281,68.3027],[15.6583,68.3128],[15.9675,68.3999],[16.0134,68.4216],[16.1274,68.533],[16.1903,68.5522],[16.2339,68.5511],[16.203,68.5241],[16.1542,68.4981],[16.1,68.439],[16.0898,68.4115],[16.1223,68.3916],[16.1559,68.3936],[16.2717,68.4177],[16.4168,68.4245],[16.4587,68.4383],[16.5201,68.4764],[16.554,68.484],[17.5582,68.5465],[17.6822,68.4671],[17.6977,68.4417],[16.8877,68.391],[15.9821,68.2666],[15.4451,68.1429],[15.3621,68.0912],[15.3374,68.0695],[15.3637,68.0525],[15.4206,68.0267],[15.4471,68.0215],[15.5181,68.0818],[15.5641,68.0877],[15.8307,68.0551],[15.8515,68.0383],[15.8136,68.0299],[15.67,68.0357],[15.5544,68.0238],[15.5198,68.0068],[15.5593,67.9898],[15.6018,67.9861],[15.6958,67.991],[15.7314,67.9807]],[[13.2832,68.0029],[13.3715,68.0271],[13.4015,68.0481],[13.4192,68.0871],[13.3928,68.1573],[13.3563,68.1695],[13.3154,68.1655],[13.2372,68.1098],[13.1812,68.0573],[13.1806,68.025],[13.2014,68.0061],[13.2415,68.0016],[13.2832,68.0029]],[[12.9123,67.8628],[13.0343,67.892],[13.0672,67.906],[13.048,67.9231],[13.1399,68.1047],[13.11,68.106],[13.0674,68.0964],[12.9232,67.9825],[12.8998,67.9517],[12.8763,67.9009],[12.8758,67.8707],[12.9123,67.8628]],[[13.5496,68.0651],[13.7209,68.0834],[13.8546,68.1292],[13.8613,68.1842],[14.0108,68.3099],[13.9981,68.3373],[13.9645,68.3452],[13.9383,68.3455],[13.668,68.3092],[13.6053,68.2921],[13.521,68.2549],[13.4825,68.2101],[13.4656,68.1226],[13.4673,68.0844],[13.4911,68.0631],[13.5496,68.0651]],[[14.1014,68.3061],[14.1871,68.3207],[14.163,68.3432],[14.0823,68.3425],[14.0636,68.3166],[14.1014,68.3061]],[[15.3991,68.8144],[15.3825,68.855],[15.3046,68.8956],[15.2532,68.9147],[15.2187,68.9185],[15.2005,68.9504],[15.1916,68.9818],[15.17,69.012],[15.1313,69.0164],[15.1001,69.0041],[15.0883,68.9342],[15.0888,68.8966],[15.1346,68.8584],[15.1443,68.8216],[14.9104,68.7985],[14.5717,68.8122],[14.5259,68.8089],[14.4507,68.77],[14.3912,68.7111],[14.3775,68.6821],[14.4361,68.6145],[14.4756,68.6012],[14.5963,68.593],[14.6321,68.5794],[14.6177,68.5565],[14.726,68.4977],[14.7644,68.4948],[14.9054,68.5016],[14.9722,68.5266],[14.9955,68.5451],[14.9218,68.5729],[14.9465,68.584],[15.0601,68.5878],[15.3377,68.6545],[15.3992,68.6804],[15.4174,68.6998],[15.3991,68.8144]],[[14.8985,68.8718],[14.9657,68.873],[14.9563,68.9307],[14.8938,68.9373],[14.8576,68.9284],[14.8377,68.8936],[14.8619,68.8777],[14.8985,68.8718]],[[15.4999,68.8776],[15.5369,68.8955],[15.5663,68.9199],[15.5947,68.9694],[15.6235,68.9821],[15.8106,69.0164],[15.8628,69.042],[15.9828,69.1178],[16.1593,69.2492],[16.1746,69.2702],[16.162,69.2945],[16.1284,69.3103],[16.0822,69.3116],[15.9013,69.2659],[15.5764,69.1123],[15.4761,69.0277],[15.4556,69.0011],[15.4269,68.9273],[15.4256,68.8943],[15.4611,68.8761],[15.4999,68.8776]],[[12.7163,67.6481],[12.7151,67.6834],[12.6813,67.6914],[12.6103,67.6701],[12.5779,67.6545],[12.6134,67.6415],[12.6623,67.6397],[12.7163,67.6481]],[[14.292,67.3796],[14.384,67.3986],[14.4065,67.4169],[14.3486,67.4368],[14.2863,67.4162],[14.2549,67.3846],[14.292,67.3796]],[[12.8036,66.2094],[12.8787,66.241],[12.8753,66.288],[12.809,66.2968],[12.7377,66.2709],[12.7132,66.2485],[12.7383,66.2303],[12.7669,66.2172],[12.8036,66.2094]],[[12.3074,66.0177],[12.4825,66.044],[12.6306,66.0874],[12.6578,66.0991],[12.6558,66.1267],[12.6207,66.198],[12.5558,66.2055],[12.4884,66.1985],[12.4494,66.1852],[12.3158,66.0445],[12.3074,66.0177]],[[12.7955,66.1525],[12.7749,66.1737],[12.747,66.186],[12.7084,66.1846],[12.6831,66.1736],[12.6923,66.1487],[12.7218,66.1425],[12.7587,66.1409],[12.7955,66.1525]],[[11.9902,65.6294],[12.0234,65.6551],[12.0211,65.6945],[11.9129,65.713],[11.8438,65.6995],[11.8077,65.6777],[11.7681,65.624],[11.8012,65.6108],[11.8294,65.6111],[11.8921,65.5903],[11.9334,65.5974],[11.9902,65.6294]]]]}},{"type":"Feature","properties":{"code":"NO806","name":"NO806"},"geometry":{"type":"MultiPolygon","coordinates":[[[[11.1727,64.5019],[11.2343,64.5158],[11.2723,64.5114],[11.3006,64.487],[11.3702,64.4789],[11.4081,64.4812],[11.4354,64.4632],[11.4729,64.4614],[11.5992,64.4792],[11.9784,64.4998],[12.0141,64.4976],[12.143,64.4754],[12.1771,64.4592],[12.1509,64.4486],[11.3368,64.4235],[11.2237,64.46],[11.1964,64.475],[11.1727,64.5019]]],[[[11.1727,64.5019],[11.1416,64.5048],[11.1167,64.5226],[11.085,64.58],[11.1353,64.5889],[11.167,64.5814],[11.1364,64.5549],[11.1727,64.5019]]],[[[10.53,64.4386],[10.5013,64.4364],[10.0473,64.5732],[10.1979,64.7524],[10.2044,64.7866],[10.1759,64.8499],[10.1804,64.8899],[10.2165,64.9943],[10.2392,65.0224],[10.3847,65.1042],[10.69,65.2291],[11.1116,65.4209],[11.3267,65.4509],[11.3527,65.4586],[11.8822,65.1698],[11.9156,65.146],[11.8802,65.1266],[11.362,64.9075],[11.2621,64.8397],[11.2378,64.8117],[11.1996,64.7427],[11.2288,64.7293],[11.3939,64.7553],[11.6147,64.8303],[11.6507,64.8323],[11.6877,64.8165],[11.7599,64.8091],[11.7997,64.7933],[11.7687,64.7776],[11.5957,64.7691],[11.5554,64.7624],[11.3889,64.6856],[11.3896,64.6543],[11.4051,64.6176],[11.3622,64.5988],[11.3241,64.5415],[11.2945,64.541],[11.2752,64.5578],[11.283,64.5981],[11.3234,64.604],[11.3448,64.6257],[11.3541,64.6524],[11.3415,64.6836],[11.3042,64.6898],[11.2367,64.6845],[11.2028,64.6788],[11.1616,64.649],[11.1289,64.6455],[11.0986,64.6543],[11.0598,64.6467],[11.0264,64.6288],[11.0237,64.5981],[10.9752,64.6037],[10.9421,64.5958],[10.9148,64.5778],[10.9326,64.5489],[10.8957,64.5338],[10.5577,64.4494],[10.53,64.4386]],[[11.0731,64.9776],[10.9631,64.9568],[10.8732,64.9339],[10.7988,64.9256],[10.7625,64.9136],[10.7475,64.8924],[10.7635,64.867],[10.7967,64.8547],[10.8595,64.8677],[11.0322,64.8703],[11.0598,64.8661],[11.0793,64.8424],[11.1149,64.8346],[11.1562,64.8345],[11.242,64.8634],[11.2737,64.8824],[11.2978,64.9041],[11.1436,64.9733],[11.0731,64.9776]]]]}},{"type":"Feature","properties":{"code":"NO807","name":"NO807"},"geometry":{"type":"MultiPolygon","coordinates":[[[[9.0494,63.4984],[9.021,63.48],[8.7942,63.4337],[8.769,63.4178],[8.7398,63.4237],[8.6309,63.4103],[8.6027,63.3988],[8.5452,63.3958],[8.5127,63.4172],[8.5629,63.433],[9.024,63.5064],[9.0494,63.4984]]],[[[11.032,63.7883],[11.0126,63.7505],[11.0448,63.7483],[11.1017,63.776],[11.1267,63.7967],[11.032,63.7883],[11.0451,63.8204],[11.0635,63.8391],[11.0503,63.8679],[11.0157,63.8847],[10.9497,63.9067],[11.2255,64.0765],[11.2991,64.1051],[11.3271,64.1127],[11.3556,64.114],[11.3995,64.0972],[11.4814,64.0186],[11.4874,63.989],[11.4468,63.791],[11.4124,63.7697],[11.0559,63.7133],[11.027,63.7008],[10.8543,63.5976],[10.8405,63.4361],[10.3033,63.4566],[10.1984,63.4527],[10.097,63.419],[10.0683,63.3896],[10.1037,63.361],[10.2031,63.3316],[10.1707,63.3166],[10.0373,63.3519],[9.9227,63.3458],[9.9626,63.4017],[9.9719,63.4363],[9.9377,63.4577],[9.8758,63.4802],[9.8439,63.5006],[9.762,63.5939],[9.719,63.6134],[9.6074,63.6228],[9.5699,63.6159],[9.2276,63.5223],[9.0779,63.4915],[9.0494,63.4984],[9.0842,63.5195],[9.1751,63.5502],[9.1972,63.5667],[9.1484,63.5907],[9.1243,63.6126],[9.1781,63.646],[9.1459,63.6578],[9.1087,63.6634],[9.064,63.6596],[9.0733,63.6301],[9.0328,63.636],[8.9992,63.6491],[8.9449,63.6537],[8.914,63.6506],[8.8057,63.661],[8.7245,63.651],[8.6557,63.6337],[8.4183,63.5491],[8.317,63.5008],[8.3115,63.469],[8.3457,63.4454],[8.4139,63.4163],[8.3866,63.4028],[8.3302,63.3998],[8.2955,63.4035],[8.2185,63.4659],[8.1881,63.4957],[8.1472,63.5476],[8.1107,63.565],[7.8385,63.6389],[7.6798,63.6878],[7.7026,63.7128],[7.8522,63.8339],[7.9925,63.8913],[8.3318,63.9637],[8.6429,64.018],[8.7721,64.0144],[9.0162,64.0631],[9.3729,64.1437],[9.824,64.4149],[10.0184,64.558],[10.0473,64.5732],[10.5013,64.4364],[10.4608,64.4128],[10.529,64.4067],[10.5542,64.4154],[10.6025,64.4058],[10.6392,64.3902],[10.6532,64.3591],[10.6021,64.358],[10.5732,64.3725],[10.5425,64.3757],[10.502,64.3734],[10.2115,64.2116],[10.0648,64.1236],[10.0285,64.0951],[10.0014,64.0243],[9.9986,63.9293],[9.8266,63.8707],[9.6416,63.8241],[9.6055,63.8093],[9.5708,63.7679],[9.5861,63.6778],[9.6223,63.6836],[9.6884,63.7057],[9.9468,63.757],[10.0531,63.7743],[10.0948,63.7741],[10.0877,63.7456],[10.0531,63.7264],[9.976,63.7032],[9.8383,63.6906],[9.8194,63.6673],[9.8151,63.6287],[9.931,63.5124],[9.9542,63.5001],[10.04,63.4948],[10.1101,63.4991],[10.1387,63.5083],[10.1601,63.5371],[10.1996,63.5335],[10.3202,63.5591],[10.5709,63.6296],[10.9321,63.7362],[10.9649,63.7544],[10.994,63.7784],[11.032,63.7883]],[[8.3544,63.6621],[8.5042,63.6635],[8.7803,63.6898],[8.8076,63.7092],[8.7747,63.7627],[8.7451,63.7679],[8.3463,63.692],[8.3186,63.674],[8.3544,63.6621]],[[9.9341,64.0127],[9.9018,64.0483],[9.8704,64.0333],[9.8964,63.9991],[9.9341,64.0127]]]]}},{"type":"Feature","properties":{"code":"NO808","name":"NO808"},"geometry":{"type":"MultiPolygon","coordinates":[[[[6.7149,62.4971],[6.865,62.4614],[6.9309,62.4315],[6.9829,62.3686],[6.9943,62.3435],[6.9535,62.3507],[6.9037,62.418],[6.8678,62.4316],[6.7405,62.454],[6.7083,62.4527],[6.6513,62.4412],[6.6202,62.4461],[6.6705,62.491],[6.7149,62.4971]]],[[[6.5507,62.52],[6.574,62.5304],[6.5983,62.5137],[6.5507,62.52]]],[[[6.3289,62.5232],[6.367,62.5328],[6.4612,62.535],[6.4894,62.5339],[6.5222,62.5223],[6.492,62.5046],[6.344,62.4931],[6.3289,62.5232]]],[[[7.4372,62.915],[7.4233,62.9583],[7.4501,62.9571],[7.4845,62.943],[7.5236,62.9398],[7.5814,62.955],[7.6121,62.9525],[7.5883,62.9297],[7.4723,62.9019],[7.4372,62.915]]],[[[8.4291,62.9756],[8.561,62.9575],[8.6922,62.8357],[8.6576,62.826],[8.5218,62.8365],[8.3466,62.8725],[8.3183,62.8879],[8.3034,62.9228],[8.213,63.026],[8.2498,63.0194],[8.3615,62.9731],[8.4291,62.9756]]],[[[8.5769,63.1647],[8.5793,63.1321],[8.2906,63.1406],[8.2487,63.1513],[8.2983,63.1652],[8.4614,63.1609],[8.5017,63.1619],[8.5391,63.169],[8.5769,63.1647]]],[[[8.5769,63.1647],[8.5877,63.1985],[8.6141,63.1839],[8.5769,63.1647]]],[[[8.5877,63.1985],[8.5519,63.2062],[8.4877,63.2419],[8.4849,63.2786],[8.5243,63.2709],[8.5569,63.2499],[8.5789,63.2252],[8.5877,63.1985]]],[[[8.6617,63.4112],[8.6679,63.3821],[8.6337,63.3845],[8.6027,63.3988],[8.6309,63.4103],[8.6617,63.4112]]],[[[8.4849,63.2786],[8.4446,63.2821],[8.3544,63.2632],[8.2848,63.2565],[8.2651,63.2264],[8.2354,63.231],[8.1911,63.2262],[8.1587,63.2082],[8.1402,63.2339],[8.1111,63.2413],[8.0482,63.2277],[7.9553,63.1994],[7.932,63.1793],[7.9566,63.1559],[7.9923,63.1505],[8.0675,63.1493],[8.1063,63.162],[8.1587,63.2082],[8.1997,63.1692],[8.2487,63.1513],[8.1833,63.1333],[8.1662,63.1093],[8.187,63.0775],[8.192,63.0518],[8.1525,63.0726],[8.1049,63.107],[8.078,63.0932],[8.0235,63.0507],[7.9965,63.0174],[8.0201,62.9994],[8.1569,62.9353],[8.5163,62.7417],[8.5484,62.7185],[8.5461,62.6795],[8.5116,62.6828],[8.2336,62.7865],[8.1376,62.8284],[8.1,62.8861],[8.1044,62.9173],[8.0813,62.9424],[8.0528,62.9572],[7.9998,62.9719],[7.9573,62.9749],[7.6748,62.9733],[7.6747,63.0091],[7.6855,63.035],[7.7615,63.0266],[7.8003,63.0281],[7.8371,63.0401],[7.8783,63.0605],[7.8829,63.0941],[7.7138,63.0565],[7.6855,63.035],[7.6684,63.066],[7.6641,63.0951],[7.5883,63.1055],[7.4623,63.0629],[7.4242,63.0455],[7.4011,63.0218],[7.3776,62.9881],[7.3362,63.0016],[7.3112,63.017],[7.1535,63.002],[7.0432,62.9703],[6.9354,62.9223],[7.0088,62.8487],[7.0058,62.8133],[6.9772,62.7906],[6.9746,62.7578],[6.9821,62.7305],[7.0116,62.7228],[7.5269,62.7048],[7.5658,62.6914],[7.541,62.6712],[7.3182,62.6087],[7.2787,62.612],[7.0738,62.6554],[6.8403,62.6563],[6.8005,62.6679],[6.835,62.6848],[6.9368,62.7081],[6.929,62.7404],[6.8864,62.7452],[6.7545,62.7355],[6.7144,62.725],[6.6683,62.6887],[6.6823,62.6593],[6.654,62.6466],[6.3388,62.6169],[6.2821,62.5934],[6.2643,62.5724],[6.2715,62.5417],[6.3001,62.5253],[6.2375,62.5008],[6.2905,62.4787],[6.2494,62.4594],[6.2124,62.4494],[6.0964,62.4388],[6.0723,62.4264],[6.0989,62.4105],[6.1242,62.4019],[6.1664,62.396],[6.2871,62.4037],[6.3197,62.4086],[6.3563,62.423],[6.3927,62.4271],[6.4811,62.4329],[6.5105,62.424],[6.4806,62.4066],[6.2008,62.3458],[6.0059,62.2762],[5.8939,62.2075],[5.7808,62.1895],[5.7486,62.1944],[5.7721,62.2161],[5.8211,62.2852],[5.6961,62.3114],[5.7313,62.3345],[5.7347,62.3684],[5.657,62.3524],[5.6135,62.3344],[5.6387,62.3091],[5.5577,62.2903],[5.5326,62.2648],[5.5397,62.2208],[5.5733,62.1983],[5.5446,62.194],[5.4804,62.1965],[5.4393,62.1708],[5.4168,62.1302],[5.5984,62.0552],[5.5156,62.0366],[5.4919,62.0146],[5.4802,62.0412],[5.4375,62.0764],[5.2344,62.204],[5.1947,62.2119],[5.1302,62.2029],[5.1025,62.1893],[4.6957,62.3393],[4.7233,62.3611],[4.9988,62.4493],[5.5233,62.6498],[5.9557,62.8342],[6.3347,62.9695],[6.3593,62.98],[6.4346,63.0321],[6.5999,63.1179],[6.8186,63.1919],[6.9506,63.2265],[7.1135,63.2843],[7.213,63.3338],[7.2392,63.3547],[7.2445,63.3889],[7.2604,63.4284],[7.3846,63.5661],[7.5112,63.6273],[7.612,63.6571],[7.6798,63.6878],[7.8385,63.6389],[8.1107,63.565],[8.1472,63.5476],[8.1881,63.4957],[8.2185,63.4659],[8.2955,63.4035],[8.3302,63.3998],[8.3866,63.4028],[8.4139,63.4163],[8.5127,63.4172],[8.5452,63.3958],[8.4814,63.3633],[8.467,63.3349],[8.541,63.3147],[8.4849,63.2786]],[[8.112,63.4647],[7.9863,63.4678],[7.8265,63.4256],[7.7939,63.3939],[7.8169,63.3644],[8.006,63.3236],[8.1398,63.332],[8.2023,63.3667],[8.1938,63.4045],[8.1617,63.4323],[8.112,63.4647]],[[6.9273,62.7973],[6.9506,62.8176],[6.9528,62.856],[6.9116,62.8592],[6.8129,62.8536],[6.7834,62.8374],[6.779,62.8085],[6.8516,62.7918],[6.8933,62.7913],[6.9273,62.7973]],[[6.129,62.5785],[6.1013,62.5883],[6.0703,62.5836],[6.0396,62.5667],[6.0206,62.5463],[6.0514,62.5367],[6.1321,62.5309],[6.129,62.5785]],[[5.9211,62.2579],[6.011,62.3043],[6.0298,62.3229],[5.9783,62.4175],[5.9399,62.4274],[5.8657,62.4144],[5.8225,62.3761],[5.8256,62.3402],[5.8492,62.306],[5.859,62.2733],[5.8366,62.2533],[5.8795,62.2515],[5.9211,62.2579]]]]}},{"type":"Feature","properties":{"code":"NO809","name":"NO809"},"geometry":{"type":"MultiPolygon","coordinates":[[[[7.1453,60.9496],[7.1794,60.9483],[7.1884,60.9199],[7.1579,60.8988],[7.1453,60.9496]]],[[[5.2475,61.3485],[5.2028,61.3348],[5.1699,61.3374],[5.1924,61.3586],[5.2219,61.3614],[5.2475,61.3485]]],[[[5.296,61.4815],[5.3548,61.4775],[5.3197,61.4645],[5.296,61.4815]]],[[[7.3328,61.3641],[7.3769,61.3942],[7.5566,61.481],[7.5849,61.4816],[7.5762,61.4494],[7.4519,61.1323],[7.4093,61.1144],[7.0752,61.1115],[7.036,61.0967],[7.0361,61.0703],[7.0757,60.9727],[7.0377,60.9842],[7.0275,61.0262],[7.0021,61.0721],[6.8795,61.1335],[6.7959,61.1576],[6.8218,61.1753],[7.3008,61.1944],[7.3436,61.2005],[7.3225,61.2288],[7.2734,61.2773],[7.2619,61.3031],[7.3328,61.3641]]],[[[6.5899,61.884],[6.7516,61.8813],[6.7946,61.8677],[6.7679,61.8516],[6.5169,61.8078],[6.4795,61.8059],[6.1148,61.8313],[5.7789,61.8764],[5.7329,61.8947],[5.7691,61.9034],[6.0222,61.879],[6.3084,61.8644],[6.5899,61.884]]],[[[5.296,61.4815],[5.2687,61.474],[5.0897,61.4523],[5.0157,61.4348],[4.9863,61.414],[5.0034,61.3855],[4.9812,61.3721],[4.893,61.3526],[4.9147,61.3308],[4.9455,61.321],[4.9796,61.3196],[5.0183,61.3234],[5.043,61.3495],[5.0675,61.3181],[5.0367,61.3003],[4.9773,61.2776],[4.9938,61.252],[5.0718,61.1758],[5.2184,61.1103],[5.3892,61.0713],[5.4351,61.0732],[5.5143,61.0955],[5.6042,61.1366],[5.7249,61.1612],[6.18,61.1597],[6.2607,61.1355],[6.3846,61.1108],[6.4547,61.1136],[6.4908,61.1205],[6.5348,61.135],[6.5574,61.1624],[6.6216,61.1621],[6.603,61.1185],[6.4213,61.0719],[6.3442,61.0779],[6.3142,61.085],[6.2911,61.0976],[6.1802,61.1162],[5.8997,61.1279],[5.5429,61.0687],[5.5107,61.056],[5.4815,61.0342],[5.44,61.0268],[5.4037,61.0248],[5.3146,61.0532],[5.1876,61.0776],[5.1001,61.0723],[5.0558,61.0631],[5.0203,61.0116],[4.9844,61.0132],[4.9474,61.0065],[4.9416,60.9731],[5.0292,60.9704],[5.0052,60.9504],[4.9699,60.9348],[4.9622,60.9068],[4.9665,60.8738],[4.9838,60.8518],[5.0196,60.8472],[5.0339,60.8938],[5.0624,60.86],[5.101,60.8363],[5.0984,60.795],[4.835,60.847],[4.5383,60.8306],[4.3434,60.801],[4.3116,60.826],[4.2221,60.8795],[4.1734,60.951],[4.1594,60.9794],[4.1506,61.0631],[4.1796,61.14],[4.3247,61.2866],[4.343,61.3106],[4.3819,61.416],[4.3984,61.4464],[4.4207,61.4705],[4.446,61.6128],[4.4466,61.654],[4.3782,61.721],[4.3584,61.7464],[4.3265,61.8492],[4.3223,61.8816],[4.389,61.9931],[4.4974,62.1184],[4.569,62.2303],[4.6558,62.3255],[4.6957,62.3393],[5.1025,62.1893],[5.1716,62.1067],[5.4265,61.9491],[5.4431,61.9207],[5.3944,61.9105],[5.3377,61.8857],[5.3058,61.8664],[5.3059,61.8364],[5.2812,61.8253],[5.25,61.823],[5.2474,61.861],[5.1823,61.8735],[5.0155,61.8907],[4.9559,61.9083],[4.9183,61.9004],[4.856,61.8709],[4.8313,61.8537],[4.919,61.7905],[4.9439,61.7814],[4.9708,61.7781],[5.0045,61.785],[5.1186,61.8219],[5.154,61.8147],[5.1612,61.7799],[5.2455,61.7666],[5.2207,61.7504],[5.1569,61.7359],[5.0361,61.7558],[4.9773,61.7249],[4.9747,61.6662],[4.9887,61.6337],[5.0093,61.6175],[5.1802,61.5165],[5.2566,61.4992],[5.296,61.4815]],[[5.1151,61.9296],[5.1368,61.9469],[5.1533,61.9864],[5.1297,62.0261],[5.0912,62.0328],[5.0278,62.0314],[4.9903,62.0234],[4.9898,61.9975],[5.0114,61.9459],[5.0383,61.9326],[5.0739,61.9242],[5.1151,61.9296]],[[4.8237,61.0958],[4.7521,61.0935],[4.7541,61.0629],[4.7676,61.0308],[4.7924,61.0402],[4.8144,61.0633],[4.8237,61.0958],[4.8506,61.0741],[4.9229,61.0646],[4.9911,61.0903],[5.0167,61.1071],[5.013,61.1607],[4.9989,61.1939],[4.9623,61.2066],[4.8956,61.2097],[4.8875,61.1748],[4.8668,61.1509],[4.8368,61.1303],[4.8237,61.0958]],[[4.7275,60.9937],[4.7327,61.0421],[4.7151,61.0717],[4.6931,61.0849],[4.6563,61.0573],[4.6489,61.0237],[4.6665,61.0033],[4.6912,60.9932],[4.7275,60.9937]]]]}},{"type":"Feature","properties":{"code":"NO810","name":"NO810"},"geometry":{"type":"MultiPolygon","coordinates":[[[[5.5376,59.6223],[5.558,59.5902],[5.5604,59.5543],[5.5268,59.5427],[5.5217,59.5857],[5.5376,59.6223]]],[[[5.4577,60.0302],[5.4732,59.9953],[5.4453,59.9907],[5.4121,60.0046],[5.4577,60.0302]]],[[[5.2444,60.5027],[5.2814,60.4387],[5.2612,60.4196],[5.2391,60.446],[5.2242,60.4787],[5.1946,60.504],[5.2444,60.5027]]],[[[5.2444,60.5027],[5.2339,60.5441],[5.2068,60.5737],[5.1978,60.6018],[5.1674,60.6267],[5.1062,60.6522],[5.0761,60.6703],[5.0317,60.7139],[4.9949,60.7267],[4.97,60.7433],[4.956,60.7787],[4.9273,60.801],[4.8918,60.8059],[4.8654,60.793],[4.8969,60.7558],[4.9177,60.6891],[5.0383,60.6202],[4.9504,60.6094],[4.9686,60.5902],[5.0103,60.5159],[5.1515,60.3995],[5.1074,60.4014],[5.0306,60.4247],[4.9827,60.4527],[4.9546,60.4545],[4.9495,60.3244],[4.9527,60.2695],[4.9713,60.2393],[4.993,60.2189],[5.0922,60.176],[5.1253,60.1796],[5.1532,60.1959],[5.162,60.2759],[5.1775,60.308],[5.2246,60.2583],[5.2513,60.2371],[5.3885,60.1543],[5.4487,60.131],[5.5939,60.0994],[5.6231,60.0824],[5.593,60.0665],[5.5059,60.0523],[5.4577,60.0302],[5.4187,60.0759],[5.3887,60.0828],[5.3587,60.073],[5.3467,60.0239],[5.3735,59.9694],[5.327,59.9793],[5.2925,59.9648],[5.288,59.9127],[5.2966,59.856],[5.3279,59.7977],[5.3648,59.7696],[5.4026,59.7533],[5.4465,59.7474],[5.4899,59.7589],[5.5297,59.7821],[5.5348,59.8172],[5.5181,59.9036],[5.5596,59.8904],[5.5912,59.9038],[5.6224,59.9238],[5.6593,59.9772],[5.6887,59.9981],[5.7,60.0255],[5.701,60.0547],[5.6842,60.0799],[5.7193,60.0736],[5.9237,60.065],[5.9327,60.1015],[5.9614,60.0853],[5.9964,60.0836],[6.0601,60.1286],[6.0516,60.1531],[6.021,60.1642],[5.9544,60.1625],[5.969,60.2011],[6.0137,60.2601],[6.053,60.2851],[6.1798,60.3505],[6.2856,60.389],[6.4759,60.4416],[6.5576,60.4576],[6.6726,60.4696],[6.7013,60.4549],[6.667,60.4405],[6.4951,60.4019],[6.1139,60.217],[6.0898,60.1867],[6.1126,60.1455],[6.1272,60.1057],[6.1038,60.0822],[6.0035,59.9986],[5.9622,59.9741],[5.9253,59.9567],[5.7959,59.9254],[5.7361,59.8819],[5.7247,59.8497],[5.7494,59.8184],[5.6756,59.8155],[5.6567,59.7968],[5.6901,59.78],[5.7238,59.7774],[5.7455,59.7306],[5.7883,59.738],[5.8311,59.7569],[5.859,59.7443],[5.9276,59.6753],[5.9194,59.6496],[5.8824,59.6322],[5.7819,59.6457],[5.6301,59.6796],[5.596,59.6804],[5.5592,59.6538],[5.5376,59.6223],[5.5252,59.7215],[5.4964,59.7191],[5.467,59.7067],[5.3595,59.6455],[5.3184,59.6352],[5.3404,59.6646],[5.3677,59.6834],[5.3822,59.7084],[5.3404,59.7275],[5.2231,59.8479],[5.1832,59.8682],[5.1491,59.8663],[5.1075,59.7793],[5.1141,59.7474],[5.1644,59.6118],[5.1816,59.5809],[5.2207,59.5842],[5.2858,59.627],[5.3184,59.6352],[5.3001,59.6051],[5.2087,59.5079],[4.6789,59.581],[4.6643,59.6043],[4.6255,59.7189],[4.6204,59.749],[4.6263,59.8383],[4.6078,59.9433],[4.5958,59.9851],[4.4011,60.403],[4.3002,60.561],[4.2954,60.6119],[4.2983,60.695],[4.3093,60.7492],[4.3434,60.801],[4.5383,60.8306],[4.835,60.847],[5.0984,60.795],[5.101,60.8363],[5.3284,60.8622],[5.3673,60.8603],[5.6284,60.7387],[5.6585,60.718],[5.385,60.5612],[5.3548,60.53],[5.2834,60.5188],[5.2444,60.5027]],[[4.8548,60.6178],[4.8187,60.6634],[4.7913,60.6663],[4.7923,60.6342],[4.8016,60.6023],[4.8338,60.589],[4.8548,60.6178]],[[5.2013,60.0135],[5.1741,60.0171],[5.1152,59.9983],[5.15,59.9817],[5.1868,59.9745],[5.2121,59.9837],[5.2013,60.0135],[5.2689,59.9976],[5.2957,60.0189],[5.2853,60.0692],[5.2219,60.0979],[5.1981,60.0873],[5.1824,60.0537],[5.2013,60.0135]]]]}},{"type":"Feature","properties":{"code":"NO811","name":"NO811"},"geometry":{"type":"MultiPolygon","coordinates":[[[[6.0696,59.2363],[6.0963,59.2507],[6.1167,59.282],[6.1526,59.2595],[6.1269,59.2368],[6.0923,59.2249],[6.0696,59.2363]]],[[[6.3847,58.2725],[6.0891,58.1123],[6.0425,58.0935],[5.6236,58.221],[5.4577,58.314],[5.2992,58.3948],[5.2,58.4786],[5.1191,58.5684],[5.0591,58.6688],[5.0436,58.7156],[5.0375,58.7535],[5.0396,58.8308],[5.0202,58.8605],[4.9936,58.8923],[4.9495,58.927],[4.8334,58.9925],[4.7671,59.0406],[4.7398,59.0655],[4.7078,59.1205],[4.6775,59.2364],[4.7043,59.4082],[4.6964,59.4907],[4.6808,59.5496],[4.6789,59.581],[5.2087,59.5079],[5.2346,59.442],[5.2388,59.4118],[5.2069,59.3836],[5.189,59.3607],[5.1672,59.2344],[5.1684,59.1938],[5.1869,59.1611],[5.2255,59.1448],[5.2634,59.1467],[5.2962,59.1546],[5.3123,59.1816],[5.3209,59.2202],[5.3241,59.2652],[5.2841,59.3301],[5.2937,59.3584],[5.3255,59.3304],[5.3406,59.2876],[5.3888,59.2707],[5.5597,59.2755],[5.683,59.3243],[5.9759,59.3557],[6.011,59.3481],[6.0492,59.3293],[6.077,59.299],[5.9539,59.2867],[5.9276,59.2677],[5.9367,59.2383],[5.9657,59.2285],[6.0099,59.224],[5.9977,59.1993],[6.023,59.1818],[6.0566,59.1856],[6.0411,59.16],[6.0121,59.1383],[5.8821,59.0677],[5.804,59.059],[5.7632,59.0595],[5.748,59.1235],[5.6237,59.1366],[5.5843,59.1318],[5.6015,59.1074],[5.5741,59.0945],[5.5987,59.0791],[5.6249,59.0849],[5.6511,59.0778],[5.6913,59.0831],[5.7264,59.0617],[5.648,59.0413],[5.6091,59.0369],[5.5753,59.0229],[5.5573,58.9674],[5.516,58.7497],[5.522,58.724],[5.55,58.6644],[5.6676,58.5525],[5.7877,58.4943],[5.8684,58.4686],[5.9093,58.4607],[5.8854,58.4315],[5.9463,58.4137],[5.9856,58.4162],[6.0182,58.4034],[6.0482,58.3801],[6.0766,58.368],[6.3847,58.2725]],[[5.8586,59.1797],[5.8155,59.1953],[5.7789,59.1776],[5.7838,59.1455],[5.8247,59.1413],[5.8586,59.1797]],[[5.4627,59.1784],[5.4482,59.2065],[5.3929,59.2362],[5.3796,59.1722],[5.4185,59.1611],[5.4627,59.1784]]]]}},{"type":"Feature","properties":{"code":"NO812","name":"NO812"},"geometry":{"type":"Polygon","coordinates":[[[8.1875,58.1198],[8.2096,58.0806],[8.3491,57.9417],[8.3697,57.9106],[8.3344,57.8896],[7.8739,57.7998],[7.6639,57.7712],[7.4264,57.7596],[7.1832,57.7587],[6.9132,57.775],[6.7326,57.8012],[6.3896,57.8631],[6.2695,57.9128],[6.1728,57.9734],[6.1381,57.9985],[6.0606,58.0712],[6.0425,58.0935],[6.0891,58.1123],[6.3847,58.2725],[6.4178,58.2469],[6.5538,58.1179],[6.6119,58.0834],[6.6428,58.0718],[7.1044,58.0021],[7.5822,58.0093],[8.1437,58.1163],[8.1875,58.1198]]]}},{"type":"Feature","properties":{"code":"NO813","name":"NO813"},"geometry":{"type":"Polygon","coordinates":[[[10.7615,59.8345],[10.7578,59.7941],[10.6897,59.5416],[10.6866,59.5001],[10.6694,59.4707],[10.6526,59.4192],[10.6476,59.389],[10.6644,59.3278],[10.6311,59.3354],[10.5947,59.3332],[10.5982,59.3006],[10.646,59.178],[10.6511,58.9795],[10.662,58.9175],[10.6483,58.8423],[10.2921,58.7662],[10.0116,58.7133],[9.9985,58.7522],[9.87,58.9631],[9.9713,58.9672],[10.0137,58.9734],[10.1616,59.0096],[10.2799,59.045],[10.3073,59.0642],[10.3149,59.1022],[10.3404,59.1704],[10.3691,59.1638],[10.3873,59.0952],[10.4092,59.0656],[10.4207,59.0983],[10.4183,59.1438],[10.4446,59.1577],[10.4582,59.1951],[10.443,59.2408],[10.4716,59.2495],[10.514,59.2875],[10.5242,59.3246],[10.4222,59.5947],[10.406,59.6309],[10.3851,59.6596],[10.3637,59.6839],[10.3395,59.6975],[10.4965,59.7884],[10.6526,59.8927],[10.7615,59.8345]]]}},{"type":"Feature","properties":{"code":"NO814","name":"NO814"},"geometry":{"type":"Polygon","coordinates":[[[9.87,58.9631],[9.9985,58.7522],[10.0116,58.7133],[9.9704,58.6961],[9.8382,58.6567],[9.653,58.5641],[9.4928,58.4757],[9.4861,58.5176],[9.4719,58.5486],[9.3739,58.7484],[9.3566,58.7681],[9.7723,59.0121],[9.8132,59.0296],[9.833,58.9878],[9.87,58.9631]]]}}]}