{"type":"FeatureCollection","features":[{"type":"Feature","properties":{"code":"RO001","name":"ALBA"},"geometry":{"type":"Polygon","coordinates":[[[23.9783,46.4454],[24.2217,46.268],[24.2425,46.2409],[24.0466,46.0791],[23.9794,46.0359],[23.8735,45.9894],[23.8519,45.9744],[23.6367,45.7935],[23.6201,45.7576],[23.5932,45.6731],[23.6316,45.4883],[23.6424,45.4626],[23.6089,45.4671],[23.5823,45.4889],[23.5105,45.5641],[23.4895,45.5925],[23.3344,45.8823],[23.3178,45.9051],[23.0666,46.1872],[22.938,46.3211],[22.8966,46.3329],[22.7382,46.3537],[22.6857,46.3913],[22.8028,46.5478],[22.8327,46.5488],[23.0476,46.4729],[23.0747,46.4689],[23.6846,46.4267],[23.9783,46.4454]]]}},{"type":"Feature","properties":{"code":"RO002","name":"SATU MARE"},"geometry":{"type":"Polygon","coordinates":[[[23.4974,47.9693],[23.6168,47.8977],[23.6336,47.8738],[23.6189,47.8439],[23.2886,47.5612],[23.2559,47.5561],[23.1721,47.5907],[23.1351,47.6139],[23.0959,47.5916],[22.9757,47.4919],[22.9758,47.4415],[23.0016,47.4175],[22.6302,47.3522],[22.6021,47.3514],[22.2002,47.5992],[22.1996,47.6359],[22.2795,47.7275],[22.3167,47.7462],[22.4636,47.803],[22.4966,47.8014],[22.5564,47.7736],[22.5921,47.7697],[22.6615,47.7797],[22.761,47.8477],[22.8943,47.953],[22.9329,47.9593],[23.4512,47.9779],[23.4974,47.9693]]]}},{"type":"Feature","properties":{"code":"RO003","name":"MARAMURES"},"geometry":{"type":"Polygon","coordinates":[[[24.9413,47.727],[24.9506,47.5858],[24.9218,47.5954],[24.5597,47.5783],[24.5218,47.5747],[24.2852,47.5294],[24.0002,47.3522],[23.9638,47.3536],[23.827,47.3333],[23.1328,47.4281],[23.0866,47.4311],[23.0016,47.4175],[22.9758,47.4415],[22.9757,47.4919],[23.0681,47.5717],[23.1351,47.6139],[23.1721,47.5907],[23.2559,47.5561],[23.2886,47.5612],[23.6189,47.8439],[23.6336,47.8738],[23.6168,47.8977],[23.4974,47.9693],[23.5214,47.9943],[23.5632,47.9992],[23.6463,47.9984],[24.4761,47.9692],[24.5906,47.9606],[24.6369,47.942],[24.9413,47.727]]]}},{"type":"Feature","properties":{"code":"RO004","name":"SUCEAVA"},"geometry":{"type":"Polygon","coordinates":[[[26.1107,47.9858],[26.2804,47.8647],[26.4834,47.6715],[26.5517,47.5204],[26.5874,47.4628],[26.6664,47.4604],[26.651,47.4318],[26.5518,47.3048],[26.5211,47.2728],[26.4854,47.2862],[26.4161,47.3324],[26.3765,47.3365],[25.8017,47.2869],[25.7794,47.2705],[25.7287,47.2083],[25.6685,47.1216],[25.6741,47.0907],[25.6354,47.094],[25.2532,47.0891],[25.0596,47.1384],[25.0606,47.1726],[24.9506,47.5858],[24.9413,47.727],[24.9724,47.74],[25.2501,47.8904],[25.3367,47.9221],[25.9317,47.9783],[26.0659,47.9882],[26.1107,47.9858]]]}},{"type":"Feature","properties":{"code":"RO005","name":"BOTOSANI"},"geometry":{"type":"Polygon","coordinates":[[[27.0258,48.1283],[27.1469,47.9889],[27.2837,47.7776],[27.3764,47.6279],[27.3948,47.5907],[27.0584,47.4456],[27.0149,47.4484],[26.9084,47.4884],[26.7618,47.5184],[26.7355,47.5169],[26.6664,47.4604],[26.5874,47.4628],[26.5517,47.5204],[26.4834,47.6715],[26.2804,47.8647],[26.1107,47.9858],[26.1402,48.0109],[26.5995,48.2366],[26.6251,48.2678],[26.6528,48.2549],[26.7951,48.2452],[26.8216,48.2368],[26.888,48.2061],[27.0258,48.1283]]]}},{"type":"Feature","properties":{"code":"RO006","name":"IASI"},"geometry":{"type":"Polygon","coordinates":[[[27.5935,47.3729],[27.7043,47.3047],[27.7251,47.2854],[27.9192,47.069],[28.0033,47.0401],[28.0401,47.0398],[28.0761,46.9694],[28.1099,46.9254],[28.1086,46.8486],[27.2501,46.8808],[27.2106,46.8855],[27.2119,46.9201],[27.2309,46.9803],[27.2252,47.0157],[27.1783,47.0627],[27.1488,47.0842],[27.1052,47.089],[27.0661,47.083],[26.9653,47.0482],[26.8863,47.0307],[26.853,47.0337],[26.8205,47.0433],[26.6777,47.1178],[26.5328,47.2465],[26.5211,47.2728],[26.5518,47.3048],[26.651,47.4318],[26.6664,47.4604],[26.7355,47.5169],[26.7618,47.5184],[26.87,47.4975],[26.9084,47.4884],[27.0149,47.4484],[27.0584,47.4456],[27.3948,47.5907],[27.567,47.3953],[27.5935,47.3729]]]}},{"type":"Feature","properties":{"code":"RO007","name":"VASLUI"},"geometry":{"type":"Polygon","coordinates":[[[28.1086,46.8486],[28.1632,46.8025],[28.1836,46.773],[28.2376,46.6812],[28.249,46.6267],[28.2435,46.4492],[28.2339,46.3806],[28.2097,46.3601],[28.123,46.2492],[28.1112,46.2029],[28.1181,46.1366],[28.1072,46.0926],[28.071,46.1073],[27.5109,46.1286],[27.4704,46.1266],[27.482,46.156],[27.4824,46.1953],[27.4711,46.3385],[27.4448,46.4102],[27.325,46.6592],[27.305,46.6906],[27.2208,46.7469],[27.1883,46.7563],[27.2106,46.8855],[27.2501,46.8808],[28.1086,46.8486]]]}},{"type":"Feature","properties":{"code":"RO008","name":"GALATI"},"geometry":{"type":"Polygon","coordinates":[[[28.1072,46.0926],[28.0868,46.0152],[28.0943,45.6954],[28.1023,45.5966],[28.1839,45.4969],[28.1966,45.4723],[28.0256,45.4037],[27.5893,45.4782],[27.5483,45.4781],[27.5353,45.5073],[27.3572,45.7435],[27.2739,45.8892],[27.24,45.964],[27.2349,46.0092],[27.272,46.0559],[27.3041,46.0774],[27.4704,46.1266],[27.5109,46.1286],[28.071,46.1073],[28.1072,46.0926]]]}},{"type":"Feature","properties":{"code":"RO009","name":"TULCEA"},"geometry":{"type":"Polygon","coordinates":[[[28.2244,45.4723],[28.2476,45.449],[28.3224,45.3533],[28.3556,45.3248],[28.5408,45.2688],[28.7263,45.2288],[28.7897,45.2447],[28.8175,45.326],[28.8568,45.3447],[29.2152,45.4205],[29.4819,45.4554],[29.5174,45.4519],[29.5476,45.4285],[29.7142,45.2405],[29.7142,45.2128],[29.624,44.8879],[29.604,44.8544],[29.572,44.8377],[29.2411,44.8025],[29.151,44.7801],[29.0876,44.7509],[29.0524,44.7286],[28.988,44.6706],[28.9615,44.6896],[28.9334,44.6944],[28.7484,44.6916],[28.7126,44.6885],[28.5529,44.6461],[28.5183,44.6425],[28.4854,44.6434],[28.4184,44.6587],[28.2858,44.7114],[28.2127,44.7456],[28.1911,44.7619],[28.1814,44.7855],[28.0663,44.7958],[28.0745,44.8358],[28.0246,45.3642],[28.0256,45.4037],[28.1966,45.4723],[28.2244,45.4723]]]}},{"type":"Feature","properties":{"code":"RO010","name":"CONSTANTA"},"geometry":{"type":"Polygon","coordinates":[[[28.988,44.6706],[28.9363,44.586],[28.8902,44.5277],[28.8451,44.4862],[28.6813,44.3565],[28.6648,44.3173],[28.61,43.87],[28.5814,43.7522],[28.5649,43.7217],[28.4904,43.7157],[28.4207,43.7229],[28.1649,43.7754],[27.6359,43.9495],[27.6089,43.9548],[27.5845,43.9666],[27.4037,44.0273],[27.3228,44.0762],[27.2573,44.1318],[27.9575,44.3241],[27.9918,44.3454],[28.0067,44.3731],[27.8951,44.7514],[27.9266,44.7693],[28.0663,44.7958],[28.1814,44.7855],[28.1911,44.7619],[28.2127,44.7456],[28.2858,44.7114],[28.4184,44.6587],[28.4854,44.6434],[28.5529,44.6461],[28.7126,44.6885],[28.7484,44.6916],[28.9334,44.6944],[28.9615,44.6896],[28.988,44.6706]]]}},{"type":"Feature","properties":{"code":"RO011","name":"CALARASI"},"geometry":{"type":"Polygon","coordinates":[[[27.9918,44.3454],[27.9575,44.3241],[27.2573,44.1318],[27.1762,44.1328],[27.1502,44.1448],[27.1064,44.1511],[27.0196,44.1523],[26.9168,44.1401],[26.8557,44.1254],[26.8018,44.1021],[26.7257,44.0819],[26.6221,44.0647],[26.4273,44.0438],[26.3982,44.0341],[26.3608,44.0414],[26.3547,44.0717],[26.2709,44.2586],[26.2482,44.2873],[26.412,44.5159],[26.44,44.5199],[27.2802,44.504],[27.5114,44.4983],[27.5691,44.4928],[27.9547,44.3616],[27.9918,44.3454]]]}},{"type":"Feature","properties":{"code":"RO012","name":"IALOMITA"},"geometry":{"type":"Polygon","coordinates":[[[27.1984,44.7851],[27.8703,44.7634],[27.8951,44.7514],[28.0067,44.3731],[27.9918,44.3454],[27.5971,44.485],[27.5691,44.4928],[27.5114,44.4983],[26.6047,44.5178],[26.44,44.5199],[26.412,44.5159],[26.4067,44.5542],[26.3522,44.7177],[26.3408,44.7419],[26.3192,44.7645],[26.3465,44.7795],[26.5987,44.8556],[26.6383,44.8544],[27.1984,44.7851]]]}},{"type":"Feature","properties":{"code":"RO013","name":"BRAILA"},"geometry":{"type":"Polygon","coordinates":[[[28.0256,45.4037],[28.0246,45.3642],[28.0745,44.8358],[28.0663,44.7958],[27.9266,44.7693],[27.8951,44.7514],[27.8703,44.7634],[27.1984,44.7851],[27.2165,44.8125],[27.4179,45.342],[27.4291,45.3821],[27.5162,45.4548],[27.5483,45.4781],[27.5893,45.4782],[28.0256,45.4037]]]}},{"type":"Feature","properties":{"code":"RO014","name":"NEAMT"},"geometry":{"type":"Polygon","coordinates":[[[26.5211,47.2728],[26.5328,47.2465],[26.6777,47.1178],[26.8205,47.0433],[26.853,47.0337],[26.8863,47.0307],[26.9653,47.0482],[27.0661,47.083],[27.1052,47.089],[27.1488,47.0842],[27.1783,47.0627],[27.2252,47.0157],[27.2309,46.9803],[27.2119,46.9201],[27.2106,46.8855],[27.1883,46.7563],[27.1518,46.7422],[27.1175,46.7363],[26.5728,46.6703],[26.1799,46.6445],[26.1465,46.6438],[26.0847,46.6528],[25.9955,46.6829],[25.8834,46.6907],[25.8205,46.8237],[25.8213,46.9],[25.8117,46.9879],[25.7416,47.0615],[25.7188,47.078],[25.6741,47.0907],[25.6685,47.1216],[25.7287,47.2083],[25.7794,47.2705],[25.8017,47.2869],[26.3765,47.3365],[26.4161,47.3324],[26.4854,47.2862],[26.5211,47.2728]]]}},{"type":"Feature","properties":{"code":"RO015","name":"BACAU"},"geometry":{"type":"Polygon","coordinates":[[[27.482,46.156],[27.422,46.1902],[27.2717,46.2032],[27.2275,46.1927],[27.1683,46.1687],[27.1392,46.1488],[27.1474,46.1148],[27.0846,46.0903],[26.9332,46.0663],[26.5878,46.0283],[26.5438,46.0253],[26.4724,46.034],[26.4448,46.0318],[26.4299,46.0574],[26.2984,46.2139],[26.2736,46.2363],[26.2573,46.2673],[26.001,46.656],[25.9955,46.6829],[26.0847,46.6528],[26.1465,46.6438],[26.1799,46.6445],[26.5728,46.6703],[27.1175,46.7363],[27.1518,46.7422],[27.1883,46.7563],[27.2208,46.7469],[27.305,46.6906],[27.325,46.6592],[27.4448,46.4102],[27.4711,46.3385],[27.482,46.156]]]}},{"type":"Feature","properties":{"code":"RO016","name":"HARGHITA"},"geometry":{"type":"Polygon","coordinates":[[[25.6741,47.0907],[25.7188,47.078],[25.7416,47.0615],[25.8117,46.9879],[25.8213,46.9],[25.8205,46.8237],[25.8834,46.6907],[25.9955,46.6829],[26.001,46.656],[26.2573,46.2673],[26.2736,46.2363],[26.2413,46.2166],[26.1745,46.1639],[26.1328,46.1547],[25.8735,46.122],[25.8388,46.1328],[25.7373,46.2407],[25.728,46.2735],[25.6839,46.2789],[25.5771,46.2251],[25.5128,46.1798],[25.4742,46.1399],[25.4473,46.1194],[25.1644,46.1667],[24.929,46.2555],[24.8922,46.2775],[24.8624,46.3047],[24.8537,46.3477],[24.8526,46.3848],[25.0261,46.5392],[25.2125,46.6345],[25.2405,46.6592],[25.2858,46.7126],[25.3063,46.7746],[25.3033,46.8156],[25.2811,46.9413],[25.2513,47.0573],[25.2532,47.0891],[25.6354,47.094],[25.6741,47.0907]]]}},{"type":"Feature","properties":{"code":"RO017","name":"BISTRITA-NASAUD"},"geometry":{"type":"Polygon","coordinates":[[[24.9506,47.5858],[25.0606,47.1726],[25.0596,47.1384],[24.8817,47.1035],[24.8512,47.0929],[24.5485,46.913],[24.5136,46.843],[24.4526,46.7728],[24.4252,46.7643],[24.3583,46.757],[24.2892,46.7563],[24.2036,46.7932],[24.1765,46.7929],[24.2113,46.8682],[24.2015,46.9028],[24.1253,47.0393],[24.1028,47.0702],[24.0553,47.1207],[23.9631,47.1713],[23.9398,47.1947],[23.927,47.2405],[23.9316,47.2914],[24.0002,47.3522],[24.2852,47.5294],[24.5218,47.5747],[24.5597,47.5783],[24.9218,47.5954],[24.9506,47.5858]]]}},{"type":"Feature","properties":{"code":"RO018","name":"SALAJ"},"geometry":{"type":"Polygon","coordinates":[[[23.827,47.3333],[23.81,47.3057],[23.4802,47.0214],[23.3654,46.928],[23.3083,46.9046],[23.2028,46.8717],[23.1402,46.8597],[23.1062,46.8592],[23.0718,46.8635],[22.9395,46.9155],[22.7677,46.9928],[22.7351,46.9931],[22.615,47.3271],[22.6021,47.3514],[22.6302,47.3522],[23.0866,47.4311],[23.1328,47.4281],[23.827,47.3333]]]}},{"type":"Feature","properties":{"code":"RO019","name":"BIHOR"},"geometry":{"type":"Polygon","coordinates":[[[22.6021,47.3514],[22.615,47.3271],[22.7351,46.9931],[22.8047,46.5852],[22.8028,46.5478],[22.6857,46.3913],[22.6516,46.3902],[22.5099,46.4048],[22.3838,46.4254],[22.2547,46.4775],[22.2098,46.5025],[22.1838,46.5283],[22.1734,46.5594],[22.1709,46.5849],[22.1568,46.6066],[22.0102,46.6457],[21.7706,46.6542],[21.4412,46.6548],[21.6597,47.0361],[21.8792,47.297],[22.0337,47.5267],[22.0643,47.5509],[22.1651,47.5944],[22.2002,47.5992],[22.6021,47.3514]]]}},{"type":"Feature","properties":{"code":"RO020","name":"ARAD"},"geometry":{"type":"Polygon","coordinates":[[[22.6857,46.3913],[22.7382,46.3537],[22.7216,46.3188],[22.422,45.9459],[22.4005,45.9278],[22.3391,45.9462],[22.0019,45.9962],[21.9477,45.9886],[21.778,45.9322],[21.1556,45.9896],[21.1192,45.9948],[20.9351,46.0411],[20.7477,46.135],[20.7155,46.1574],[20.734,46.1803],[21.4412,46.6548],[21.7706,46.6542],[22.0102,46.6457],[22.1568,46.6066],[22.1709,46.5849],[22.1734,46.5594],[22.1838,46.5283],[22.2098,46.5025],[22.2547,46.4775],[22.3838,46.4254],[22.5099,46.4048],[22.6516,46.3902],[22.6857,46.3913]]]}},{"type":"Feature","properties":{"code":"RO021","name":"TIMIS"},"geometry":{"type":"Polygon","coordinates":[[[20.7155,46.1574],[20.7477,46.135],[20.9351,46.0411],[21.1192,45.9948],[21.1556,45.9896],[21.778,45.9322],[21.9477,45.9886],[22.0019,45.9962],[22.3391,45.9462],[22.4005,45.9278],[22.4086,45.8942],[22.4234,45.7042],[22.4205,45.6659],[22.2767,45.5944],[22.2416,45.5829],[21.9753,45.5355],[21.9377,45.5317],[21.6811,45.5786],[21.6472,45.5804],[21.6061,45.5751],[21.5771,45.5576],[21.4735,45.4783],[21.453,45.4452],[21.4428,45.4143],[21.4835,45.1811],[21.4528,45.198],[21.3037,45.2397],[21.0496,45.3242],[21.0155,45.3372],[20.9902,45.3534],[20.8556,45.4777],[20.7728,45.6145],[20.7297,45.7251],[20.7075,45.7668],[20.6001,45.8975],[20.2789,46.1242],[20.3237,46.1316],[20.6784,46.159],[20.7155,46.1574]]]}},{"type":"Feature","properties":{"code":"RO022","name":"CARAS-SEVERIN"},"geometry":{"type":"Polygon","coordinates":[[[22.6469,45.2315],[22.6462,45.1996],[22.6566,45.1374],[22.6557,45.0985],[22.4481,44.8274],[22.4163,44.7973],[22.1486,44.5912],[22.1084,44.5918],[22.0079,44.6096],[21.971,44.6232],[21.8547,44.65],[21.6084,44.7176],[21.4095,44.7765],[21.4187,44.8242],[21.421,44.8736],[21.4835,45.1811],[21.4428,45.4143],[21.453,45.4452],[21.4735,45.4783],[21.5771,45.5576],[21.6061,45.5751],[21.6472,45.5804],[21.6811,45.5786],[21.9377,45.5317],[21.9753,45.5355],[22.2416,45.5829],[22.2767,45.5944],[22.4205,45.6659],[22.4428,45.6381],[22.631,45.2514],[22.6469,45.2315]]]}},{"type":"Feature","properties":{"code":"RO023","name":"MEHEDINTI"},"geometry":{"type":"Polygon","coordinates":[[[23.4444,44.5777],[23.4007,44.5596],[23.3036,44.5355],[23.2589,44.5195],[23.1987,44.4652],[23.1069,44.2704],[23.0337,44.1659],[22.9746,44.1075],[22.9439,44.1147],[22.7243,44.1983],[22.6842,44.2091],[22.5476,44.3265],[22.5225,44.3535],[22.5055,44.3805],[22.4674,44.4646],[22.5004,44.4875],[22.6333,44.536],[22.7069,44.5219],[22.746,44.5353],[22.7488,44.571],[22.7,44.6105],[22.4978,44.7038],[22.4646,44.7152],[22.4155,44.7077],[22.3106,44.6633],[22.2404,44.5789],[22.1812,44.4856],[22.1475,44.475],[22.1066,44.4838],[22.0707,44.5038],[22.0274,44.5562],[22.0079,44.6096],[22.1084,44.5918],[22.1486,44.5912],[22.4163,44.7973],[22.4481,44.8274],[22.6557,45.0985],[22.6916,45.0926],[22.8109,45.0379],[22.8351,45.017],[22.8541,44.9953],[22.8932,44.871],[22.9216,44.8033],[22.951,44.78],[23.074,44.7071],[23.1185,44.6884],[23.4444,44.5777]]]}},{"type":"Feature","properties":{"code":"RO024","name":"DOLJ"},"geometry":{"type":"Polygon","coordinates":[[[23.9324,44.5307],[23.8819,44.4857],[23.8824,44.4463],[23.9065,44.4213],[24.0973,44.2764],[24.1995,44.2386],[24.2151,44.2177],[24.2308,44.1816],[24.2316,43.9936],[24.2236,43.8981],[24.2091,43.8571],[24.1479,43.7363],[24.1407,43.6996],[23.6625,43.8114],[23.6338,43.8052],[23.6007,43.8254],[23.4261,43.8609],[23.2807,43.856],[23.1462,43.8164],[23.0513,43.8083],[22.9804,43.8199],[22.9053,43.8385],[22.8784,43.8484],[22.8534,43.8692],[22.8494,43.9102],[22.8686,43.9538],[22.9746,44.1075],[23.0337,44.1659],[23.0909,44.2452],[23.1069,44.2704],[23.1987,44.4652],[23.2589,44.5195],[23.3036,44.5355],[23.4007,44.5596],[23.4444,44.5777],[23.4904,44.5875],[23.761,44.7083],[23.7855,44.6957],[23.9324,44.5307]]]}},{"type":"Feature","properties":{"code":"RO025","name":"TELEORMAN"},"geometry":{"type":"Polygon","coordinates":[[[25.6628,43.6914],[25.5785,43.6531],[25.469,43.6354],[25.407,43.6273],[25.2567,43.6405],[25.232,43.6317],[25.1996,43.6466],[24.7302,43.6964],[24.6935,43.7092],[24.6717,43.7225],[24.6426,43.7461],[24.6709,43.7699],[24.7188,43.8496],[24.8534,44.105],[24.8397,44.3114],[24.8142,44.3762],[24.8423,44.3828],[25.2264,44.4215],[25.2564,44.4333],[25.2869,44.434],[25.4584,44.4717],[25.4874,44.4476],[25.604,44.3233],[25.61,44.2554],[25.6143,44.066],[25.6018,44.038],[25.6008,43.9872],[25.6072,43.9041],[25.6142,43.8521],[25.6587,43.7259],[25.6628,43.6914]]]}},{"type":"Feature","properties":{"code":"RO026","name":"GIURGIU"},"geometry":{"type":"Polygon","coordinates":[[[25.877,44.5276],[25.8366,44.4175],[25.8349,44.3825],[25.8573,44.3646],[25.9063,44.337],[26.0756,44.26],[26.1142,44.2468],[26.1555,44.241],[26.1909,44.2516],[26.2482,44.2873],[26.2709,44.2586],[26.3547,44.0717],[26.3608,44.0414],[26.3159,44.0236],[25.6628,43.6914],[25.6587,43.7259],[25.6142,43.8521],[25.6072,43.9041],[25.6008,43.9872],[25.6018,44.038],[25.6143,44.066],[25.61,44.2554],[25.604,44.3233],[25.4874,44.4476],[25.4584,44.4717],[25.8465,44.5328],[25.877,44.5276]]]}},{"type":"Feature","properties":{"code":"RO027","name":"MUNICIPIUL BUCURESTI"},"geometry":{"type":"Polygon","coordinates":[[[26.1595,44.3617],[26.1227,44.3573],[25.9942,44.3999],[25.9733,44.415],[25.9689,44.4503],[25.9938,44.5029],[26.0146,44.5197],[26.0527,44.5316],[26.0986,44.5289],[26.1192,44.4854],[26.1504,44.4602],[26.1792,44.4469],[26.217,44.4375],[26.2163,44.405],[26.1897,44.3807],[26.1595,44.3617]]]}},{"type":"Feature","properties":{"code":"RO028","name":"ILFOV"},"geometry":{"type":"Polygon","coordinates":[[[26.3192,44.7645],[26.3408,44.7419],[26.3522,44.7177],[26.4067,44.5542],[26.412,44.5159],[26.2482,44.2873],[26.1909,44.2516],[26.1555,44.241],[26.1142,44.2468],[26.0756,44.26],[25.9063,44.337],[25.8573,44.3646],[25.8349,44.3825],[25.8366,44.4175],[25.8883,44.5577],[25.9396,44.7444],[26.286,44.7669],[26.3192,44.7645]],[[26.1595,44.3617],[26.1897,44.3807],[26.2163,44.405],[26.217,44.4375],[26.1792,44.4469],[26.1504,44.4602],[26.1192,44.4854],[26.0986,44.5289],[26.0527,44.5316],[26.0146,44.5197],[25.9938,44.5029],[25.9689,44.4503],[25.9733,44.415],[25.9942,44.3999],[26.1227,44.3573],[26.1595,44.3617]]]}},{"type":"Feature","properties":{"code":"RO029","name":"DAMBOVITA"},"geometry":{"type":"Polygon","coordinates":[[[25.9396,44.7444],[25.877,44.5276],[25.8465,44.5328],[25.495,44.4794],[25.2869,44.434],[25.2564,44.4333],[25.2741,44.4659],[25.2787,44.5191],[25.2538,45.1883],[25.3224,45.3733],[25.3635,45.3986],[25.4294,45.4265],[25.4613,45.4289],[25.4702,45.3932],[25.525,45.2436],[25.5421,45.2184],[25.6794,45.0417],[25.9396,44.7444]]]}},{"type":"Feature","properties":{"code":"RO030","name":"PRAHOVA"},"geometry":{"type":"Polygon","coordinates":[[[26.0519,45.4743],[26.5885,44.8821],[26.5987,44.8556],[26.3465,44.7795],[26.3192,44.7645],[26.286,44.7669],[25.9396,44.7444],[25.6794,45.0417],[25.5421,45.2184],[25.525,45.2436],[25.4702,45.3932],[25.4613,45.4289],[25.5001,45.4403],[26.0157,45.4767],[26.0519,45.4743]]]}},{"type":"Feature","properties":{"code":"RO031","name":"BUZAU"},"geometry":{"type":"Polygon","coordinates":[[[27.4291,45.3821],[27.4179,45.342],[27.2165,44.8125],[27.1984,44.7851],[26.6383,44.8544],[26.5987,44.8556],[26.5885,44.8821],[26.0519,45.4743],[26.097,45.5276],[26.3846,45.7941],[26.407,45.7765],[26.526,45.6455],[26.7452,45.5518],[27.2954,45.3698],[27.3398,45.3703],[27.4291,45.3821]]]}},{"type":"Feature","properties":{"code":"RO032","name":"VRANCEA"},"geometry":{"type":"Polygon","coordinates":[[[27.482,46.156],[27.4704,46.1266],[27.3041,46.0774],[27.272,46.0559],[27.2349,46.0092],[27.24,45.964],[27.2739,45.8892],[27.3572,45.7435],[27.5353,45.5073],[27.5483,45.4781],[27.4291,45.3821],[27.3398,45.3703],[27.2954,45.3698],[26.7452,45.5518],[26.526,45.6455],[26.407,45.7765],[26.3846,45.7941],[26.4448,46.0318],[26.4724,46.034],[26.5438,46.0253],[26.5878,46.0283],[26.9332,46.0663],[27.0846,46.0903],[27.1474,46.1148],[27.1392,46.1488],[27.1683,46.1687],[27.2275,46.1927],[27.2717,46.2032],[27.422,46.1902],[27.482,46.156]]]}},{"type":"Feature","properties":{"code":"RO033","name":"COVASNA"},"geometry":{"type":"Polygon","coordinates":[[[26.2736,46.2363],[26.2984,46.2139],[26.4299,46.0574],[26.4448,46.0318],[26.3937,45.8201],[26.3846,45.7941],[26.097,45.5276],[26.091,45.5742],[26.0789,45.5986],[25.9677,45.6792],[25.7884,45.7617],[25.6582,45.7866],[25.5867,45.8261],[25.5651,45.8436],[25.4595,46.057],[25.4497,46.0895],[25.4473,46.1194],[25.4742,46.1399],[25.5128,46.1798],[25.5995,46.2394],[25.6839,46.2789],[25.728,46.2735],[25.7373,46.2407],[25.8388,46.1328],[25.8735,46.122],[26.1328,46.1547],[26.1745,46.1639],[26.2413,46.2166],[26.2736,46.2363]]]}},{"type":"Feature","properties":{"code":"RO034","name":"BRASOV"},"geometry":{"type":"Polygon","coordinates":[[[25.4473,46.1194],[25.4497,46.0895],[25.4595,46.057],[25.5651,45.8436],[25.5867,45.8261],[25.6582,45.7866],[25.7884,45.7617],[25.9677,45.6792],[26.0789,45.5986],[26.091,45.5742],[26.097,45.5276],[26.0519,45.4743],[26.0157,45.4767],[25.5001,45.4403],[25.4613,45.4289],[25.4294,45.4265],[25.3635,45.3986],[25.3224,45.3733],[25.293,45.3919],[24.7027,45.606],[24.7107,45.6436],[24.9297,46.0582],[24.9473,46.0826],[25.1644,46.1667],[25.4473,46.1194]]]}},{"type":"Feature","properties":{"code":"RO035","name":"OLT"},"geometry":{"type":"Polygon","coordinates":[[[24.4172,44.8918],[24.4635,44.8107],[24.8142,44.3762],[24.8397,44.3114],[24.8534,44.105],[24.7188,43.8496],[24.6709,43.7699],[24.6426,43.7461],[24.5695,43.765],[24.5252,43.7696],[24.4325,43.7483],[24.3259,43.7098],[24.2284,43.6901],[24.1932,43.689],[24.1407,43.6996],[24.1479,43.7363],[24.2091,43.8571],[24.2236,43.8981],[24.2316,43.9936],[24.2308,44.1816],[24.2151,44.2177],[24.1995,44.2386],[24.0973,44.2764],[23.9065,44.4213],[23.8824,44.4463],[23.8819,44.4857],[23.9324,44.5307],[24.0656,44.5248],[24.2852,44.565],[24.3202,44.5832],[24.3196,44.6318],[24.3013,44.6644],[24.2835,44.7443],[24.3004,44.7963],[24.3284,44.8584],[24.3616,44.8803],[24.3897,44.8911],[24.4172,44.8918]]]}},{"type":"Feature","properties":{"code":"RO036","name":"ARGES"},"geometry":{"type":"Polygon","coordinates":[[[25.3224,45.3733],[25.2538,45.1883],[25.2787,44.5191],[25.2741,44.4659],[25.2564,44.4333],[25.2264,44.4215],[24.8423,44.3828],[24.8142,44.3762],[24.4635,44.8107],[24.4386,44.8585],[24.4704,44.8875],[24.5023,44.986],[24.5179,45.1404],[24.5159,45.179],[24.4926,45.3149],[24.4739,45.4887],[24.4758,45.5362],[24.483,45.5721],[24.5125,45.5807],[24.7027,45.606],[25.293,45.3919],[25.3224,45.3733]]]}},{"type":"Feature","properties":{"code":"RO037","name":"VALCEA"},"geometry":{"type":"Polygon","coordinates":[[[24.483,45.5721],[24.4758,45.5362],[24.4739,45.4887],[24.4926,45.3149],[24.5159,45.179],[24.5179,45.1404],[24.5023,44.986],[24.4704,44.8875],[24.4386,44.8585],[24.4172,44.8918],[24.3897,44.8911],[24.3616,44.8803],[24.3284,44.8584],[24.3004,44.7963],[24.2835,44.7443],[24.3013,44.6644],[24.3196,44.6318],[24.3202,44.5832],[24.2852,44.565],[24.0656,44.5248],[23.9324,44.5307],[23.7855,44.6957],[23.761,44.7083],[23.7672,44.7515],[23.7567,44.8682],[23.7782,45.0061],[23.8448,45.1353],[23.8516,45.1614],[23.8235,45.2609],[23.8089,45.2922],[23.7788,45.3179],[23.7459,45.3381],[23.5807,45.3512],[23.5944,45.3816],[23.5994,45.4395],[23.6089,45.4671],[23.6424,45.4626],[24.4504,45.5721],[24.483,45.5721]]]}},{"type":"Feature","properties":{"code":"RO038","name":"GORJ"},"geometry":{"type":"Polygon","coordinates":[[[23.761,44.7083],[23.4904,44.5875],[23.4444,44.5777],[23.074,44.7071],[22.951,44.78],[22.9216,44.8033],[22.8932,44.871],[22.8541,44.9953],[22.8351,45.017],[22.8109,45.0379],[22.6916,45.0926],[22.6557,45.0985],[22.6566,45.1374],[22.6462,45.1996],[22.6469,45.2315],[23.5807,45.3512],[23.7459,45.3381],[23.7788,45.3179],[23.8089,45.2922],[23.8235,45.2609],[23.8516,45.1614],[23.8448,45.1353],[23.7782,45.0061],[23.7567,44.8682],[23.7672,44.7515],[23.761,44.7083]]]}},{"type":"Feature","properties":{"code":"RO039","name":"HUNEDOARA"},"geometry":{"type":"Polygon","coordinates":[[[23.6089,45.4671],[23.5994,45.4395],[23.5944,45.3816],[23.5807,45.3512],[22.6469,45.2315],[22.631,45.2514],[22.4428,45.6381],[22.4205,45.6659],[22.4234,45.7042],[22.4086,45.8942],[22.4005,45.9278],[22.422,45.9459],[22.7216,46.3188],[22.7382,46.3537],[22.8966,46.3329],[22.938,46.3211],[23.0666,46.1872],[23.3178,45.9051],[23.3344,45.8823],[23.4895,45.5925],[23.5105,45.5641],[23.5823,45.4889],[23.6089,45.4671]]]}},{"type":"Feature","properties":{"code":"RO040","name":"CLUJ"},"geometry":{"type":"Polygon","coordinates":[[[24.0002,47.3522],[23.9316,47.2914],[23.927,47.2405],[23.9398,47.1947],[23.9631,47.1713],[24.0553,47.1207],[24.1028,47.0702],[24.1253,47.0393],[24.2015,46.9028],[24.2113,46.8682],[24.1765,46.7929],[23.9873,46.4748],[23.9783,46.4454],[23.6846,46.4267],[23.0747,46.4689],[23.0476,46.4729],[22.8327,46.5488],[22.8028,46.5478],[22.8047,46.5852],[22.7351,46.9931],[22.7677,46.9928],[22.9395,46.9155],[23.0718,46.8635],[23.1402,46.8597],[23.2028,46.8717],[23.3083,46.9046],[23.3654,46.928],[23.4802,47.0214],[23.81,47.3057],[23.827,47.3333],[23.9638,47.3536],[24.0002,47.3522]]]}},{"type":"Feature","properties":{"code":"RO041","name":"MURES"},"geometry":{"type":"Polygon","coordinates":[[[25.2532,47.0891],[25.2513,47.0573],[25.2811,46.9413],[25.3033,46.8156],[25.3063,46.7746],[25.2858,46.7126],[25.2405,46.6592],[25.2125,46.6345],[25.0261,46.5392],[24.8526,46.3848],[24.8537,46.3477],[24.8624,46.3047],[24.8922,46.2775],[24.9603,46.2422],[25.1644,46.1667],[24.9473,46.0826],[24.7867,46.1009],[24.7019,46.1324],[24.6879,46.1758],[24.674,46.2557],[24.6556,46.2795],[24.3187,46.2581],[24.2751,46.2533],[24.2425,46.2409],[24.2217,46.268],[23.9783,46.4454],[23.9873,46.4748],[24.1765,46.7929],[24.2036,46.7932],[24.2892,46.7563],[24.3583,46.757],[24.4252,46.7643],[24.4526,46.7728],[24.5136,46.843],[24.5485,46.913],[24.8512,47.0929],[24.8817,47.1035],[25.0596,47.1384],[25.2532,47.0891]]]}},{"type":"Feature","properties":{"code":"RO042","name":"SIBIU"},"geometry":{"type":"Polygon","coordinates":[[[24.9473,46.0826],[24.9297,46.0582],[24.7107,45.6436],[24.7027,45.606],[24.5125,45.5807],[24.483,45.5721],[24.4504,45.5721],[23.6424,45.4626],[23.6316,45.4883],[23.5932,45.6731],[23.6201,45.7576],[23.6367,45.7935],[23.8519,45.9744],[23.8735,45.9894],[23.9794,46.0359],[24.0466,46.0791],[24.2425,46.2409],[24.2751,46.2533],[24.3187,46.2581],[24.6556,46.2795],[24.674,46.2557],[24.6879,46.1758],[24.7019,46.1324],[24.7867,46.1009],[24.9473,46.0826]]]}}]}