{"type":"FeatureCollection","features":[{"type":"Feature","properties":{"code":"RS001","name":"Banat"},"geometry":{"type":"Polygon","coordinates":[[[20.2789,46.1242],[20.6001,45.8975],[20.7075,45.7668],[20.7297,45.7251],[20.7728,45.6145],[20.8556,45.4777],[20.9902,45.3534],[21.0155,45.3372],[21.0496,45.3242],[21.3037,45.2397],[21.4528,45.198],[21.4835,45.1811],[21.421,44.8736],[21.4187,44.8242],[21.4095,44.7765],[21.2785,44.8087],[21.1294,44.739],[20.9664,44.71],[20.8525,44.6671],[20.7929,44.6705],[20.7133,44.7027],[20.6359,44.7783],[20.6236,44.8206],[20.6164,44.8883],[20.6042,44.927],[20.4724,45.0043],[20.4215,45.0766],[20.3773,45.0795],[20.3527,45.0688],[20.3228,45.1065],[20.2696,45.161],[20.2947,45.1944],[20.3071,45.2251],[20.2229,45.3272],[20.2105,45.4495],[20.1011,45.5762],[20.1072,45.6121],[20.1644,45.7181],[20.1637,45.758],[20.1308,45.9277],[20.0756,46.15],[20.0627,46.1741],[20.0934,46.1727],[20.2789,46.1242]]]}},{"type":"Feature","properties":{"code":"RS002","name":"Backa"},"geometry":{"type":"Polygon","coordinates":[[[20.0627,46.1741],[20.0756,46.15],[20.1308,45.9277],[20.1637,45.758],[20.1644,45.7181],[20.1072,45.6121],[20.1011,45.5762],[20.2105,45.4495],[20.2229,45.3272],[20.3071,45.2251],[20.2947,45.1944],[20.2696,45.161],[20.2365,45.1664],[20.1988,45.1821],[20.1589,45.1842],[20.0369,45.1768],[20.0,45.1923],[19.8931,45.2571],[19.8564,45.257],[19.7456,45.2353],[19.5903,45.243],[19.4132,45.2295],[19.3144,45.2324],[19.2785,45.2366],[19.1246,45.2834],[19.0992,45.3155],[18.8707,45.827],[18.8582,45.8502],[18.8182,45.9012],[18.9983,45.9291],[19.2594,45.999],[19.3999,46.0423],[19.444,46.0635],[19.4946,46.1004],[19.5134,46.1373],[19.5473,46.1637],[19.5811,46.177],[19.6688,46.1904],[20.0627,46.1741]]]}},{"type":"Feature","properties":{"code":"RS003","name":"RBG"},"geometry":{"type":"Polygon","coordinates":[[[20.7929,44.6705],[20.7692,44.6465],[20.698,44.6047],[20.6741,44.5774],[20.6457,44.5601],[20.5651,44.469],[20.5191,44.4587],[20.484,44.4609],[20.458,44.4685],[20.4254,44.5413],[20.4087,44.5654],[20.3067,44.6364],[20.2844,44.6639],[20.3393,44.7421],[20.4398,44.8214],[20.4187,44.8488],[20.3262,44.9407],[20.3435,44.9707],[20.3687,44.9969],[20.3667,45.0313],[20.3527,45.0688],[20.3773,45.0795],[20.4215,45.0766],[20.4724,45.0043],[20.6042,44.927],[20.6164,44.8883],[20.6236,44.8206],[20.6359,44.7783],[20.7133,44.7027],[20.7929,44.6705]]]}},{"type":"Feature","properties":{"code":"RS004","name":"Istocna Srbija"},"geometry":{"type":"Polygon","coordinates":[[[22.6842,44.2091],[22.6505,44.1901],[22.4357,43.9923],[22.4139,43.9502],[22.3746,43.8258],[22.38,43.7945],[22.4145,43.7106],[22.5438,43.4804],[22.5746,43.4595],[22.68,43.4046],[22.7125,43.3998],[22.7608,43.4004],[22.7898,43.3678],[22.9991,43.2006],[22.9987,43.1484],[22.9871,43.1188],[22.9655,43.0996],[22.8184,42.9984],[22.787,42.9708],[22.7494,42.8902],[22.7198,42.8869],[22.5878,42.8903],[22.55,42.9507],[22.5658,42.9897],[22.5624,43.0273],[22.4245,43.1034],[22.3987,43.0891],[22.3778,43.0624],[22.3554,43.0489],[22.2608,43.0111],[22.2285,43.0057],[22.0354,43.1503],[22.0217,43.2326],[21.9931,43.342],[21.9778,43.3706],[21.8693,43.3875],[21.8519,43.4202],[21.8413,43.4819],[21.8302,43.516],[21.76,43.5555],[21.7394,43.5763],[21.7272,43.6204],[21.7068,43.6547],[21.542,43.6754],[21.6056,43.7346],[21.5991,43.7698],[21.5148,43.9558],[21.4885,44.0952],[21.4894,44.1334],[21.5795,44.1733],[21.6008,44.1942],[21.5954,44.2378],[21.5812,44.2737],[21.5407,44.2869],[21.5133,44.3054],[21.5481,44.4088],[21.5681,44.4327],[21.6694,44.4158],[21.6976,44.4267],[21.753,44.4593],[21.7781,44.4794],[21.7511,44.4984],[21.6815,44.534],[21.6612,44.703],[21.8547,44.65],[21.971,44.6232],[22.0079,44.6096],[22.0274,44.5562],[22.0707,44.5038],[22.1066,44.4838],[22.1475,44.475],[22.1812,44.4856],[22.2404,44.5789],[22.3106,44.6633],[22.4155,44.7077],[22.4646,44.7152],[22.4978,44.7038],[22.7,44.6105],[22.7488,44.571],[22.746,44.5353],[22.7069,44.5219],[22.6333,44.536],[22.5004,44.4875],[22.4674,44.4646],[22.5055,44.3805],[22.5225,44.3535],[22.5476,44.3265],[22.6842,44.2091]]]}},{"type":"Feature","properties":{"code":"RS005","name":"Jugoistocna Srbija"},"geometry":{"type":"Polygon","coordinates":[[[20.612,43.6785],[20.6528,43.6673],[20.8039,43.6422],[21.0574,43.5319],[21.0749,43.5135],[21.0474,43.4885],[21.027,43.4616],[21.1065,43.3798],[21.1325,43.3635],[21.3264,43.4588],[21.418,43.4942],[21.4266,43.5429],[21.4235,43.6324],[21.4276,43.6759],[21.542,43.6754],[21.7068,43.6547],[21.7272,43.6204],[21.7394,43.5763],[21.76,43.5555],[21.8302,43.516],[21.8413,43.4819],[21.8519,43.4202],[21.8693,43.3875],[21.9778,43.3706],[21.9931,43.342],[22.0217,43.2326],[22.0354,43.1503],[22.2285,43.0057],[22.2608,43.0111],[22.3554,43.0489],[22.3778,43.0624],[22.3987,43.0891],[22.4245,43.1034],[22.5624,43.0273],[22.5658,42.9897],[22.55,42.9507],[22.5878,42.8903],[22.4926,42.8442],[22.453,42.815],[22.4644,42.7781],[22.4881,42.7277],[22.4826,42.6429],[22.4671,42.5635],[22.5488,42.5146],[22.5768,42.4863],[22.5595,42.4508],[22.5358,42.4159],[22.5078,42.3936],[22.4275,42.3438],[22.3663,42.314],[22.3302,42.3044],[22.1361,42.3023],[22.0366,42.3072],[21.9525,42.3386],[21.9171,42.3451],[21.5638,42.2836],[21.5429,42.3194],[21.5695,42.3516],[21.6575,42.4188],[21.7803,42.6342],[21.7891,42.6632],[21.7717,42.6866],[21.7483,42.7028],[21.6557,42.6898],[21.4353,42.7489],[21.4026,42.7623],[21.4293,42.8402],[21.402,42.8642],[21.284,42.9105],[21.256,42.9263],[21.1585,43.0374],[21.1459,43.1041],[21.1119,43.1151],[20.9645,43.1255],[20.8752,43.168],[20.8518,43.1839],[20.8748,43.2163],[20.8501,43.2505],[20.8196,43.2651],[20.7166,43.2225],[20.6814,43.2135],[20.6617,43.2378],[20.6149,43.2792],[20.6007,43.3042],[20.6411,43.4175],[20.6482,43.4529],[20.5979,43.5651],[20.5463,43.6377],[20.5579,43.6668],[20.5787,43.6821],[20.612,43.6785]]]}},{"type":"Feature","properties":{"code":"RS006","name":"Jugozapadna Srbija"},"geometry":{"type":"Polygon","coordinates":[[[20.3936,43.8932],[20.6601,43.7533],[20.6918,43.7321],[20.628,43.703],[20.612,43.6785],[20.5787,43.6821],[20.5579,43.6668],[20.5463,43.6377],[20.5979,43.5651],[20.6482,43.4529],[20.6411,43.4175],[20.6007,43.3042],[20.6149,43.2792],[20.6617,43.2378],[20.6814,43.2135],[20.6516,43.209],[20.6275,43.1941],[20.6689,43.1459],[20.6873,43.1114],[20.6478,43.0213],[20.6186,43.0032],[20.5147,42.9569],[20.5152,42.9294],[20.5275,42.8979],[20.5041,42.8728],[20.4689,42.8498],[20.4391,42.8416],[20.2711,42.822],[20.2427,42.8295],[20.2573,42.8693],[20.2534,42.9086],[19.9055,43.0839],[19.6281,43.1936],[19.2915,43.3616],[19.2603,43.3983],[19.1818,43.5176],[19.2232,43.5324],[19.4767,43.5767],[19.5026,43.5845],[19.521,43.6075],[19.5234,43.6436],[19.4817,43.7423],[19.4628,43.7622],[19.4285,43.7835],[19.352,43.8079],[19.3285,43.834],[19.3601,43.8502],[19.5426,43.8741],[19.851,43.8706],[19.8942,43.8647],[19.9501,43.8346],[20.0018,43.8334],[20.0698,43.8499],[20.158,43.9079],[20.1903,43.9211],[20.3936,43.8932]]]}},{"type":"Feature","properties":{"code":"RS007","name":"Kosovo"},"geometry":{"type":"Polygon","coordinates":[[[21.5638,42.2836],[21.086,42.191],[20.9578,42.1401],[20.8058,42.0731],[20.7749,42.0508],[20.6501,41.9181],[20.6148,41.8945],[20.6252,41.9747],[20.5724,42.1282],[20.5395,42.1953],[20.5191,42.2252],[20.496,42.2485],[20.1872,42.5006],[20.1118,42.547],[20.0448,42.5741],[20.0285,42.6084],[20.0,42.7345],[20.0239,42.7454],[20.1813,42.7479],[20.2111,42.757],[20.2427,42.8295],[20.2711,42.822],[20.4391,42.8416],[20.4689,42.8498],[20.5041,42.8728],[20.5275,42.8979],[20.5152,42.9294],[20.5147,42.9569],[20.6186,43.0032],[20.6478,43.0213],[20.6727,43.0731],[20.6873,43.1114],[20.6689,43.1459],[20.6275,43.1941],[20.6516,43.209],[20.7166,43.2225],[20.8196,43.2651],[20.8501,43.2505],[20.8748,43.2163],[20.8518,43.1839],[20.8752,43.168],[20.9645,43.1255],[21.1119,43.1151],[21.1459,43.1041],[21.1585,43.0374],[21.256,42.9263],[21.284,42.9105],[21.402,42.8642],[21.4293,42.8402],[21.4026,42.7623],[21.4353,42.7489],[21.6251,42.6956],[21.6557,42.6898],[21.7483,42.7028],[21.7717,42.6866],[21.7891,42.6632],[21.7803,42.6342],[21.6575,42.4188],[21.5695,42.3516],[21.5429,42.3194],[21.5638,42.2836]]]}},{"type":"Feature","properties":{"code":"RS008","name":"Pomoravlje"},"geometry":{"type":"Polygon","coordinates":[[[21.4095,44.7765],[21.6612,44.703],[21.6815,44.534],[21.7511,44.4984],[21.7781,44.4794],[21.753,44.4593],[21.6976,44.4267],[21.6694,44.4158],[21.5681,44.4327],[21.5481,44.4088],[21.5133,44.3054],[21.5407,44.2869],[21.5812,44.2737],[21.5954,44.2378],[21.6008,44.1942],[21.5795,44.1733],[21.4894,44.1334],[21.4885,44.0952],[21.5148,43.9558],[21.5991,43.7698],[21.6056,43.7346],[21.542,43.6754],[21.4276,43.6759],[21.2519,43.6318],[21.2181,43.6326],[21.1803,43.6849],[21.1734,43.7151],[21.2579,43.7635],[21.269,43.7987],[21.2815,43.8835],[21.2767,43.9285],[21.2024,43.9171],[21.1692,43.9206],[21.1747,43.9652],[21.1698,44.0137],[21.126,44.0664],[21.0859,44.0831],[20.9577,44.1117],[20.9507,44.1584],[20.9584,44.2989],[20.8943,44.4265],[20.8109,44.5552],[20.7792,44.56],[20.7282,44.5505],[20.6988,44.5512],[20.6741,44.5774],[20.698,44.6047],[20.7692,44.6465],[20.7929,44.6705],[20.8525,44.6671],[20.9664,44.71],[21.1294,44.739],[21.2785,44.8087],[21.4095,44.7765]]]}},{"type":"Feature","properties":{"code":"RS009","name":"Yugoslavia"},"geometry":{"type":"Polygon","coordinates":[[[20.2696,45.161],[20.3228,45.1065],[20.3527,45.0688],[20.3667,45.0313],[20.3687,44.9969],[20.3435,44.9707],[20.3262,44.9407],[20.4187,44.8488],[20.4398,44.8214],[20.3393,44.7421],[20.2844,44.6639],[20.215,44.6734],[20.1754,44.6941],[20.1345,44.702],[19.9756,44.6294],[19.9457,44.6446],[19.9257,44.6766],[19.8924,44.6943],[19.7633,44.7383],[19.7289,44.7549],[19.7287,44.7988],[19.7457,44.871],[19.7459,44.9017],[19.6438,44.9563],[19.5308,44.9681],[19.4954,44.9655],[19.4089,44.8997],[19.3823,44.8859],[19.3556,44.8985],[19.2997,44.9101],[19.2074,44.919],[19.1782,44.9191],[19.1292,44.9017],[19.0924,44.8948],[19.1052,44.9247],[19.1503,44.9566],[19.1623,45.1418],[19.1607,45.1759],[19.1291,45.2478],[19.1246,45.2834],[19.2785,45.2366],[19.3144,45.2324],[19.4132,45.2295],[19.5903,45.243],[19.7456,45.2353],[19.8564,45.257],[19.8931,45.2571],[20.0,45.1923],[20.0369,45.1768],[20.1589,45.1842],[20.1988,45.1821],[20.2365,45.1664],[20.2696,45.161]]]}},{"type":"Feature","properties":{"code":"RS010","name":"Sumadija"},"geometry":{"type":"Polygon","coordinates":[[[20.2844,44.6639],[20.3067,44.6364],[20.4087,44.5654],[20.4254,44.5413],[20.458,44.4685],[20.484,44.4609],[20.5191,44.4587],[20.5651,44.469],[20.6457,44.5601],[20.6741,44.5774],[20.6988,44.5512],[20.7282,44.5505],[20.7792,44.56],[20.8109,44.5552],[20.8943,44.4265],[20.9584,44.2989],[20.9507,44.1584],[20.9577,44.1117],[21.0859,44.0831],[21.126,44.0664],[21.1698,44.0137],[21.1747,43.9652],[21.1692,43.9206],[21.2024,43.9171],[21.2767,43.9285],[21.2815,43.8835],[21.269,43.7987],[21.2579,43.7635],[21.1734,43.7151],[21.1803,43.6849],[21.2181,43.6326],[21.2519,43.6318],[21.4276,43.6759],[21.4235,43.6324],[21.4266,43.5429],[21.418,43.4942],[21.3264,43.4588],[21.1325,43.3635],[21.1065,43.3798],[21.027,43.4616],[21.0474,43.4885],[21.0749,43.5135],[21.0574,43.5319],[20.8039,43.6422],[20.6528,43.6673],[20.612,43.6785],[20.628,43.703],[20.6918,43.7321],[20.6601,43.7533],[20.3936,43.8932],[20.395,43.9918],[20.2532,44.1321],[20.2505,44.17],[20.2597,44.2315],[20.2594,44.2681],[20.2012,44.338],[20.1913,44.3635],[20.2474,44.4599],[20.2575,44.493],[20.2098,44.602],[20.2017,44.6348],[20.215,44.6734],[20.2844,44.6639]]]}},{"type":"Feature","properties":{"code":"RS011","name":"Zapadna Srbija"},"geometry":{"type":"Polygon","coordinates":[[[20.215,44.6734],[20.2017,44.6348],[20.2098,44.602],[20.2575,44.493],[20.2474,44.4599],[20.1913,44.3635],[20.2012,44.338],[20.2594,44.2681],[20.2597,44.2315],[20.2505,44.17],[20.2532,44.1321],[20.395,43.9918],[20.3936,43.8932],[20.1903,43.9211],[20.158,43.9079],[20.0698,43.8499],[20.0018,43.8334],[19.9501,43.8346],[19.8942,43.8647],[19.851,43.8706],[19.5426,43.8741],[19.3601,43.8502],[19.3285,43.834],[19.3021,43.8386],[19.2844,43.8644],[19.2489,43.962],[19.1176,44.3432],[19.1121,44.3857],[19.1536,44.4955],[19.1714,44.5288],[19.2509,44.5966],[19.3282,44.7115],[19.3886,44.851],[19.3823,44.8859],[19.4089,44.8997],[19.4954,44.9655],[19.5308,44.9681],[19.6438,44.9563],[19.7459,44.9017],[19.7457,44.871],[19.7287,44.7988],[19.7289,44.7549],[19.7633,44.7383],[19.8924,44.6943],[19.9257,44.6766],[19.9457,44.6446],[19.9756,44.6294],[20.1345,44.702],[20.1754,44.6941],[20.215,44.6734]]]}}]}