{"type":"FeatureCollection","features":[{"type":"Feature","properties":{"code":"SE001","name":"Blekinge"},"geometry":{"type":"MultiPolygon","coordinates":[[[[15.7284,56.1014],[15.6952,56.0743],[15.6581,56.0911],[15.6701,56.1187],[15.7009,56.119],[15.7284,56.1014]]],[[[15.318,56.5371],[15.3528,56.5283],[15.449,56.5358],[15.5144,56.5146],[15.6363,56.4556],[15.6774,56.4135],[15.7147,56.3897],[15.8158,56.3449],[16.0424,56.326],[16.0705,56.3282],[16.0472,56.2587],[16.0316,56.2277],[15.8601,56.0767],[15.8331,56.0803],[15.8029,56.0943],[15.7912,56.1289],[15.7702,56.1551],[15.6447,56.1862],[15.5787,56.1911],[15.4016,56.1514],[15.2822,56.1338],[15.0616,56.1503],[14.7016,56.1561],[14.66,56.1313],[14.5431,56.0436],[14.5208,56.0669],[14.4042,56.2748],[14.3757,56.3064],[14.3792,56.3396],[14.3628,56.5069],[14.3972,56.5049],[14.522,56.4544],[14.6517,56.4177],[14.7873,56.3991],[15.2312,56.4945],[15.2778,56.5112],[15.318,56.5371]]]]}},{"type":"Feature","properties":{"code":"SE002","name":"Skåne"},"geometry":{"type":"MultiPolygon","coordinates":[[[[12.9135,55.4031],[12.8845,55.3917],[12.8419,55.3907],[12.8503,55.4271],[12.9135,55.4031]]],[[[14.3757,56.3064],[14.3421,56.2968],[14.216,56.2433],[13.8845,56.0652],[13.8659,56.0276],[13.8528,55.9106],[13.8585,55.8758],[13.9212,55.6415],[13.939,55.6188],[14.0835,55.4847],[14.1601,55.4365],[14.1901,55.4115],[14.1516,55.4097],[13.8945,55.4347],[13.7203,55.427],[13.6524,55.4185],[13.4984,55.3831],[13.3558,55.3368],[13.265,55.3453],[12.9457,55.4035],[12.9605,55.4314],[12.9589,55.4721],[12.9119,55.5471],[12.9112,55.5764],[12.9325,55.5945],[13.01,55.6263],[13.0565,55.665],[13.0389,55.6988],[13.0091,55.7221],[12.9547,55.743],[12.9388,55.7677],[12.9234,55.8205],[12.8617,55.8731],[12.6402,56.0904],[12.4769,56.2627],[12.4549,56.2926],[12.4799,56.3179],[12.634,56.436],[12.6601,56.4529],[12.6968,56.4648],[12.7407,56.4679],[12.8456,56.4393],[12.8838,56.432],[12.9099,56.4419],[12.9383,56.4289],[13.4059,56.4185],[13.4791,56.4208],[14.329,56.5178],[14.3628,56.5069],[14.3792,56.3396],[14.3757,56.3064]]]]}},{"type":"Feature","properties":{"code":"SE003","name":"Västra Kronoberg"},"geometry":{"type":"Polygon","coordinates":[[[14.2339,56.9047],[14.3628,56.5069],[14.329,56.5178],[13.4791,56.4208],[13.4436,56.4203],[13.4329,56.4495],[13.3613,56.5855],[13.3168,56.7757],[13.3113,56.8581],[13.4414,56.8623],[13.5964,56.895],[13.6328,56.9154],[13.6553,56.9388],[13.6385,56.9749],[13.6694,56.9894],[14.2018,56.9149],[14.2339,56.9047]]]}},{"type":"Feature","properties":{"code":"SE004","name":"Östra Kronoberg"},"geometry":{"type":"Polygon","coordinates":[[[15.318,56.5371],[15.2778,56.5112],[15.2312,56.4945],[14.7873,56.3991],[14.6517,56.4177],[14.522,56.4544],[14.3972,56.5049],[14.3628,56.5069],[14.2339,56.9047],[14.2459,56.9419],[14.3704,57.1874],[14.4001,57.1965],[15.4702,57.2501],[15.5305,57.234],[15.5594,57.2145],[15.7574,57.0538],[15.758,57.018],[15.7494,56.978],[15.7117,56.9555],[15.5695,56.9141],[15.5392,56.8978],[15.3673,56.7736],[15.3535,56.7328],[15.3232,56.5877],[15.318,56.5371]]]}},{"type":"Feature","properties":{"code":"SE005","name":"Västra Jönköping"},"geometry":{"type":"Polygon","coordinates":[[[14.3704,57.1874],[14.2459,56.9419],[14.2339,56.9047],[14.2018,56.9149],[13.6694,56.9894],[13.6385,56.9749],[13.6164,57.0001],[13.5607,57.0418],[13.4796,57.0934],[13.4501,57.1064],[13.3034,57.1044],[13.1697,57.0424],[13.1388,57.0426],[13.0889,57.074],[13.0708,57.1075],[13.0604,57.1568],[13.0889,57.1849],[13.656,57.5394],[13.7077,57.5445],[14.2507,57.5524],[14.283,57.5597],[14.2857,57.5304],[14.3655,57.2286],[14.3704,57.1874]]]}},{"type":"Feature","properties":{"code":"SE006","name":"Kalmar"},"geometry":{"type":"Polygon","coordinates":[[[16.7076,58.0161],[16.7754,57.8764],[16.7775,57.836],[16.6952,57.4407],[16.4225,56.7886],[16.4014,56.754],[16.1316,56.4048],[16.1156,56.3764],[16.0705,56.3282],[16.0424,56.326],[15.8158,56.3449],[15.7147,56.3897],[15.6774,56.4135],[15.6363,56.4556],[15.5144,56.5146],[15.449,56.5358],[15.3528,56.5283],[15.318,56.5371],[15.3232,56.5877],[15.3535,56.7328],[15.3673,56.7736],[15.5392,56.8978],[15.5695,56.9141],[15.7117,56.9555],[15.7494,56.978],[15.758,57.018],[15.7574,57.0538],[15.5594,57.2145],[15.5305,57.234],[15.4702,57.2501],[15.473,57.2816],[15.415,57.7187],[15.4185,57.7529],[15.7277,57.874],[15.9944,58.0475],[15.999,58.0757],[16.0136,58.1061],[16.1725,58.1369],[16.4662,58.1402],[16.4976,58.1287],[16.7076,58.0161]]]}},{"type":"Feature","properties":{"code":"SE007","name":"Sydväst Vänern"},"geometry":{"type":"Polygon","coordinates":[[[12.7896,59.0341],[12.7215,58.988],[12.701,58.9676],[12.5198,58.7612],[12.3474,58.421],[12.3622,58.3915],[12.3928,58.3741],[12.4309,58.3683],[12.6208,58.3595],[12.6654,58.3692],[12.6916,58.3986],[12.7161,58.4152],[13.1517,58.1526],[13.1843,58.1271],[13.1429,58.1259],[12.0988,58.2195],[12.0607,58.2144],[12.0445,58.2578],[12.0,58.4346],[12.0582,58.4792],[12.1922,58.6631],[12.3215,58.8747],[12.5019,59.1067],[12.5351,59.1066],[12.7586,59.0525],[12.7896,59.0341]]]}},{"type":"Feature","properties":{"code":"SE008","name":"Syd Vättern"},"geometry":{"type":"Polygon","coordinates":[[[14.5328,58.1116],[14.5304,58.0813],[14.283,57.5597],[14.2507,57.5524],[13.7077,57.5445],[13.656,57.5394],[13.6686,57.907],[13.6642,57.9609],[13.703,57.9692],[14.3821,58.1793],[14.5328,58.1116]]]}},{"type":"Feature","properties":{"code":"SE009","name":"Östra Jönköping"},"geometry":{"type":"Polygon","coordinates":[[[15.4185,57.7529],[15.415,57.7187],[15.473,57.2816],[15.4702,57.2501],[14.4001,57.1965],[14.3704,57.1874],[14.3655,57.2286],[14.2857,57.5304],[14.283,57.5597],[14.5304,58.0813],[14.5328,58.1116],[14.6611,58.1043],[14.8354,58.081],[14.8762,58.0732],[14.9821,58.0381],[14.9974,58.0002],[15.0058,57.9207],[15.0315,57.8593],[15.09,57.7816],[15.1218,57.7641],[15.1914,57.7535],[15.3844,57.7499],[15.4185,57.7529]]]}},{"type":"Feature","properties":{"code":"SE010","name":"Östergötland"},"geometry":{"type":"Polygon","coordinates":[[[16.7858,58.625],[16.7071,58.6318],[16.6836,58.6176],[16.6481,58.6327],[16.5333,58.6456],[16.4448,58.647],[16.4121,58.6601],[16.2772,58.6649],[16.2385,58.6578],[16.2145,58.6302],[16.2688,58.6093],[16.3934,58.6015],[16.4237,58.6108],[16.4448,58.647],[16.5043,58.6447],[16.5333,58.6456],[16.6081,58.6354],[16.6481,58.6327],[16.9614,58.4765],[16.9404,58.4447],[16.8414,58.145],[16.8187,58.108],[16.7497,58.0263],[16.7076,58.0161],[16.4976,58.1287],[16.4662,58.1402],[16.1725,58.1369],[16.0136,58.1061],[15.999,58.0757],[15.9944,58.0475],[15.7277,57.874],[15.4185,57.7529],[15.3844,57.7499],[15.1914,57.7535],[15.1218,57.7641],[15.09,57.7816],[15.0315,57.8593],[15.0058,57.9207],[14.9974,58.0002],[14.9821,58.0381],[14.8762,58.0732],[14.8354,58.081],[14.6611,58.1043],[14.5328,58.1116],[14.3821,58.1793],[14.7441,58.6431],[15.179,58.843],[15.2182,58.8458],[15.3342,58.8392],[15.3727,58.8534],[15.633,58.9852],[15.6546,59.0009],[15.681,58.9927],[16.0071,58.9401],[16.0489,58.9272],[16.6758,58.7036],[16.7487,58.6664],[16.7714,58.6468],[16.7858,58.625]]]}},{"type":"Feature","properties":{"code":"SE011","name":"Norra Västergötland"},"geometry":{"type":"Polygon","coordinates":[[[14.2822,59.0486],[14.7241,58.6688],[14.7441,58.6431],[14.3821,58.1793],[13.703,57.9692],[13.6642,57.9609],[13.1843,58.1271],[13.1517,58.1526],[12.7161,58.4152],[12.7411,58.4316],[12.9277,58.5124],[13.1406,58.5807],[13.1721,58.5892],[13.449,58.6287],[13.7103,58.6837],[13.7451,58.6948],[13.9597,58.8661],[13.9852,58.9178],[14.0154,59.0026],[14.028,59.0609],[14.2822,59.0486]]]}},{"type":"Feature","properties":{"code":"SE012","name":"Dalarna"},"geometry":{"type":"Polygon","coordinates":[[[14.528,61.6127],[15.1853,61.5304],[15.2184,61.5159],[15.4291,61.3925],[16.1404,60.9678],[16.332,60.7996],[16.3296,60.7144],[16.3039,60.6677],[16.3158,60.6368],[16.4561,60.3659],[16.4805,60.3366],[16.6343,60.2011],[16.6046,60.1855],[16.3834,60.1026],[16.3455,60.0921],[15.6733,60.0977],[15.6395,60.0917],[15.4072,59.9019],[14.5086,60.026],[14.4821,60.0179],[14.4558,60.0362],[14.2827,60.0822],[13.8869,60.2388],[13.4966,60.4884],[12.8889,60.8979],[12.7243,61.0262],[13.4471,61.0644],[13.643,61.1038],[13.7388,61.1359],[13.7629,61.1593],[13.7915,61.2269],[13.8222,61.355],[13.8228,61.3888],[13.816,61.4191],[13.6868,61.5833],[13.6707,61.6207],[13.7038,61.6302],[14.528,61.6127]]]}},{"type":"Feature","properties":{"code":"SE013","name":"Sörmland"},"geometry":{"type":"Polygon","coordinates":[[[17.3452,59.4529],[17.3423,59.4194],[17.2466,59.2407],[17.25,59.2057],[17.2799,59.0993],[17.3128,59.0529],[17.3456,59.0377],[17.5723,58.9588],[17.6118,58.9585],[17.6304,58.9171],[17.6151,58.8731],[17.5915,58.8456],[17.5636,58.8298],[17.1261,58.6507],[16.9926,58.6209],[16.9219,58.6129],[16.7858,58.625],[16.7714,58.6468],[16.7487,58.6664],[16.6758,58.7036],[16.0489,58.9272],[16.0071,58.9401],[15.681,58.9927],[15.6546,59.0009],[15.7347,59.2086],[15.7507,59.2327],[16.013,59.3032],[16.9041,59.537],[16.9333,59.5485],[17.3452,59.4529]]]}},{"type":"Feature","properties":{"code":"SE014","name":"Örebro"},"geometry":{"type":"Polygon","coordinates":[[[15.4072,59.9019],[15.4089,59.835],[15.5747,59.3185],[15.6096,59.2777],[15.7202,59.2378],[15.7507,59.2327],[15.7347,59.2086],[15.6546,59.0009],[15.633,58.9852],[15.3727,58.8534],[15.3342,58.8392],[15.2182,58.8458],[15.179,58.843],[14.7441,58.6431],[14.7241,58.6688],[14.2822,59.0486],[14.2426,59.1371],[14.2488,59.2273],[14.2601,59.2691],[14.3321,59.4012],[14.4132,59.4513],[14.4388,59.5058],[14.4858,59.6388],[14.493,59.6908],[14.4929,59.9312],[14.4898,59.9806],[14.4821,60.0179],[14.5086,60.026],[15.4072,59.9019]]]}},{"type":"Feature","properties":{"code":"SE015","name":"Bohuskusten+Göteborg"},"geometry":{"type":"MultiPolygon","coordinates":[[[[11.7521,58.0637],[11.7658,58.0382],[11.7541,58.0054],[11.6043,57.9367],[11.5771,57.9453],[11.5486,57.9618],[11.5288,57.9976],[11.5168,58.0362],[11.5401,58.0556],[11.5667,58.0634],[11.639,58.0553],[11.7174,58.069],[11.7521,58.0637]]],[[[12.0607,58.2144],[12.068,58.1733],[12.2259,57.6122],[12.2395,57.5796],[11.9339,57.5917],[11.8464,57.6729],[11.7553,57.7271],[11.7299,57.747],[11.6985,57.8233],[11.6954,57.8581],[11.7084,57.8986],[11.764,57.9711],[11.8521,58.1152],[11.8545,58.1529],[11.8246,58.1307],[11.7865,58.132],[11.7244,58.1133],[11.6914,58.1131],[11.6539,58.1266],[11.6165,58.1292],[11.5133,58.0779],[11.4788,58.0819],[11.4268,58.1218],[11.4154,58.1594],[11.4397,58.1891],[11.4142,58.2027],[11.1208,58.9604],[11.1234,59.0167],[11.1565,59.0554],[11.1544,59.0919],[11.1804,59.1024],[11.3566,59.1118],[11.3928,59.1045],[11.4845,58.9858],[11.5124,58.9642],[11.6472,58.9026],[11.8448,58.7785],[11.9334,58.71],[11.9412,58.6801],[11.9364,58.6469],[11.8679,58.577],[11.8686,58.5505],[11.8763,58.5224],[11.9068,58.4709],[11.9734,58.4487],[12.0,58.4346],[12.0445,58.2578],[12.0607,58.2144]],[[11.6989,58.3309],[11.6882,58.2874],[11.7246,58.2965],[11.7599,58.2902],[11.8398,58.2332],[11.8612,58.1881],[11.8764,58.2108],[11.8633,58.2487],[11.8162,58.3183],[11.7754,58.3351],[11.734,58.3386],[11.6989,58.3309]],[[11.5433,58.2035],[11.5609,58.2239],[11.5178,58.2146],[11.5433,58.2035]]]]}},{"type":"Feature","properties":{"code":"SE016","name":"Upplandskusten"},"geometry":{"type":"MultiPolygon","coordinates":[[[[18.3843,60.4236],[18.3718,60.4923],[18.4076,60.5031],[18.431,60.4922],[18.4401,60.4623],[18.4622,60.4348],[18.4985,60.37],[18.5541,60.3163],[18.5246,60.3174],[18.446,60.3493],[18.4134,60.3681],[18.3941,60.3982],[18.3843,60.4236]]],[[[18.4823,60.1707],[18.4553,60.1403],[18.4227,60.0874],[18.3986,60.0626],[18.1087,60.0685],[18.0243,60.077],[17.9859,60.0847],[17.8375,60.1589],[17.5785,60.1851],[17.4667,60.1865],[17.343,60.1815],[17.3211,60.1976],[17.1733,60.2737],[17.1758,60.3047],[17.3078,60.6511],[17.3469,60.6551],[17.3961,60.6517],[17.8581,60.5757],[18.2011,60.4285],[18.2382,60.4152],[18.2756,60.4087],[18.2966,60.3869],[18.5822,60.2614],[18.6073,60.2383],[18.5769,60.2126],[18.5146,60.1884],[18.4823,60.1707]]]]}},{"type":"Feature","properties":{"code":"SE017","name":"Värmland"},"geometry":{"type":"Polygon","coordinates":[[[12.6854,61.0551],[12.8889,60.8979],[13.4966,60.4884],[13.8869,60.2388],[14.2827,60.0822],[14.4558,60.0362],[14.4821,60.0179],[14.4898,59.9806],[14.4929,59.9312],[14.493,59.6908],[14.4858,59.6388],[14.4388,59.5058],[14.4132,59.4513],[14.3321,59.4012],[14.2601,59.2691],[14.2488,59.2273],[14.2426,59.1371],[14.2822,59.0486],[14.028,59.0609],[14.0356,59.0996],[14.0791,59.2436],[14.0667,59.2911],[14.036,59.3056],[13.5677,59.3477],[13.1409,59.3397],[13.1335,59.2819],[13.1331,59.2121],[13.1925,59.0882],[13.1681,59.0745],[12.96,59.0361],[12.836,59.0402],[12.7896,59.0341],[12.7586,59.0525],[12.5351,59.1066],[12.5019,59.1067],[12.4755,59.1199],[11.8831,59.2406],[11.8413,59.2525],[11.8375,59.2933],[11.922,59.7635],[11.912,59.7948],[11.8583,59.8313],[11.8972,59.8428],[12.137,59.883],[12.1829,59.8952],[12.3441,59.9698],[12.4476,60.044],[12.4866,60.0812],[12.5056,60.1072],[12.6091,60.4164],[12.608,60.5081],[12.5895,60.5415],[12.5212,60.6286],[12.445,60.7028],[12.3696,60.7917],[12.2501,60.981],[12.2425,61.0132],[12.2845,61.0252],[12.4652,61.0511],[12.6854,61.0551]]]}},{"type":"Feature","properties":{"code":"SE018","name":"Västernorrland"},"geometry":{"type":"Polygon","coordinates":[[[18.455,63.9898],[19.2623,63.4951],[19.2894,63.4692],[19.2747,63.4261],[19.254,63.3851],[19.1458,63.2733],[19.0989,63.2282],[19.0749,63.2124],[18.4649,62.8767],[18.4231,62.8599],[18.2532,62.8006],[18.1619,62.7775],[18.1242,62.7598],[18.0692,62.7721],[18.0391,62.7924],[18.0054,62.8028],[17.9686,62.8265],[17.9416,62.8556],[17.9068,62.8539],[17.963,62.7703],[17.9928,62.7633],[18.0306,62.7619],[18.0692,62.7721],[18.1242,62.7598],[18.1668,62.7411],[18.1597,62.7155],[18.1428,62.6932],[18.0212,62.6664],[17.9941,62.6526],[18.0628,62.6136],[18.0425,62.5892],[17.9829,62.5601],[17.9173,62.5429],[17.8967,62.515],[17.8712,62.4961],[17.7407,62.4437],[17.7024,62.4333],[17.5852,62.4432],[17.5506,62.4365],[17.5338,62.4163],[17.5134,62.4408],[17.483,62.4647],[17.4208,62.476],[17.3903,62.4654],[17.4104,62.3739],[17.4335,62.3584],[17.5027,62.3584],[17.5316,62.3448],[17.497,62.1743],[17.4855,62.1492],[16.3011,62.2575],[15.4117,62.2905],[15.241,62.2926],[15.0635,62.3082],[15.032,62.3135],[14.861,62.399],[14.8399,62.4143],[14.8179,62.4636],[14.8063,62.4993],[14.8331,62.5247],[14.9173,62.5653],[15.9592,62.7158],[16.3103,62.7121],[16.3495,62.7162],[16.8589,62.9695],[16.8829,62.9898],[16.8629,63.0818],[16.8406,63.112],[16.7771,63.1384],[16.5726,63.2081],[16.2101,63.3609],[16.0272,63.4478],[16.0063,63.4686],[15.9914,63.6064],[15.9976,63.6432],[16.147,63.6783],[16.3811,63.7105],[16.5955,63.7342],[16.6346,63.7534],[16.7377,63.9559],[16.7536,63.9962],[16.9904,63.9547],[17.7954,63.893],[18.4063,63.9937],[18.455,63.9898]]]}},{"type":"Feature","properties":{"code":"SE019","name":"Västerbottens kustland"},"geometry":{"type":"MultiPolygon","coordinates":[[[[20.9081,63.73],[20.8737,63.7172],[20.8815,63.7569],[20.9001,63.7753],[20.8624,63.7759],[20.8396,63.7925],[20.8655,63.8215],[20.9101,63.8264],[20.9392,63.8098],[20.9262,63.7835],[20.9342,63.7499],[20.9081,63.73]]],[[[19.2894,63.4692],[19.2623,63.4951],[18.455,63.9898],[18.4795,64.0053],[18.9926,64.086],[19.1032,64.133],[19.1298,64.1535],[19.1162,64.2191],[19.038,64.2858],[19.0272,64.3215],[19.0263,64.3605],[19.0329,64.3995],[19.0846,64.5201],[19.2365,64.7289],[19.2741,64.7503],[19.4525,64.7831],[19.6765,64.7879],[19.7197,64.8003],[19.9412,65.0349],[19.9222,65.0598],[19.7111,65.2212],[19.731,65.2385],[19.9794,65.3557],[20.0377,65.37],[20.2211,65.363],[21.3238,65.1578],[21.5105,65.0957],[21.4732,65.0703],[21.2536,64.9583],[21.2159,64.9265],[21.16,64.8294],[21.1568,64.795],[21.1714,64.705],[21.1899,64.6871],[21.3508,64.5904],[21.4563,64.5398],[21.5504,64.4611],[21.568,64.4345],[21.5324,64.4066],[20.6926,63.8075],[20.6569,63.7893],[20.4394,63.7031],[20.2751,63.6475],[19.7771,63.5385],[19.7418,63.5266],[19.7104,63.5237],[19.4083,63.4563],[19.3649,63.452],[19.3252,63.4649],[19.2894,63.4692]]]]}},{"type":"Feature","properties":{"code":"SE020","name":"Norrbottens kustland"},"geometry":{"type":"Polygon","coordinates":[[[23.8163,66.1765],[23.8905,66.169],[23.8972,66.1378],[24.1201,65.8482],[24.1286,65.8198],[23.8421,65.753],[23.7927,65.7332],[23.7577,65.7093],[23.7206,65.7057],[23.6927,65.7184],[23.6793,65.7488],[23.6476,65.7568],[23.2324,65.774],[22.8074,65.8584],[22.7676,65.8585],[21.8323,65.3977],[21.6781,65.2997],[21.6494,65.2715],[21.5415,65.1243],[21.5105,65.0957],[21.3238,65.1578],[20.2593,65.3578],[20.2211,65.363],[20.0377,65.37],[19.9794,65.3557],[19.9548,65.3739],[19.7942,65.4548],[19.7419,65.4864],[19.7265,65.5068],[19.7424,65.5371],[19.764,65.561],[20.3809,65.6374],[21.689,65.7141],[21.8624,65.7904],[21.8695,65.847],[21.8679,66.0113],[21.97,66.181],[21.9889,66.2012],[22.0319,66.2125],[22.7351,66.214],[23.081,66.1939],[23.1691,66.1772],[23.316,66.115],[23.4513,66.0959],[23.5896,66.1145],[23.8163,66.1765]]]}},{"type":"Feature","properties":{"code":"SE021","name":"Stockholm"},"geometry":{"type":"Polygon","coordinates":[[[18.6655,59.5799],[18.508,59.5214],[18.5037,59.4962],[18.5301,59.4112],[18.568,59.3984],[18.7107,59.3757],[18.7464,59.3575],[18.7423,59.3218],[18.4512,59.1456],[18.413,59.1313],[18.0524,59.0507],[17.7946,59.0151],[17.7651,59.018],[17.7477,59.0727],[17.6813,59.1617],[17.6602,59.1446],[17.618,58.9947],[17.6118,58.9585],[17.5723,58.9588],[17.3456,59.0377],[17.3128,59.0529],[17.2799,59.0993],[17.25,59.2057],[17.2466,59.2407],[17.3423,59.4194],[17.3452,59.4529],[17.3883,59.4637],[18.0741,59.7585],[18.1047,59.7685],[18.6655,59.5799]]]}},{"type":"Feature","properties":{"code":"SE022","name":"Roslagskusten"},"geometry":{"type":"Polygon","coordinates":[[[19.1001,59.8092],[19.0878,59.7461],[19.0639,59.719],[18.6655,59.5799],[18.1047,59.7685],[18.1216,59.7917],[18.376,60.0349],[18.4227,60.0874],[18.4553,60.1403],[18.4823,60.1707],[18.7919,60.1059],[18.8328,60.0922],[19.074,59.8938],[19.0923,59.8635],[19.1001,59.8092]],[[18.9277,59.8057],[18.9754,59.7967],[19.0089,59.81],[18.9964,59.8438],[18.9652,59.8547],[18.9446,59.8327],[18.9277,59.8057]]]}},{"type":"Feature","properties":{"code":"SE023","name":"Uppsala"},"geometry":{"type":"Polygon","coordinates":[[[18.3986,60.0626],[18.376,60.0349],[18.1216,59.7917],[18.1047,59.7685],[17.3883,59.4637],[17.3452,59.4529],[16.9333,59.5485],[16.9135,59.5749],[16.7768,59.71],[16.7564,59.7363],[16.7373,59.8066],[16.7842,59.851],[16.8171,59.8726],[16.8933,59.8908],[17.343,60.1815],[17.4667,60.1865],[17.5785,60.1851],[17.8375,60.1589],[17.9859,60.0847],[18.0243,60.077],[18.1087,60.0685],[18.3986,60.0626]]]}},{"type":"Feature","properties":{"code":"SE024","name":"Västmanland"},"geometry":{"type":"Polygon","coordinates":[[[17.1733,60.2737],[17.3211,60.1976],[17.343,60.1815],[16.8933,59.8908],[16.8171,59.8726],[16.7842,59.851],[16.7373,59.8066],[16.7564,59.7363],[16.7768,59.71],[16.9135,59.5749],[16.9333,59.5485],[16.9041,59.537],[15.7507,59.2327],[15.7202,59.2378],[15.6096,59.2777],[15.5747,59.3185],[15.4089,59.835],[15.4072,59.9019],[15.6395,60.0917],[15.6733,60.0977],[16.3455,60.0921],[16.3834,60.1026],[16.6046,60.1855],[16.6343,60.2011],[16.6622,60.2059],[16.8344,60.2613],[16.8636,60.2749],[17.1733,60.2737]]]}},{"type":"Feature","properties":{"code":"SE025","name":"Gävleborgs kustland"},"geometry":{"type":"Polygon","coordinates":[[[17.4855,62.1492],[17.484,62.1122],[17.4737,62.0637],[17.4563,62.035],[17.0587,61.5863],[17.0513,61.555],[17.1387,60.9704],[17.1531,60.9344],[17.2273,60.8856],[17.3441,60.7704],[17.3478,60.7392],[17.3078,60.6511],[17.1758,60.3047],[17.1733,60.2737],[16.8636,60.2749],[16.8316,60.3267],[16.8197,60.3624],[16.8182,60.4311],[16.8247,60.6175],[16.8356,60.734],[16.8409,60.769],[16.8761,60.8483],[16.8787,60.8901],[16.8722,60.9959],[16.7056,61.4409],[16.6644,61.5098],[16.612,61.5817],[16.4295,61.7702],[16.3015,61.9274],[16.2795,61.961],[16.2137,62.0955],[16.2067,62.1363],[16.2566,62.2301],[16.2573,62.2568],[16.3011,62.2575],[17.4855,62.1492]]]}},{"type":"Feature","properties":{"code":"SE026","name":"Norrbottens inland"},"geometry":{"type":"Polygon","coordinates":[[[23.3038,68.1484],[23.4494,68.0438],[23.4787,68.0177],[23.5245,67.9191],[23.5319,67.8843],[23.4107,67.5036],[23.4232,67.4761],[23.4599,67.4567],[23.521,67.4421],[23.7817,67.0049],[23.7711,66.5865],[23.7756,66.4729],[23.8061,66.2103],[23.8163,66.1765],[23.5896,66.1145],[23.4513,66.0959],[23.316,66.115],[23.1691,66.1772],[23.081,66.1939],[22.7351,66.214],[22.0319,66.2125],[21.9889,66.2012],[21.97,66.181],[21.8679,66.0113],[21.8695,65.847],[21.8624,65.7904],[21.689,65.7141],[20.3809,65.6374],[19.764,65.561],[19.7424,65.5371],[19.7265,65.5068],[19.7419,65.4864],[19.7942,65.4548],[19.9548,65.3739],[19.9794,65.3557],[19.731,65.2385],[19.7111,65.2212],[19.6809,65.2186],[19.5985,65.1959],[19.423,65.2002],[19.312,65.2303],[19.0209,65.344],[18.9738,65.3653],[18.8308,65.4478],[18.7927,65.4588],[17.7821,65.6342],[17.6267,65.6884],[17.2887,65.8472],[17.314,65.8681],[17.5151,65.9813],[17.9874,66.3568],[18.2798,66.6131],[18.548,66.8283],[18.8191,67.0423],[19.3061,67.3995],[19.8808,67.777],[20.1814,67.9447],[20.6543,68.1173],[21.1433,68.281],[21.7661,68.4723],[21.943,68.512],[21.9762,68.5261],[22.0123,68.5223],[22.3993,68.4125],[23.3038,68.1484]]]}},{"type":"Feature","properties":{"code":"SE027","name":"Dalafjällen"},"geometry":{"type":"Polygon","coordinates":[[[13.5073,61.7839],[13.6451,61.6352],[13.6707,61.6207],[13.6868,61.5833],[13.816,61.4191],[13.8228,61.3888],[13.8222,61.355],[13.8032,61.2633],[13.7629,61.1593],[13.7388,61.1359],[13.643,61.1038],[13.4471,61.0644],[12.7243,61.0262],[12.6854,61.0551],[12.7027,61.0895],[12.7843,61.1886],[12.818,61.2375],[12.8596,61.3274],[12.8583,61.3666],[12.5806,61.5601],[12.5381,61.5673],[12.4387,61.5678],[12.3825,61.5862],[12.2612,61.649],[12.1691,61.7059],[12.1483,61.7288],[12.2848,62.2531],[12.2882,62.2844],[12.3155,62.2742],[12.6582,62.1995],[13.0963,62.0477],[13.3225,61.9366],[13.5073,61.7839]]]}},{"type":"Feature","properties":{"code":"SE028","name":"Härjedalsfjällen"},"geometry":{"type":"Polygon","coordinates":[[[14.0408,62.6245],[14.0899,62.5479],[14.0953,62.5093],[14.0908,62.3208],[14.0816,62.2613],[13.8838,62.058],[13.7573,61.9381],[13.5283,61.8057],[13.5073,61.7839],[13.3225,61.9366],[13.0963,62.0477],[12.6582,62.1995],[12.3155,62.2742],[12.2882,62.2844],[12.2695,62.3113],[12.2436,62.3339],[12.2469,62.363],[12.1354,62.7524],[12.1615,62.7491],[12.3949,62.77],[12.4751,62.7724],[13.8479,62.7001],[13.9319,62.6757],[14.0075,62.644],[14.0408,62.6245]]]}},{"type":"Feature","properties":{"code":"SE029","name":"Gävleborgs inland"},"geometry":{"type":"Polygon","coordinates":[[[16.2573,62.2568],[16.2566,62.2301],[16.2067,62.1363],[16.2137,62.0955],[16.2795,61.961],[16.3015,61.9274],[16.4295,61.7702],[16.612,61.5817],[16.6644,61.5098],[16.7203,61.4079],[16.8722,60.9959],[16.8787,60.8901],[16.8761,60.8483],[16.8409,60.769],[16.8356,60.734],[16.8247,60.6175],[16.8182,60.4311],[16.8197,60.3624],[16.8316,60.3267],[16.8636,60.2749],[16.8344,60.2613],[16.6622,60.2059],[16.6343,60.2011],[16.4805,60.3366],[16.4561,60.3659],[16.3158,60.6368],[16.3039,60.6677],[16.3296,60.7144],[16.332,60.7996],[16.1404,60.9678],[15.4291,61.3925],[15.2184,61.5159],[15.1853,61.5304],[14.528,61.6127],[14.5275,61.6988],[14.5314,61.7248],[14.5459,61.7632],[14.5698,61.7884],[14.6515,61.8488],[14.6904,61.8598],[14.8989,61.8902],[15.0825,61.8872],[15.1225,61.897],[15.396,62.0979],[15.4101,62.1235],[15.424,62.2178],[15.4117,62.2905],[16.2194,62.262],[16.2573,62.2568]]]}},{"type":"Feature","properties":{"code":"SE030","name":"Jämtlandsfjällen"},"geometry":{"type":"Polygon","coordinates":[[[15.551,64.4988],[15.0392,64.3304],[14.5504,63.9756],[14.4636,63.8957],[14.2589,63.6671],[14.2168,63.6115],[14.0991,63.4146],[14.0282,63.2531],[14.018,63.1162],[14.0359,62.6614],[14.0408,62.6245],[14.0075,62.644],[13.9319,62.6757],[13.8479,62.7001],[12.4751,62.7724],[12.3949,62.77],[12.1615,62.7491],[12.1354,62.7524],[12.057,63.1639],[12.0281,63.2113],[11.988,63.2542],[11.9812,63.2855],[12.1369,63.5694],[12.1633,63.6036],[12.6731,63.9656],[12.746,63.9963],[12.9323,64.0596],[13.2071,64.0972],[13.5637,64.0641],[13.7317,64.0453],[13.9332,64.0152],[13.9666,64.0155],[14.1404,64.1817],[14.1514,64.2214],[14.1151,64.4562],[14.0905,64.4758],[13.8854,64.5112],[13.6635,64.581],[13.6761,64.6051],[13.6992,64.6339],[13.734,64.6642],[14.0171,64.8922],[14.2737,65.0834],[14.298,65.1078],[14.3373,65.1033],[14.5525,65.0188],[14.6766,64.9769],[15.1257,64.8379],[15.2008,64.8196],[15.2294,64.8058],[15.3269,64.7445],[15.4792,64.6255],[15.5392,64.5268],[15.551,64.4988]]]}},{"type":"Feature","properties":{"code":"SE031","name":"Jämtland"},"geometry":{"type":"Polygon","coordinates":[[[15.5849,64.4954],[15.6231,64.4712],[16.7163,64.0246],[16.7536,63.9962],[16.7377,63.9559],[16.6346,63.7534],[16.5955,63.7342],[16.3811,63.7105],[16.147,63.6783],[15.9976,63.6432],[15.9914,63.6064],[16.0063,63.4686],[16.0272,63.4478],[16.246,63.3455],[16.5726,63.2081],[16.7771,63.1384],[16.8406,63.112],[16.8629,63.0818],[16.8829,62.9898],[16.8589,62.9695],[16.3495,62.7162],[16.3103,62.7121],[15.9592,62.7158],[14.9173,62.5653],[14.8883,62.5533],[14.8331,62.5247],[14.8063,62.4993],[14.8399,62.4143],[14.861,62.399],[15.032,62.3135],[15.241,62.2926],[15.4117,62.2905],[15.424,62.2178],[15.4101,62.1235],[15.396,62.0979],[15.1225,61.897],[15.0825,61.8872],[14.8989,61.8902],[14.6904,61.8598],[14.6515,61.8488],[14.5698,61.7884],[14.5459,61.7632],[14.5314,61.7248],[14.5275,61.6988],[14.528,61.6127],[13.7038,61.6302],[13.6707,61.6207],[13.6451,61.6352],[13.5073,61.7839],[13.5283,61.8057],[13.7573,61.9381],[13.8838,62.058],[14.0816,62.2613],[14.0908,62.3208],[14.0953,62.5093],[14.0899,62.5479],[14.0408,62.6245],[14.0359,62.6614],[14.018,63.1162],[14.0196,63.1766],[14.0282,63.2531],[14.0838,63.3816],[14.0991,63.4146],[14.2168,63.6115],[14.2589,63.6671],[14.4419,63.8724],[14.5504,63.9756],[15.0392,64.3304],[15.551,64.4988],[15.5849,64.4954]]]}},{"type":"Feature","properties":{"code":"SE032","name":"Västerbottens inland"},"geometry":{"type":"Polygon","coordinates":[[[19.7111,65.2212],[19.9222,65.0598],[19.9412,65.0349],[19.7197,64.8003],[19.6765,64.7879],[19.4525,64.7831],[19.2741,64.7503],[19.2365,64.7289],[19.0846,64.5201],[19.0329,64.3995],[19.0263,64.3605],[19.0272,64.3215],[19.038,64.2858],[19.1162,64.2191],[19.1298,64.1535],[19.1032,64.133],[18.9926,64.086],[18.4795,64.0053],[18.455,63.9898],[18.4063,63.9937],[17.7954,63.893],[16.9904,63.9547],[16.8262,63.9807],[16.7536,63.9962],[16.7163,64.0246],[15.6231,64.4712],[15.5849,64.4954],[15.6135,64.5104],[15.7182,64.535],[15.8629,64.598],[15.9849,64.6821],[16.1176,64.786],[16.6405,65.2237],[17.1439,65.6336],[17.1687,65.6568],[17.2683,65.8302],[17.2887,65.8472],[17.6267,65.6884],[17.7821,65.6342],[18.7927,65.4588],[18.8308,65.4478],[18.9738,65.3653],[19.0209,65.344],[19.312,65.2303],[19.423,65.2002],[19.5985,65.1959],[19.6809,65.2186],[19.7111,65.2212]]]}},{"type":"Feature","properties":{"code":"SE033","name":"Södra Lapplandsfjällen"},"geometry":{"type":"Polygon","coordinates":[[[17.2887,65.8472],[17.2683,65.8302],[17.1687,65.6568],[17.1439,65.6336],[16.6405,65.2237],[16.1176,64.786],[15.9849,64.6821],[15.8629,64.598],[15.7182,64.535],[15.6135,64.5104],[15.5849,64.4954],[15.551,64.4988],[15.5392,64.5268],[15.4792,64.6255],[15.4521,64.6495],[15.3049,64.7602],[15.2008,64.8196],[15.1257,64.8379],[14.6766,64.9769],[14.5525,65.0188],[14.3373,65.1033],[14.298,65.1078],[14.3227,65.1282],[14.4968,65.4454],[14.5037,65.4717],[14.5833,65.893],[14.5209,66.1263],[14.5508,66.1349],[15.0337,66.1569],[15.4357,66.2709],[15.4735,66.2857],[15.4719,66.3144],[15.4633,66.3413],[16.2379,66.1448],[16.774,66.0217],[17.1165,65.9119],[17.2887,65.8472]]]}},{"type":"Feature","properties":{"code":"SE034","name":"Norra Lapplandsfjällen"},"geometry":{"type":"Polygon","coordinates":[[[20.5667,69.0568],[21.9464,68.5463],[21.9762,68.5261],[21.943,68.512],[21.7661,68.4723],[21.3893,68.3573],[21.1433,68.281],[20.6543,68.1173],[20.1814,67.9447],[19.9162,67.7977],[19.3397,67.423],[18.8191,67.0423],[18.2798,66.6131],[18.0195,66.3833],[17.5151,65.9813],[17.314,65.8681],[17.2887,65.8472],[17.1165,65.9119],[16.774,66.0217],[16.2379,66.1448],[15.4633,66.3413],[15.402,66.4458],[15.3864,66.4808],[15.4159,66.5092],[16.0264,66.9031],[16.0505,66.9276],[16.4122,67.5407],[16.7228,67.8961],[16.747,67.9171],[17.2846,68.1197],[17.6492,68.0406],[17.868,67.9769],[17.906,67.9811],[18.1466,68.1936],[18.1498,68.241],[18.133,68.4937],[18.1371,68.5371],[18.4084,68.5825],[18.9778,68.517],[19.898,68.362],[19.9327,68.3619],[20.1986,68.478],[20.2305,68.4996],[20.3311,68.7862],[20.3315,68.8143],[20.3097,68.9033],[20.2968,68.9287],[20.239,68.954],[20.0715,69.0443],[20.5209,69.06],[20.5667,69.0568]]]}},{"type":"Feature","properties":{"code":"SE035","name":"Gotland"},"geometry":{"type":"MultiPolygon","coordinates":[[[[18.3625,57.0196],[18.3254,57.0094],[18.2168,57.0138],[18.1927,57.0489],[18.1113,57.2355],[18.1048,57.2658],[18.1262,57.2896],[18.1328,57.322],[18.1132,57.4993],[18.1151,57.5336],[18.1572,57.5711],[18.4925,57.8277],[18.6894,57.9124],[18.7226,57.9247],[18.7688,57.9271],[18.9418,57.9222],[19.0025,57.9131],[19.0301,57.898],[19.0701,57.8421],[19.062,57.8167],[18.8062,57.4545],[18.3625,57.0196]]],[[[19.3451,57.9516],[19.1189,57.8529],[19.0907,57.8609],[19.0725,57.8934],[19.0818,57.9353],[19.1058,57.9654],[19.1387,57.9802],[19.183,57.9909],[19.2859,57.9835],[19.3271,57.9769],[19.3451,57.9516]]]]}},{"type":"Feature","properties":{"code":"SE036","name":"Öland"},"geometry":{"type":"Polygon","coordinates":[[[16.9,56.9131],[16.4945,56.2411],[16.468,56.2198],[16.4336,56.2042],[16.4054,56.2036],[16.3944,56.2964],[16.3844,56.332],[16.3888,56.3627],[16.3807,56.458],[16.3896,56.5229],[16.4049,56.5576],[16.5276,56.75],[16.622,56.8613],[16.817,57.0731],[16.9637,57.2287],[17.0721,57.3057],[17.1002,57.311],[17.0921,57.274],[16.9,56.9131]]]}},{"type":"Feature","properties":{"code":"SE037","name":"Österlen"},"geometry":{"type":"Polygon","coordinates":[[[14.5431,56.0436],[14.4806,56.0325],[14.3424,55.9564],[14.2488,55.8697],[14.2242,55.8315],[14.1975,55.7549],[14.2,55.7181],[14.2232,55.6909],[14.2489,55.6767],[14.3508,55.5677],[14.3543,55.527],[14.3366,55.5007],[14.219,55.4055],[14.1901,55.4115],[14.1601,55.4365],[14.0835,55.4847],[13.939,55.6188],[13.9212,55.6415],[13.8585,55.8758],[13.8528,55.9106],[13.8659,56.0276],[13.8845,56.0652],[14.216,56.2433],[14.3421,56.2968],[14.3757,56.3064],[14.4042,56.2748],[14.5208,56.0669],[14.5431,56.0436]]]}},{"type":"Feature","properties":{"code":"SE038","name":"Halland"},"geometry":{"type":"Polygon","coordinates":[[[12.2395,57.5796],[13.0372,57.1739],[13.0604,57.1568],[13.0708,57.1075],[13.0889,57.074],[13.1388,57.0426],[13.1697,57.0424],[13.3034,57.1044],[13.4501,57.1064],[13.4796,57.0934],[13.5607,57.0418],[13.6164,57.0001],[13.6385,56.9749],[13.6553,56.9388],[13.6328,56.9154],[13.5964,56.895],[13.4414,56.8623],[13.3113,56.8581],[13.3168,56.7757],[13.3613,56.5855],[13.4329,56.4495],[13.4436,56.4203],[12.9383,56.4289],[12.9099,56.4419],[12.9395,56.5031],[12.9401,56.5568],[12.9317,56.5838],[12.8935,56.633],[12.858,56.6561],[12.823,56.6536],[12.7898,56.641],[12.7588,56.6413],[12.7304,56.6499],[12.3426,56.9712],[12.1,57.2421],[11.9418,57.4715],[11.9277,57.5395],[11.9339,57.5917],[12.2395,57.5796]]]}},{"type":"Feature","properties":{"code":"SE039","name":"Inre Dalsland"},"geometry":{"type":"Polygon","coordinates":[[[12.5019,59.1067],[12.3215,58.8747],[12.1922,58.6631],[12.0582,58.4792],[12.0,58.4346],[11.9734,58.4487],[11.9068,58.4709],[11.8763,58.5224],[11.8686,58.5505],[11.8679,58.577],[11.9364,58.6469],[11.9412,58.6801],[11.9334,58.71],[11.8448,58.7785],[11.6472,58.9026],[11.6576,58.9434],[11.8209,59.2351],[11.8413,59.2525],[11.8831,59.2406],[12.4755,59.1199],[12.5019,59.1067]]]}},{"type":"Feature","properties":{"code":"SE040","name":"Sjuhärad+Göta älv"},"geometry":{"type":"Polygon","coordinates":[[[13.1843,58.1271],[13.6642,57.9609],[13.6686,57.907],[13.656,57.5394],[13.0889,57.1849],[13.0604,57.1568],[13.0372,57.1739],[12.2395,57.5796],[12.2259,57.6122],[12.068,58.1733],[12.0607,58.2144],[12.0988,58.2195],[13.1429,58.1259],[13.1843,58.1271]]]}},{"type":"Feature","properties":{"code":"SE801","name":"Bay of Bothnia"},"geometry":{"type":"Polygon","coordinates":[[[24.1286,65.8198],[24.1364,65.7949],[24.1063,65.6105],[23.6711,65.4937],[23.1098,65.2579],[22.8784,65.156],[22.4952,65.0291],[22.0698,64.9297],[22.0326,64.9169],[21.8741,64.8116],[21.853,64.7838],[21.8748,64.748],[21.9108,64.699],[22.0278,64.5685],[22.0825,64.4936],[22.0965,64.4594],[22.0656,64.3769],[21.9753,64.2809],[21.9536,64.2635],[21.8323,64.177],[21.5271,63.9744],[21.499,63.9465],[21.4482,63.8757],[21.4412,63.851],[20.9516,63.9903],[20.9785,64.0141],[21.568,64.4345],[21.5504,64.4611],[21.4563,64.5398],[21.3508,64.5904],[21.1899,64.6871],[21.1714,64.705],[21.1568,64.795],[21.16,64.8294],[21.2159,64.9265],[21.2536,64.9583],[21.4732,65.0703],[21.5105,65.0957],[21.5415,65.1243],[21.6494,65.2715],[21.6781,65.2997],[21.8323,65.3977],[22.7676,65.8585],[22.8074,65.8584],[23.2324,65.774],[23.6476,65.7568],[23.6793,65.7488],[23.6927,65.7184],[23.7206,65.7057],[23.7577,65.7093],[23.7927,65.7332],[23.8421,65.753],[24.1286,65.8198]]]}},{"type":"Feature","properties":{"code":"SE802","name":"The Quark"},"geometry":{"type":"Polygon","coordinates":[[[21.4412,63.851],[21.4538,63.8288],[21.4638,63.7579],[21.44,63.6965],[21.4149,63.6635],[21.385,63.6375],[21.3462,63.6213],[21.199,63.5872],[21.162,63.5678],[21.0203,63.5441],[20.9387,63.5124],[20.8961,63.5146],[20.822,63.494],[20.5232,63.3878],[20.48,63.3694],[20.2022,63.188],[20.1615,63.169],[19.7602,63.506],[19.7418,63.5266],[19.7771,63.5385],[20.31,63.6562],[20.4394,63.7031],[20.6569,63.7893],[20.6926,63.8075],[20.9236,63.9746],[20.9516,63.9903],[21.4412,63.851]],[[20.9081,63.73],[20.9342,63.7499],[20.9262,63.7835],[20.9392,63.8098],[20.9101,63.8264],[20.8655,63.8215],[20.8396,63.7925],[20.8624,63.7759],[20.9001,63.7753],[20.8815,63.7569],[20.8737,63.7172],[20.9081,63.73]]]}},{"type":"Feature","properties":{"code":"SE803","name":"North Sea of Bothnia"},"geometry":{"type":"MultiPolygon","coordinates":[[[[18.0692,62.7721],[18.0306,62.7619],[17.9928,62.7633],[17.963,62.7703],[17.9068,62.8539],[17.9416,62.8556],[17.9686,62.8265],[18.0054,62.8028],[18.0391,62.7924],[18.0692,62.7721]]],[[[20.1615,63.169],[20.1333,63.1562],[19.6368,63.0283],[19.2825,62.915],[18.7361,62.6278],[18.4986,62.4539],[18.4729,62.4295],[18.3026,62.2527],[18.1868,62.0626],[17.4855,62.1492],[17.497,62.1743],[17.5316,62.3448],[17.5027,62.3584],[17.4335,62.3584],[17.4104,62.3739],[17.3903,62.4654],[17.4208,62.476],[17.483,62.4647],[17.5134,62.4408],[17.5338,62.4163],[17.5506,62.4365],[17.5852,62.4432],[17.7024,62.4333],[17.7407,62.4437],[17.8712,62.4961],[17.8967,62.515],[17.9173,62.5429],[17.9829,62.5601],[18.0425,62.5892],[18.0628,62.6136],[17.9941,62.6526],[18.0212,62.6664],[18.1428,62.6932],[18.1597,62.7155],[18.1668,62.7411],[18.1242,62.7598],[18.1619,62.7775],[18.2532,62.8006],[18.4649,62.8767],[19.0989,63.2282],[19.254,63.3851],[19.2747,63.4261],[19.2894,63.4692],[19.3252,63.4649],[19.3649,63.452],[19.4083,63.4563],[19.7104,63.5237],[19.7418,63.5266],[19.7602,63.506],[20.1615,63.169]]]]}},{"type":"Feature","properties":{"code":"SE804","name":"South Sea of Bothnia"},"geometry":{"type":"Polygon","coordinates":[[[18.1868,62.0626],[18.0385,61.8234],[17.9217,61.534],[17.8979,61.3019],[17.9083,61.1819],[17.9154,61.1406],[17.9766,60.9882],[18.0042,60.9578],[18.1976,60.8327],[18.2388,60.8186],[18.5589,60.7282],[18.9735,60.6355],[19.1868,60.6203],[19.1758,60.4973],[18.4622,60.4348],[18.4401,60.4623],[18.431,60.4922],[18.4076,60.5031],[18.3718,60.4923],[18.3843,60.4236],[18.3547,60.4267],[18.3166,60.4233],[18.2756,60.4087],[18.2382,60.4152],[18.2011,60.4285],[17.8581,60.5757],[17.436,60.6465],[17.3469,60.6551],[17.3078,60.6511],[17.3478,60.7392],[17.3441,60.7704],[17.2273,60.8856],[17.1531,60.9344],[17.1387,60.9704],[17.0513,61.555],[17.0587,61.5863],[17.4563,62.035],[17.4737,62.0637],[17.484,62.1122],[17.4855,62.1492],[18.1868,62.0626]]]}},{"type":"Feature","properties":{"code":"SE805","name":"Sea of Aaland"},"geometry":{"type":"MultiPolygon","coordinates":[[[[18.9277,59.8057],[18.9446,59.8327],[18.9652,59.8547],[18.9964,59.8438],[19.0089,59.81],[18.9754,59.7967],[18.9277,59.8057]]],[[[19.3987,60.0115],[19.4831,59.9517],[19.5603,59.9173],[19.5788,59.8934],[19.6271,59.8641],[19.6599,59.836],[19.6171,59.8289],[19.1001,59.8092],[19.0923,59.8635],[19.074,59.8938],[18.8328,60.0922],[18.7919,60.1059],[18.4823,60.1707],[18.5146,60.1884],[18.5769,60.2126],[18.6073,60.2383],[18.5822,60.2614],[18.2966,60.3869],[18.2756,60.4087],[18.3166,60.4233],[18.3547,60.4267],[18.3843,60.4236],[18.3941,60.3982],[18.4134,60.3681],[18.446,60.3493],[18.5246,60.3174],[18.5541,60.3163],[18.4985,60.37],[18.4622,60.4348],[19.1758,60.4973],[19.1461,60.1598],[19.1626,60.1386],[19.3633,60.0214],[19.3987,60.0115]]]]}},{"type":"Feature","properties":{"code":"SE806","name":"Central Baltic"},"geometry":{"type":"Polygon","coordinates":[[[17.5746,58.3383],[17.4611,58.1306],[17.3863,57.9825],[17.2959,57.8013],[17.2806,57.7551],[17.329,57.5935],[17.3447,57.5597],[17.4729,57.4512],[17.4899,57.4142],[17.5088,57.2608],[17.5065,57.2265],[17.2304,56.7845],[17.0256,56.4805],[16.9254,56.285],[16.9002,56.2502],[16.5729,56.3028],[16.5339,56.3014],[16.9,56.9131],[17.0921,57.274],[17.1002,57.311],[17.0721,57.3057],[16.9637,57.2287],[16.9425,57.208],[16.622,56.8613],[16.5276,56.75],[16.4049,56.5576],[16.3896,56.5229],[16.3807,56.458],[16.3888,56.3627],[16.3844,56.332],[16.1433,56.3683],[16.1156,56.3764],[16.1316,56.4048],[16.4014,56.754],[16.4225,56.7886],[16.6952,57.4407],[16.7775,57.836],[16.7754,57.8764],[16.7076,58.0161],[16.7497,58.0263],[16.8187,58.108],[16.8414,58.145],[16.9404,58.4447],[16.9614,58.4765],[17.0017,58.4721],[17.5411,58.3428],[17.5746,58.3383]]]}},{"type":"Feature","properties":{"code":"SE807","name":"Northern Baltic"},"geometry":{"type":"MultiPolygon","coordinates":[[[[16.4448,58.647],[16.4237,58.6108],[16.3934,58.6015],[16.2688,58.6093],[16.2145,58.6302],[16.2385,58.6578],[16.2772,58.6649],[16.4121,58.6601],[16.4448,58.647]]],[[[17.5746,58.3383],[17.5411,58.3428],[17.0017,58.4721],[16.9614,58.4765],[16.7176,58.5965],[16.6836,58.6176],[16.7071,58.6318],[16.9219,58.6129],[16.9926,58.6209],[17.1261,58.6507],[17.5636,58.8298],[17.5915,58.8456],[17.6151,58.8731],[17.6304,58.9171],[17.6118,58.9585],[17.618,58.9947],[17.6602,59.1446],[17.6813,59.1617],[17.7477,59.0727],[17.7651,59.018],[17.7946,59.0151],[18.0524,59.0507],[18.413,59.1313],[18.4512,59.1456],[18.7423,59.3218],[18.7464,59.3575],[18.7107,59.3757],[18.568,59.3984],[18.5301,59.4112],[18.5037,59.4962],[18.508,59.5214],[19.0639,59.719],[19.0878,59.7461],[19.1001,59.8092],[19.6171,59.8289],[19.6599,59.836],[19.6967,59.8185],[19.9776,59.5815],[19.9951,59.5539],[19.9013,59.3843],[19.7223,59.2511],[19.4318,59.1348],[19.1673,58.9737],[18.8556,58.8104],[18.3621,58.6165],[18.051,58.5127],[17.8016,58.4532],[17.5746,58.3383]]]]}},{"type":"Feature","properties":{"code":"SE808","name":"Southern Baltic"},"geometry":{"type":"Polygon","coordinates":[[[16.3844,56.332],[16.3944,56.2964],[16.4054,56.2036],[16.4336,56.2042],[16.468,56.2198],[16.4945,56.2411],[16.5339,56.3014],[16.5729,56.3028],[16.9002,56.2502],[16.8725,56.2108],[16.8312,56.1643],[16.7131,56.0744],[16.6848,56.0607],[16.3462,55.9309],[15.9969,55.8178],[15.7627,55.7825],[15.524,55.8012],[15.49,55.8063],[15.3646,55.8527],[15.1521,55.8724],[15.0241,55.8666],[14.756,55.7924],[14.6563,55.7129],[14.6586,55.6863],[14.6809,55.6291],[14.6887,55.5888],[14.6711,55.5529],[14.6004,55.4382],[14.5937,55.4126],[14.5185,55.3503],[14.4701,55.301],[14.4266,55.2886],[14.3316,55.2461],[14.3009,55.2376],[14.0891,55.192],[13.8726,55.2027],[13.6906,55.199],[13.5376,55.166],[13.3361,55.1486],[12.9162,55.184],[12.808,55.2338],[12.7978,55.2594],[12.8926,55.364],[12.9135,55.4031],[12.9457,55.4035],[13.265,55.3453],[13.3558,55.3368],[13.4984,55.3831],[13.6524,55.4185],[13.7203,55.427],[13.9319,55.4333],[14.1516,55.4097],[14.1901,55.4115],[14.219,55.4055],[14.3366,55.5007],[14.3543,55.527],[14.3508,55.5677],[14.2489,55.6767],[14.2232,55.6909],[14.2,55.7181],[14.1975,55.7549],[14.2242,55.8315],[14.2488,55.8697],[14.3424,55.9564],[14.4806,56.0325],[14.5431,56.0436],[14.66,56.1313],[14.7016,56.1561],[15.0616,56.1503],[15.2822,56.1338],[15.4016,56.1514],[15.5787,56.1911],[15.6447,56.1862],[15.7702,56.1551],[15.7912,56.1289],[15.8029,56.0943],[15.8331,56.0803],[15.8601,56.0767],[16.0316,56.2277],[16.0472,56.2587],[16.0705,56.3282],[16.1156,56.3764],[16.1433,56.3683],[16.3844,56.332]],[[15.7284,56.1014],[15.7009,56.119],[15.6701,56.1187],[15.6581,56.0911],[15.6952,56.0743],[15.7284,56.1014]]]}},{"type":"Feature","properties":{"code":"SE809","name":"The Sound"},"geometry":{"type":"Polygon","coordinates":[[[12.9457,55.4035],[12.9135,55.4031],[12.8503,55.4271],[12.8419,55.3907],[12.8845,55.3917],[12.9135,55.4031],[12.8926,55.364],[12.7978,55.2594],[12.768,55.2757],[12.7389,55.3063],[12.721,55.354],[12.7171,55.4554],[12.7457,55.5089],[12.8297,55.5789],[12.8571,55.6389],[12.8624,55.6711],[12.8479,55.7084],[12.8288,55.7413],[12.7662,55.7801],[12.7376,55.8081],[12.7085,55.8474],[12.6923,55.8823],[12.6619,56.0195],[12.6451,56.0434],[12.6175,56.0487],[12.5902,56.0655],[12.5712,56.091],[12.352,56.2298],[12.3202,56.2549],[12.4549,56.2926],[12.4769,56.2627],[12.6402,56.0904],[12.8617,55.8731],[12.9234,55.8205],[12.9388,55.7677],[12.9547,55.743],[13.0091,55.7221],[13.0389,55.6988],[13.0565,55.665],[13.01,55.6263],[12.9325,55.5945],[12.9112,55.5764],[12.9119,55.5471],[12.9589,55.4721],[12.9605,55.4314],[12.9457,55.4035]]]}},{"type":"Feature","properties":{"code":"SE810","name":"Kategatt"},"geometry":{"type":"Polygon","coordinates":[[[11.9339,57.5917],[11.9277,57.5395],[11.9418,57.4715],[12.1,57.2421],[12.3426,56.9712],[12.7304,56.6499],[12.7588,56.6413],[12.7898,56.641],[12.823,56.6536],[12.858,56.6561],[12.8935,56.633],[12.9317,56.5838],[12.9401,56.5568],[12.9395,56.5031],[12.9099,56.4419],[12.8838,56.432],[12.7407,56.4679],[12.6968,56.4648],[12.6601,56.4529],[12.634,56.436],[12.4799,56.3179],[12.4549,56.2926],[12.3202,56.2549],[12.2881,56.2846],[12.2284,56.3568],[12.2193,56.3907],[12.2132,56.4438],[12.2147,56.4768],[12.2693,56.5552],[12.2802,56.581],[12.2017,56.7531],[12.1001,56.9071],[12.0707,56.9421],[11.6848,57.2476],[11.5781,57.4369],[11.3785,57.5847],[11.2354,57.7174],[11.2162,57.7389],[11.1526,57.8608],[11.185,57.8499],[11.663,57.8893],[11.7084,57.8986],[11.6954,57.8581],[11.6985,57.8233],[11.7299,57.747],[11.7553,57.7271],[11.8464,57.6729],[11.9339,57.5917]]]}},{"type":"Feature","properties":{"code":"SE811","name":"Skagerrak"},"geometry":{"type":"MultiPolygon","coordinates":[[[[11.5433,58.2035],[11.5178,58.2146],[11.5609,58.2239],[11.5433,58.2035]]],[[[11.6989,58.3309],[11.734,58.3386],[11.7754,58.3351],[11.8162,58.3183],[11.8633,58.2487],[11.8764,58.2108],[11.8612,58.1881],[11.8398,58.2332],[11.7599,58.2902],[11.7246,58.2965],[11.6882,58.2874],[11.6989,58.3309]]],[[[11.7084,57.8986],[11.663,57.8893],[11.185,57.8499],[11.1526,57.8608],[11.1357,57.89],[11.0093,58.0443],[10.9872,58.0772],[10.9002,58.241],[10.767,58.4053],[10.6715,58.5987],[10.6642,58.6343],[10.6477,58.8141],[10.6483,58.8423],[10.662,58.9175],[10.7717,58.9171],[10.8998,58.9394],[11.0483,58.9744],[11.0754,58.9847],[11.1234,59.0167],[11.1208,58.9604],[11.4142,58.2027],[11.4397,58.1891],[11.4154,58.1594],[11.4268,58.1218],[11.4788,58.0819],[11.5133,58.0779],[11.6165,58.1292],[11.6539,58.1266],[11.6914,58.1131],[11.7244,58.1133],[11.7865,58.132],[11.8246,58.1307],[11.8545,58.1529],[11.8521,58.1152],[11.764,57.9711],[11.7084,57.8986]],[[11.7521,58.0637],[11.7174,58.069],[11.639,58.0553],[11.5667,58.0634],[11.5401,58.0556],[11.5168,58.0362],[11.5288,57.9976],[11.5486,57.9618],[11.5771,57.9453],[11.6043,57.9367],[11.7541,58.0054],[11.7658,58.0382],[11.7521,58.0637]]]]}},{"type":"Feature","properties":{"code":"SE812","name":"Waters of Gotland"},"geometry":{"type":"Polygon","coordinates":[[[19.6976,58.125],[19.6961,58.0902],[19.6572,57.8472],[19.6378,57.8253],[19.47,57.7016],[19.453,57.6804],[19.3508,57.524],[19.3352,57.3771],[19.3249,57.3392],[19.075,57.1625],[18.7286,56.8843],[18.5931,56.7954],[18.3577,56.7216],[18.0872,56.715],[17.8794,56.7858],[17.8528,56.8018],[17.7862,56.9345],[17.727,57.1481],[17.6537,57.3655],[17.6491,57.3945],[17.7602,57.5749],[18.1325,57.9018],[18.2446,57.9852],[18.5586,58.1135],[18.9664,58.1735],[18.9922,58.1831],[18.8707,58.2646],[18.8417,58.4481],[18.8467,58.4781],[19.1317,58.5965],[19.4782,58.5625],[19.5095,58.5489],[19.6968,58.4316],[19.6946,58.3952],[19.6592,58.2665],[19.6645,58.2296],[19.6976,58.125]],[[19.1189,57.8529],[19.3451,57.9516],[19.3271,57.9769],[19.2859,57.9835],[19.183,57.9909],[19.1387,57.9802],[19.1058,57.9654],[19.0818,57.9353],[19.0725,57.8934],[19.0907,57.8609],[19.1189,57.8529]],[[18.3625,57.0196],[18.8062,57.4545],[19.062,57.8167],[19.0701,57.8421],[19.0301,57.898],[19.0025,57.9131],[18.9418,57.9222],[18.7688,57.9271],[18.7226,57.9247],[18.6894,57.9124],[18.4925,57.8277],[18.1572,57.5711],[18.1151,57.5336],[18.1132,57.4993],[18.1328,57.322],[18.1262,57.2896],[18.1048,57.2658],[18.1113,57.2355],[18.1927,57.0489],[18.2168,57.0138],[18.3254,57.0094],[18.3625,57.0196]]]}},{"type":"Feature","properties":{"code":"SE813","name":"Vänern"},"geometry":{"type":"Polygon","coordinates":[[[14.0356,59.0996],[14.0154,59.0026],[13.9852,58.9178],[13.9597,58.8661],[13.7451,58.6948],[13.7103,58.6837],[13.449,58.6287],[13.1721,58.5892],[13.1406,58.5807],[12.9002,58.5013],[12.7411,58.4316],[12.6916,58.3986],[12.6654,58.3692],[12.6208,58.3595],[12.4309,58.3683],[12.3928,58.3741],[12.3622,58.3915],[12.3474,58.421],[12.5198,58.7612],[12.7215,58.988],[12.7896,59.0341],[12.836,59.0402],[12.96,59.0361],[13.1681,59.0745],[13.1925,59.0882],[13.1331,59.2121],[13.1335,59.2819],[13.1409,59.3397],[13.5677,59.3477],[14.036,59.3056],[14.0667,59.2911],[14.0791,59.2436],[14.0356,59.0996]]]}}]}