{"type":"FeatureCollection","features":[{"type":"Feature","properties":{"code":"SK100","name":"Bratislava"},"geometry":{"type":"Polygon","coordinates":[[[17.1219,48.2446],[17.1943,48.2251],[17.227,48.2087],[17.2374,48.1607],[17.2653,48.1175],[17.2383,48.1044],[17.1986,48.0644],[17.2103,48.0378],[17.2429,48.0136],[17.1477,48.012],[17.0459,48.1031],[17.0339,48.1357],[16.9511,48.2448],[16.9761,48.259],[17.1219,48.2446]]]}},{"type":"Feature","properties":{"code":"SK106","name":"Malacky"},"geometry":{"type":"Polygon","coordinates":[[[17.3438,48.5084],[17.3187,48.4493],[17.2827,48.4317],[17.2061,48.3702],[17.1368,48.2725],[17.1219,48.2446],[16.9761,48.259],[16.9511,48.2448],[16.8531,48.3412],[16.8471,48.3989],[16.8549,48.4531],[16.9259,48.5046],[16.9436,48.5283],[16.9719,48.5399],[17.0858,48.5574],[17.1178,48.5495],[17.1524,48.5566],[17.2613,48.5974],[17.3136,48.6405],[17.3385,48.6482],[17.3645,48.6343],[17.3634,48.5973],[17.3082,48.5621],[17.2885,48.5422],[17.3438,48.5084]]]}},{"type":"Feature","properties":{"code":"SK107","name":"Pezinok"},"geometry":{"type":"Polygon","coordinates":[[[17.4713,48.3028],[17.4377,48.2964],[17.227,48.2087],[17.1943,48.2251],[17.1219,48.2446],[17.1368,48.2725],[17.2061,48.3702],[17.2827,48.4317],[17.3187,48.4493],[17.4422,48.3749],[17.472,48.3451],[17.4713,48.3028]]]}},{"type":"Feature","properties":{"code":"SK108","name":"Senec"},"geometry":{"type":"Polygon","coordinates":[[[17.5083,48.2688],[17.4787,48.2402],[17.5049,48.1767],[17.4806,48.1424],[17.445,48.1515],[17.4056,48.154],[17.273,48.0352],[17.2429,48.0136],[17.2103,48.0378],[17.1986,48.0644],[17.2383,48.1044],[17.2653,48.1175],[17.2374,48.1607],[17.227,48.2087],[17.4377,48.2964],[17.4713,48.3028],[17.5083,48.2688]]]}},{"type":"Feature","properties":{"code":"SK120","name":"Košice"},"geometry":{"type":"Polygon","coordinates":[[[21.1643,48.818],[21.217,48.7845],[21.256,48.7819],[21.2889,48.7907],[21.3098,48.7643],[21.3383,48.6951],[21.339,48.6605],[21.2994,48.6506],[21.2602,48.649],[21.2321,48.639],[21.2357,48.5832],[21.2054,48.5792],[21.1795,48.5903],[21.1667,48.6194],[21.1335,48.6195],[21.1226,48.6547],[21.1798,48.6608],[21.1924,48.6932],[21.1303,48.7608],[21.142,48.8012],[21.1643,48.818]]]}},{"type":"Feature","properties":{"code":"SK121","name":"Gelnica"},"geometry":{"type":"Polygon","coordinates":[[[21.0549,48.9001],[21.0594,48.8572],[21.0567,48.8151],[21.0108,48.7755],[20.9774,48.7715],[20.8789,48.7774],[20.8532,48.7718],[20.7503,48.6799],[20.7184,48.6758],[20.6841,48.6912],[20.5408,48.7912],[20.552,48.8261],[20.5934,48.873],[20.6215,48.8916],[20.6665,48.8864],[20.6945,48.86],[20.7279,48.8437],[20.7594,48.8346],[20.8531,48.8544],[20.8821,48.8652],[20.9048,48.8889],[20.9136,48.9195],[20.8857,48.9722],[20.9613,48.9616],[20.9931,48.9387],[21.0197,48.9106],[21.0549,48.9001]]]}},{"type":"Feature","properties":{"code":"SK122","name":"Košice - okolie"},"geometry":{"type":"Polygon","coordinates":[[[21.4723,48.8833],[21.4962,48.8637],[21.5398,48.7979],[21.5175,48.5689],[21.5103,48.5392],[21.4495,48.5788],[21.4192,48.5793],[21.3347,48.5572],[21.3183,48.5368],[21.2273,48.5358],[21.088,48.5019],[20.884,48.5539],[20.8233,48.5769],[20.7863,48.578],[20.7992,48.62],[20.7812,48.6638],[20.7503,48.6799],[20.8532,48.7718],[20.8789,48.7774],[20.9774,48.7715],[21.0108,48.7755],[21.0567,48.8151],[21.0594,48.8572],[21.0549,48.9001],[21.2167,48.8799],[21.2346,48.8598],[21.2448,48.8347],[21.2703,48.8241],[21.3009,48.8182],[21.3642,48.8437],[21.3859,48.8606],[21.3954,48.8845],[21.4723,48.8833]],[[21.1643,48.818],[21.142,48.8012],[21.1303,48.7608],[21.1924,48.6932],[21.1798,48.6608],[21.1226,48.6547],[21.1335,48.6195],[21.1667,48.6194],[21.1795,48.5903],[21.2054,48.5792],[21.2357,48.5832],[21.2321,48.639],[21.2602,48.649],[21.2994,48.6506],[21.339,48.6605],[21.3383,48.6951],[21.3098,48.7643],[21.2889,48.7907],[21.256,48.7819],[21.217,48.7845],[21.1643,48.818]]]}},{"type":"Feature","properties":{"code":"SK123","name":"Michalovce"},"geometry":{"type":"Polygon","coordinates":[[[22.1672,48.5778],[22.1475,48.4806],[22.1323,48.4542],[22.0425,48.511],[22.0128,48.5111],[21.8865,48.488],[21.848,48.4896],[21.7344,48.7109],[21.7262,48.7382],[21.7378,48.7624],[21.7738,48.7809],[21.7995,48.804],[21.8016,48.8893],[21.8497,48.8915],[21.8966,48.8844],[21.987,48.8426],[22.0889,48.8428],[22.1266,48.8546],[22.1333,48.8903],[22.1569,48.905],[22.1634,48.8738],[22.1593,48.844],[22.1374,48.8127],[22.1,48.7999],[22.0764,48.7712],[22.0677,48.7331],[22.1397,48.6005],[22.1672,48.5778]]]}},{"type":"Feature","properties":{"code":"SK124","name":"Rožòava"},"geometry":{"type":"Polygon","coordinates":[[[20.5408,48.7912],[20.6841,48.6912],[20.7184,48.6758],[20.7503,48.6799],[20.7812,48.6638],[20.7992,48.62],[20.7863,48.578],[20.7004,48.5672],[20.561,48.5353],[20.4631,48.4634],[20.3883,48.4585],[20.337,48.4772],[20.3179,48.5009],[20.3136,48.5335],[20.348,48.5914],[20.3084,48.6083],[20.2948,48.6606],[20.2023,48.714],[20.1936,48.7551],[20.1988,48.7945],[20.2639,48.8735],[20.3346,48.9204],[20.3684,48.9138],[20.3882,48.845],[20.5408,48.7912]]]}},{"type":"Feature","properties":{"code":"SK125","name":"Sobrance"},"geometry":{"type":"Polygon","coordinates":[[[22.401,48.8584],[22.3847,48.8191],[22.3655,48.7903],[22.3514,48.753],[22.3536,48.7197],[22.3343,48.684],[22.2725,48.6549],[22.1976,48.6117],[22.1672,48.5778],[22.1397,48.6005],[22.0677,48.7331],[22.0764,48.7712],[22.1,48.7999],[22.1374,48.8127],[22.1593,48.844],[22.1634,48.8738],[22.1569,48.905],[22.1831,48.9241],[22.2234,48.9278],[22.2417,48.9036],[22.2556,48.8731],[22.2889,48.8662],[22.3685,48.8682],[22.401,48.8584]]]}},{"type":"Feature","properties":{"code":"SK126","name":"Spišská Nová Ves"},"geometry":{"type":"Polygon","coordinates":[[[20.8857,48.9722],[20.9136,48.9195],[20.9048,48.8889],[20.8821,48.8652],[20.8531,48.8544],[20.7594,48.8346],[20.7279,48.8437],[20.6945,48.86],[20.6665,48.8864],[20.6215,48.8916],[20.5934,48.873],[20.552,48.8261],[20.5408,48.7912],[20.3882,48.845],[20.3684,48.9138],[20.3346,48.9204],[20.3138,48.9423],[20.3459,48.9615],[20.4169,48.9886],[20.4556,48.9978],[20.5511,48.9874],[20.6504,48.9558],[20.7891,48.9941],[20.857,48.9711],[20.8857,48.9722]]]}},{"type":"Feature","properties":{"code":"SK127","name":"Trebišov"},"geometry":{"type":"Polygon","coordinates":[[[21.7378,48.7624],[21.7262,48.7382],[21.7344,48.7109],[21.848,48.4896],[21.8865,48.488],[22.0128,48.5111],[22.0425,48.511],[22.1323,48.4542],[22.1498,48.4227],[22.1559,48.3977],[22.129,48.375],[22.0972,48.3789],[22.0033,48.3771],[21.8273,48.3355],[21.7307,48.3595],[21.7018,48.3708],[21.6454,48.4344],[21.6302,48.4602],[21.619,48.4918],[21.5578,48.5081],[21.5103,48.5392],[21.5175,48.5689],[21.5398,48.7979],[21.7378,48.7624]]]}},{"type":"Feature","properties":{"code":"SK201","name":"Dunajská Streda"},"geometry":{"type":"Polygon","coordinates":[[[17.445,48.1515],[17.6339,48.0944],[17.7736,48.0247],[17.872,47.9621],[17.8642,47.9196],[17.7352,47.7842],[17.7059,47.7631],[17.4049,47.9471],[17.2429,48.0136],[17.273,48.0352],[17.4056,48.154],[17.445,48.1515]]]}},{"type":"Feature","properties":{"code":"SK202","name":"Galanta"},"geometry":{"type":"Polygon","coordinates":[[[17.8443,48.3336],[17.8433,48.2961],[17.8639,48.2716],[17.8553,48.2387],[17.8707,48.2097],[17.811,48.1628],[17.7896,48.1352],[17.8153,48.1095],[17.8168,48.0672],[17.8766,48.0381],[17.882,47.9979],[17.872,47.9621],[17.7736,48.0247],[17.6708,48.0778],[17.6339,48.0944],[17.4806,48.1424],[17.5049,48.1767],[17.4787,48.2402],[17.5083,48.2688],[17.5681,48.2425],[17.7503,48.3399],[17.7952,48.343],[17.8443,48.3336]]]}},{"type":"Feature","properties":{"code":"SK203","name":"Hlohovec"},"geometry":{"type":"Polygon","coordinates":[[[17.9591,48.4527],[17.8443,48.3336],[17.7952,48.343],[17.7503,48.3399],[17.7147,48.3568],[17.7257,48.4215],[17.6928,48.4389],[17.6858,48.4819],[17.7399,48.4731],[17.8242,48.5105],[17.8585,48.5329],[17.8854,48.5056],[17.9417,48.4721],[17.9591,48.4527]]]}},{"type":"Feature","properties":{"code":"SK204","name":"Piešany"},"geometry":{"type":"Polygon","coordinates":[[[17.9814,48.606],[17.9597,48.5902],[17.8822,48.5657],[17.8585,48.5329],[17.8242,48.5105],[17.7399,48.4731],[17.6858,48.4819],[17.5616,48.5781],[17.5829,48.637],[17.7081,48.6755],[17.7734,48.645],[17.9549,48.6159],[17.9814,48.606]]]}},{"type":"Feature","properties":{"code":"SK205","name":"Senica"},"geometry":{"type":"Polygon","coordinates":[[[17.5203,48.6293],[17.5038,48.6041],[17.4773,48.5767],[17.3862,48.5555],[17.3685,48.5274],[17.3438,48.5084],[17.2885,48.5422],[17.3082,48.5621],[17.3634,48.5973],[17.3645,48.6343],[17.3385,48.6482],[17.3136,48.6405],[17.2613,48.5974],[17.1524,48.5566],[17.1178,48.5495],[17.0858,48.5574],[16.9719,48.5399],[16.9436,48.5283],[16.9429,48.6241],[16.9854,48.6761],[17.0172,48.6773],[17.1369,48.7012],[17.265,48.7124],[17.3367,48.7648],[17.3651,48.778],[17.4642,48.7584],[17.484,48.7321],[17.4954,48.662],[17.5203,48.6293]]]}},{"type":"Feature","properties":{"code":"SK206","name":"Skalica"},"geometry":{"type":"Polygon","coordinates":[[[17.3822,48.8104],[17.3651,48.778],[17.3367,48.7648],[17.265,48.7124],[17.1369,48.7012],[17.0172,48.6773],[16.9854,48.6761],[17.0317,48.7468],[17.0573,48.7741],[17.1834,48.8676],[17.2141,48.8668],[17.3822,48.8104]]]}},{"type":"Feature","properties":{"code":"SK207","name":"Trnava"},"geometry":{"type":"Polygon","coordinates":[[[17.6858,48.4819],[17.6928,48.4389],[17.7257,48.4215],[17.7147,48.3568],[17.7503,48.3399],[17.5681,48.2425],[17.5083,48.2688],[17.4713,48.3028],[17.472,48.3451],[17.4422,48.3749],[17.3187,48.4493],[17.3438,48.5084],[17.3685,48.5274],[17.3862,48.5555],[17.4773,48.5767],[17.5038,48.6041],[17.5203,48.6293],[17.5829,48.637],[17.5616,48.5781],[17.6858,48.4819]]]}},{"type":"Feature","properties":{"code":"SK301","name":"Bánovce nad Bebravou"},"geometry":{"type":"Polygon","coordinates":[[[18.3743,48.6981],[18.3482,48.6671],[18.3248,48.6479],[18.2959,48.6611],[18.2575,48.6527],[18.2195,48.6298],[18.0416,48.699],[18.0088,48.701],[18.0096,48.7485],[18.0664,48.7545],[18.0999,48.743],[18.1623,48.7716],[18.213,48.7778],[18.2354,48.8733],[18.324,48.8962],[18.3987,48.8572],[18.4153,48.8289],[18.4266,48.7771],[18.4232,48.7488],[18.3925,48.7339],[18.3743,48.6981]]]}},{"type":"Feature","properties":{"code":"SK302","name":"Ilava"},"geometry":{"type":"Polygon","coordinates":[[[18.4295,48.979],[18.5149,48.9432],[18.4562,48.9014],[18.4241,48.9118],[18.3904,48.9329],[18.2418,48.9168],[18.2046,48.9215],[18.1546,48.9325],[18.1265,48.9445],[18.1022,48.9964],[18.0889,49.0426],[18.1135,49.082],[18.1313,49.1482],[18.1542,49.1213],[18.39,48.9767],[18.4295,48.979]]]}},{"type":"Feature","properties":{"code":"SK303","name":"Myjava"},"geometry":{"type":"Polygon","coordinates":[[[17.7081,48.6755],[17.5829,48.637],[17.5203,48.6293],[17.4954,48.662],[17.484,48.7321],[17.4642,48.7584],[17.3651,48.778],[17.3822,48.8104],[17.6283,48.8364],[17.6245,48.8042],[17.64,48.7678],[17.7075,48.7468],[17.7081,48.6755]]]}},{"type":"Feature","properties":{"code":"SK304","name":"Nové Mesto nad Váhom"},"geometry":{"type":"Polygon","coordinates":[[[18.0096,48.7485],[18.0113,48.6609],[18.0058,48.6252],[17.9814,48.606],[17.9549,48.6159],[17.7734,48.645],[17.7081,48.6755],[17.7075,48.7468],[17.64,48.7678],[17.6245,48.8042],[17.6283,48.8364],[17.8098,48.902],[17.8415,48.9042],[17.8751,48.8432],[17.8992,48.8114],[17.9837,48.7597],[18.0096,48.7485]]]}},{"type":"Feature","properties":{"code":"SK305","name":"Partizánske"},"geometry":{"type":"Polygon","coordinates":[[[18.495,48.5728],[18.4743,48.5471],[18.3895,48.5059],[18.3616,48.4962],[18.2978,48.4949],[18.2949,48.5247],[18.2761,48.5459],[18.2499,48.559],[18.2289,48.5847],[18.2483,48.61],[18.2195,48.6298],[18.2575,48.6527],[18.2959,48.6611],[18.3248,48.6479],[18.3482,48.6671],[18.3743,48.6981],[18.4466,48.6792],[18.474,48.5976],[18.495,48.5728]]]}},{"type":"Feature","properties":{"code":"SK306","name":"Považská Bystrica"},"geometry":{"type":"Polygon","coordinates":[[[18.3802,49.317],[18.3944,49.2908],[18.4584,49.2028],[18.4904,49.1764],[18.5848,49.1219],[18.6032,49.0633],[18.5747,49.0062],[18.5509,48.9902],[18.4984,48.9693],[18.4645,48.9613],[18.4295,48.979],[18.4198,49.0052],[18.4028,49.0297],[18.3676,49.1426],[18.3485,49.1824],[18.2511,49.2906],[18.3523,49.3218],[18.3802,49.317]]]}},{"type":"Feature","properties":{"code":"SK307","name":"Prievidza"},"geometry":{"type":"Polygon","coordinates":[[[18.7264,48.9395],[18.7068,48.882],[18.7081,48.8444],[18.781,48.8029],[18.8249,48.747],[18.8065,48.7258],[18.7227,48.6542],[18.6608,48.6337],[18.5602,48.5716],[18.495,48.5728],[18.474,48.5976],[18.4466,48.6792],[18.3743,48.6981],[18.3925,48.7339],[18.4232,48.7488],[18.4266,48.7771],[18.4153,48.8289],[18.3987,48.8572],[18.324,48.8962],[18.3326,48.9244],[18.3614,48.9325],[18.3904,48.9329],[18.4241,48.9118],[18.4562,48.9014],[18.5149,48.9432],[18.6029,48.9673],[18.6344,48.9686],[18.6651,48.95],[18.7264,48.9395]]]}},{"type":"Feature","properties":{"code":"SK308","name":"Púchov"},"geometry":{"type":"Polygon","coordinates":[[[18.4295,48.979],[18.39,48.9767],[18.1542,49.1213],[18.1313,49.1482],[18.1545,49.2319],[18.2242,49.2817],[18.2511,49.2906],[18.3485,49.1824],[18.3676,49.1426],[18.4028,49.0297],[18.4198,49.0052],[18.4295,48.979]]]}},{"type":"Feature","properties":{"code":"SK309","name":"Trenèín"},"geometry":{"type":"Polygon","coordinates":[[[18.3326,48.9244],[18.324,48.8962],[18.2354,48.8733],[18.213,48.7778],[18.1623,48.7716],[18.0999,48.743],[18.0664,48.7545],[18.0096,48.7485],[17.9287,48.7921],[17.8992,48.8114],[17.8751,48.8432],[17.8415,48.9042],[17.8696,48.9264],[18.0889,49.0426],[18.1022,48.9964],[18.1265,48.9445],[18.1546,48.9325],[18.2418,48.9168],[18.3326,48.9244]]]}},{"type":"Feature","properties":{"code":"SK401","name":"Komárno"},"geometry":{"type":"Polygon","coordinates":[[[17.9148,47.9772],[17.9989,47.9607],[18.2573,47.9421],[18.285,47.9319],[18.4865,47.826],[18.5059,47.7893],[18.5006,47.762],[18.4576,47.7612],[18.2912,47.7319],[18.1639,47.7432],[18.0949,47.7571],[17.8921,47.7412],[17.7464,47.7544],[17.7059,47.7631],[17.7352,47.7842],[17.8642,47.9196],[17.882,47.9979],[17.9148,47.9772]]]}},{"type":"Feature","properties":{"code":"SK402","name":"Levice"},"geometry":{"type":"Polygon","coordinates":[[[18.8582,48.3073],[18.8199,48.2642],[18.8257,48.2029],[18.8175,48.1733],[18.8799,48.1629],[18.9157,48.1629],[19.0548,48.2087],[19.0625,48.1423],[19.0453,48.1182],[19.0202,48.098],[19.0236,48.0675],[18.8936,48.055],[18.7896,47.9912],[18.7678,47.9483],[18.7259,47.9485],[18.5459,47.9324],[18.4667,47.9548],[18.4538,47.983],[18.4497,48.0203],[18.4477,48.0629],[18.457,48.0941],[18.4404,48.122],[18.3557,48.1755],[18.3713,48.2033],[18.4178,48.2606],[18.4715,48.3119],[18.4987,48.3319],[18.5317,48.332],[18.5597,48.3406],[18.5975,48.3371],[18.6587,48.3507],[18.6891,48.3659],[18.7411,48.4103],[18.7641,48.3977],[18.8341,48.3254],[18.8582,48.3073]]]}},{"type":"Feature","properties":{"code":"SK403","name":"Nitra"},"geometry":{"type":"Polygon","coordinates":[[[18.2007,48.4338],[18.2337,48.4018],[18.2591,48.3689],[18.2558,48.3333],[18.352,48.276],[18.4178,48.2606],[18.3713,48.2033],[18.3557,48.1755],[18.1827,48.1931],[18.1518,48.192],[18.0616,48.1513],[18.0343,48.1442],[17.9976,48.1566],[17.984,48.2413],[17.9498,48.264],[17.9073,48.2798],[17.8639,48.2716],[17.8433,48.2961],[17.8443,48.3336],[17.9591,48.4527],[17.9998,48.4621],[18.0323,48.4582],[18.0683,48.4397],[18.1094,48.4285],[18.1426,48.4445],[18.2007,48.4338]]]}},{"type":"Feature","properties":{"code":"SK404","name":"Nové Zámky"},"geometry":{"type":"Polygon","coordinates":[[[18.3557,48.1755],[18.4404,48.122],[18.457,48.0941],[18.4477,48.0629],[18.4497,48.0203],[18.4538,47.983],[18.4667,47.9548],[18.5459,47.9324],[18.7259,47.9485],[18.7678,47.9483],[18.7784,47.8765],[18.8475,47.8328],[18.8205,47.8185],[18.7382,47.8118],[18.7223,47.7905],[18.6934,47.7769],[18.6153,47.7575],[18.5006,47.762],[18.5059,47.7893],[18.4865,47.826],[18.285,47.9319],[18.2573,47.9421],[17.9989,47.9607],[17.9608,47.9693],[17.9816,48.0098],[17.9984,48.0852],[17.9939,48.1179],[17.9667,48.1332],[17.9976,48.1566],[18.0343,48.1442],[18.0616,48.1513],[18.1518,48.192],[18.1827,48.1931],[18.3557,48.1755]]]}},{"type":"Feature","properties":{"code":"SK405","name":"Šaľa"},"geometry":{"type":"Polygon","coordinates":[[[17.9976,48.1566],[17.9667,48.1332],[17.9939,48.1179],[17.9984,48.0852],[17.9816,48.0098],[17.9608,47.9693],[17.9148,47.9772],[17.882,47.9979],[17.8766,48.0381],[17.8168,48.0672],[17.8153,48.1095],[17.7896,48.1352],[17.811,48.1628],[17.8707,48.2097],[17.8553,48.2387],[17.8639,48.2716],[17.9073,48.2798],[17.9498,48.264],[17.984,48.2413],[17.9976,48.1566]]]}},{"type":"Feature","properties":{"code":"SK406","name":"Topoľčany"},"geometry":{"type":"Polygon","coordinates":[[[18.2195,48.6298],[18.2483,48.61],[18.2289,48.5847],[18.2499,48.559],[18.2761,48.5459],[18.2949,48.5247],[18.2978,48.4949],[18.2534,48.4792],[18.223,48.4585],[18.2007,48.4338],[18.1426,48.4445],[18.1094,48.4285],[18.0683,48.4397],[18.0323,48.4582],[17.9998,48.4621],[17.9591,48.4527],[17.9417,48.4721],[17.8854,48.5056],[17.8585,48.5329],[17.8822,48.5657],[17.9597,48.5902],[18.0058,48.6252],[18.0113,48.6609],[18.0088,48.701],[18.0416,48.699],[18.2195,48.6298]]]}},{"type":"Feature","properties":{"code":"SK407","name":"Zlaté Moravce"},"geometry":{"type":"Polygon","coordinates":[[[18.5597,48.3406],[18.5317,48.332],[18.4987,48.3319],[18.4178,48.2606],[18.352,48.276],[18.2558,48.3333],[18.2591,48.3689],[18.2337,48.4018],[18.2007,48.4338],[18.223,48.4585],[18.2534,48.4792],[18.2978,48.4949],[18.3616,48.4962],[18.4743,48.5471],[18.532,48.5062],[18.5396,48.4173],[18.5615,48.4003],[18.5597,48.3406]]]}},{"type":"Feature","properties":{"code":"SK501","name":"Bytèa"},"geometry":{"type":"Polygon","coordinates":[[[18.5994,49.3487],[18.6311,49.2474],[18.6254,49.2163],[18.6045,49.1533],[18.5848,49.1219],[18.4904,49.1764],[18.4584,49.2028],[18.3944,49.2908],[18.3802,49.317],[18.4088,49.3287],[18.5623,49.3563],[18.5994,49.3487]]]}},{"type":"Feature","properties":{"code":"SK502","name":"Èadca"},"geometry":{"type":"Polygon","coordinates":[[[18.8524,49.5272],[18.9605,49.5073],[18.9806,49.4023],[19.115,49.4068],[19.1494,49.3475],[19.1563,49.3186],[19.1176,49.2957],[19.0937,49.3058],[18.9272,49.3002],[18.7582,49.3842],[18.7297,49.3794],[18.6999,49.3658],[18.6722,49.3444],[18.6252,49.3569],[18.5994,49.3487],[18.5623,49.3563],[18.4088,49.3287],[18.3802,49.317],[18.3523,49.3218],[18.4249,49.3855],[18.4541,49.3924],[18.4815,49.4059],[18.555,49.4878],[18.5854,49.5071],[18.7301,49.4932],[18.7767,49.4929],[18.8188,49.5059],[18.8524,49.5272]]]}},{"type":"Feature","properties":{"code":"SK503","name":"Dolný Kubín"},"geometry":{"type":"Polygon","coordinates":[[[19.4246,49.3161],[19.4578,49.3023],[19.5401,49.2454],[19.4745,49.1778],[19.4393,49.1627],[19.3981,49.1761],[19.3669,49.1697],[19.3489,49.1514],[19.3163,49.1508],[19.2002,49.1629],[19.1681,49.1575],[19.1345,49.1446],[19.0985,49.1453],[19.0647,49.2062],[19.101,49.2163],[19.1176,49.2957],[19.1563,49.3186],[19.3927,49.3026],[19.4246,49.3161]]]}},{"type":"Feature","properties":{"code":"SK504","name":"Kysucké Nové Mesto"},"geometry":{"type":"Polygon","coordinates":[[[18.9272,49.3002],[18.9287,49.2641],[18.9034,49.2531],[18.8643,49.2525],[18.7395,49.2675],[18.7121,49.2928],[18.6722,49.3444],[18.6999,49.3658],[18.7297,49.3794],[18.7582,49.3842],[18.9272,49.3002]]]}},{"type":"Feature","properties":{"code":"SK505","name":"Liptovský Mikuláš"},"geometry":{"type":"Polygon","coordinates":[[[19.7829,49.2072],[19.8844,49.1985],[19.8929,49.1691],[19.9128,49.145],[19.9445,49.1278],[20.0319,49.1072],[20.0307,49.0733],[20.0196,49.0304],[19.9812,49.0105],[19.9977,48.9827],[20.0309,48.9561],[20.0498,48.9285],[20.025,48.9024],[19.9023,48.909],[19.7444,48.9074],[19.5864,48.9378],[19.42,48.9286],[19.3753,48.9209],[19.3762,48.9515],[19.3685,48.977],[19.3725,49.0067],[19.4537,49.1256],[19.4393,49.1627],[19.4745,49.1778],[19.5401,49.2454],[19.7181,49.1987],[19.7829,49.2072]]]}},{"type":"Feature","properties":{"code":"SK506","name":"Martin"},"geometry":{"type":"Polygon","coordinates":[[[19.1345,49.1446],[19.1353,49.1082],[19.0855,48.9022],[19.0724,48.8766],[19.0378,48.8742],[18.786,48.9613],[18.7566,48.9538],[18.7264,48.9395],[18.6651,48.95],[18.6344,48.9686],[18.6692,48.9897],[18.7028,48.9998],[18.7395,49.0204],[18.8308,49.1245],[18.857,49.1482],[19.0647,49.2062],[19.0985,49.1453],[19.1345,49.1446]]]}},{"type":"Feature","properties":{"code":"SK507","name":"Námestovo"},"geometry":{"type":"Polygon","coordinates":[[[19.4752,49.6017],[19.5879,49.4719],[19.6032,49.4379],[19.4246,49.3161],[19.3927,49.3026],[19.1563,49.3186],[19.1494,49.3475],[19.115,49.4068],[19.1763,49.4132],[19.2021,49.4215],[19.2561,49.5169],[19.2883,49.5303],[19.3409,49.536],[19.3801,49.5512],[19.4273,49.5962],[19.4752,49.6017]]]}},{"type":"Feature","properties":{"code":"SK508","name":"Ružomberok"},"geometry":{"type":"Polygon","coordinates":[[[19.4393,49.1627],[19.4537,49.1256],[19.3725,49.0067],[19.3685,48.977],[19.3762,48.9515],[19.3753,48.9209],[19.3507,48.901],[19.2675,48.8627],[19.2522,48.8857],[19.2252,48.8925],[19.0724,48.8766],[19.0855,48.9022],[19.1353,49.1082],[19.1345,49.1446],[19.1681,49.1575],[19.2002,49.1629],[19.3163,49.1508],[19.3489,49.1514],[19.3669,49.1697],[19.3981,49.1761],[19.4393,49.1627]]]}},{"type":"Feature","properties":{"code":"SK509","name":"Turèianske Teplice"},"geometry":{"type":"Polygon","coordinates":[[[19.0378,48.8742],[19.0166,48.8468],[18.989,48.7441],[18.8249,48.747],[18.781,48.8029],[18.7081,48.8444],[18.7068,48.882],[18.7264,48.9395],[18.7566,48.9538],[18.786,48.9613],[19.0378,48.8742]]]}},{"type":"Feature","properties":{"code":"SK510","name":"Tvrdošín"},"geometry":{"type":"Polygon","coordinates":[[[19.8125,49.3426],[19.8168,49.2678],[19.7929,49.2372],[19.7829,49.2072],[19.7181,49.1987],[19.5401,49.2454],[19.4578,49.3023],[19.4246,49.3161],[19.6032,49.4379],[19.6337,49.4178],[19.666,49.4132],[19.7818,49.4106],[19.7969,49.3877],[19.8125,49.3426]]]}},{"type":"Feature","properties":{"code":"SK511","name":"Žilina"},"geometry":{"type":"Polygon","coordinates":[[[18.6722,49.3444],[18.7121,49.2928],[18.7395,49.2675],[18.7824,49.2607],[18.8643,49.2525],[18.9034,49.2531],[18.9287,49.2641],[18.9272,49.3002],[19.0937,49.3058],[19.1176,49.2957],[19.101,49.2163],[18.857,49.1482],[18.8308,49.1245],[18.7395,49.0204],[18.7028,48.9998],[18.6692,48.9897],[18.6344,48.9686],[18.6029,48.9673],[18.5149,48.9432],[18.4645,48.9613],[18.4984,48.9693],[18.5509,48.9902],[18.5747,49.0062],[18.6032,49.0633],[18.5848,49.1219],[18.6045,49.1533],[18.6254,49.2163],[18.6311,49.2474],[18.5994,49.3487],[18.6252,49.3569],[18.6722,49.3444]]]}},{"type":"Feature","properties":{"code":"SK601","name":"Banská Bystrica"},"geometry":{"type":"Polygon","coordinates":[[[19.4714,48.6636],[19.3884,48.6587],[19.3148,48.6384],[19.254,48.6308],[19.2188,48.6359],[19.2063,48.6596],[19.1841,48.6454],[19.1484,48.6427],[19.0931,48.6511],[19.0612,48.6716],[19.027,48.6852],[19.0045,48.708],[18.989,48.7441],[19.0166,48.8468],[19.0378,48.8742],[19.2252,48.8925],[19.2522,48.8857],[19.2675,48.8627],[19.3507,48.901],[19.3934,48.8576],[19.3866,48.8234],[19.4073,48.8005],[19.4676,48.7545],[19.4937,48.721],[19.4693,48.69],[19.4714,48.6636]]]}},{"type":"Feature","properties":{"code":"SK602","name":"Banská Štiavnica"},"geometry":{"type":"Polygon","coordinates":[[[18.9817,48.557],[19.0093,48.5387],[19.0192,48.4312],[18.9928,48.422],[18.9675,48.4063],[18.9449,48.3365],[18.8582,48.3073],[18.8341,48.3254],[18.7641,48.3977],[18.7411,48.4103],[18.776,48.4344],[18.8058,48.4287],[18.843,48.4347],[18.8673,48.4576],[18.8294,48.4805],[18.856,48.5083],[18.9204,48.5499],[18.9517,48.5638],[18.9817,48.557]]]}},{"type":"Feature","properties":{"code":"SK603","name":"Brezno"},"geometry":{"type":"Polygon","coordinates":[[[20.025,48.9024],[20.2639,48.8735],[20.1988,48.7945],[20.1685,48.7916],[20.0331,48.7956],[19.9626,48.7894],[19.9197,48.7739],[19.8832,48.7678],[19.7639,48.684],[19.7352,48.6488],[19.7018,48.6301],[19.6681,48.621],[19.5771,48.6539],[19.5022,48.6545],[19.4714,48.6636],[19.4693,48.69],[19.4937,48.721],[19.4676,48.7545],[19.4073,48.8005],[19.3866,48.8234],[19.3934,48.8576],[19.3507,48.901],[19.3753,48.9209],[19.42,48.9286],[19.5524,48.9381],[19.5864,48.9378],[19.7444,48.9074],[19.9023,48.909],[20.025,48.9024]]]}},{"type":"Feature","properties":{"code":"SK604","name":"Detva"},"geometry":{"type":"Polygon","coordinates":[[[19.6681,48.621],[19.6882,48.6038],[19.7048,48.5792],[19.6222,48.5498],[19.5878,48.5309],[19.5509,48.5379],[19.512,48.5267],[19.3965,48.4803],[19.391,48.4372],[19.3941,48.3902],[19.352,48.3938],[19.3386,48.4209],[19.2701,48.4695],[19.2756,48.5139],[19.2909,48.5433],[19.318,48.5579],[19.3759,48.6131],[19.4346,48.6135],[19.5022,48.6545],[19.5401,48.6563],[19.5771,48.6539],[19.6681,48.621]]]}},{"type":"Feature","properties":{"code":"SK605","name":"Krupina"},"geometry":{"type":"Polygon","coordinates":[[[19.2301,48.3453],[19.2057,48.3117],[19.2115,48.2488],[19.1753,48.2263],[19.0839,48.2262],[19.0267,48.1978],[18.9157,48.1629],[18.8799,48.1629],[18.8175,48.1733],[18.8257,48.2029],[18.8199,48.2642],[18.8582,48.3073],[18.9449,48.3365],[18.9675,48.4063],[18.9928,48.422],[19.0192,48.4312],[19.2056,48.3684],[19.2301,48.3453]]]}},{"type":"Feature","properties":{"code":"SK606","name":"Luèenec"},"geometry":{"type":"Polygon","coordinates":[[[19.5878,48.5309],[19.6123,48.4684],[19.6812,48.3654],[19.7142,48.3671],[19.8327,48.3982],[19.9098,48.2668],[19.9259,48.2282],[19.8913,48.1586],[19.6712,48.2354],[19.6273,48.2447],[19.5497,48.2165],[19.5581,48.258],[19.4969,48.2886],[19.4197,48.3716],[19.3941,48.3902],[19.391,48.4372],[19.3965,48.4803],[19.512,48.5267],[19.5509,48.5379],[19.5878,48.5309]]]}},{"type":"Feature","properties":{"code":"SK607","name":"Poltár"},"geometry":{"type":"Polygon","coordinates":[[[19.8327,48.3982],[19.7142,48.3671],[19.6812,48.3654],[19.6123,48.4684],[19.5878,48.5309],[19.6222,48.5498],[19.7048,48.5792],[19.6882,48.6038],[19.6681,48.621],[19.7018,48.6301],[19.7352,48.6488],[19.7659,48.6399],[19.8572,48.5924],[19.8761,48.5709],[19.8612,48.5495],[19.8346,48.5254],[19.8589,48.5003],[19.8884,48.479],[19.9087,48.4418],[19.9074,48.4022],[19.8327,48.3982]]]}},{"type":"Feature","properties":{"code":"SK608","name":"Revúca"},"geometry":{"type":"Polygon","coordinates":[[[20.1988,48.7945],[20.1936,48.7551],[20.2023,48.714],[20.2948,48.6606],[20.3084,48.6083],[20.348,48.5914],[20.3136,48.5335],[20.3179,48.5009],[20.337,48.4772],[20.3883,48.4585],[20.4631,48.4634],[20.4246,48.4074],[20.4001,48.4143],[20.3614,48.4142],[20.3175,48.4074],[20.2716,48.4112],[20.1536,48.4915],[20.1279,48.5211],[19.9744,48.7338],[19.9197,48.7739],[19.9626,48.7894],[20.0331,48.7956],[20.1685,48.7916],[20.1988,48.7945]]]}},{"type":"Feature","properties":{"code":"SK609","name":"Rimavská Sobota"},"geometry":{"type":"Polygon","coordinates":[[[20.4246,48.4074],[20.4132,48.3749],[20.3938,48.3482],[20.3294,48.2792],[20.3079,48.2642],[20.0478,48.1751],[19.9243,48.1487],[19.8913,48.1586],[19.9259,48.2282],[19.9098,48.2668],[19.8327,48.3982],[19.9074,48.4022],[19.9087,48.4418],[19.8884,48.479],[19.8589,48.5003],[19.8346,48.5254],[19.8612,48.5495],[19.8761,48.5709],[19.8572,48.5924],[19.7659,48.6399],[19.7352,48.6488],[19.7639,48.684],[19.8832,48.7678],[19.9197,48.7739],[19.9744,48.7338],[20.1279,48.5211],[20.1536,48.4915],[20.2716,48.4112],[20.3175,48.4074],[20.3614,48.4142],[20.4001,48.4143],[20.4246,48.4074]]]}},{"type":"Feature","properties":{"code":"SK610","name":"Veľký Krtíš"},"geometry":{"type":"Polygon","coordinates":[[[19.3941,48.3902],[19.4197,48.3716],[19.4969,48.2886],[19.5581,48.258],[19.5497,48.2165],[19.522,48.1926],[19.4754,48.1012],[19.4449,48.0911],[19.2476,48.0677],[19.0236,48.0675],[19.0202,48.098],[19.0453,48.1182],[19.0625,48.1423],[19.0548,48.2087],[19.0839,48.2262],[19.1753,48.2263],[19.2115,48.2488],[19.2057,48.3117],[19.2301,48.3453],[19.2565,48.329],[19.2765,48.3031],[19.3074,48.287],[19.3353,48.2828],[19.3453,48.3087],[19.352,48.3938],[19.3941,48.3902]]]}},{"type":"Feature","properties":{"code":"SK611","name":"Zvolen"},"geometry":{"type":"Polygon","coordinates":[[[19.4714,48.6636],[19.5022,48.6545],[19.4346,48.6135],[19.3759,48.6131],[19.318,48.5579],[19.2909,48.5433],[19.2756,48.5139],[19.2701,48.4695],[19.3386,48.4209],[19.352,48.3938],[19.3453,48.3087],[19.3353,48.2828],[19.3074,48.287],[19.2765,48.3031],[19.2565,48.329],[19.2301,48.3453],[19.2056,48.3684],[19.0192,48.4312],[19.0093,48.5387],[18.9817,48.557],[18.994,48.5852],[19.0023,48.6655],[19.027,48.6852],[19.0612,48.6716],[19.0931,48.6511],[19.12,48.6447],[19.1841,48.6454],[19.2063,48.6596],[19.2188,48.6359],[19.254,48.6308],[19.3148,48.6384],[19.3884,48.6587],[19.4714,48.6636]]]}},{"type":"Feature","properties":{"code":"SK612","name":"Žarnovica"},"geometry":{"type":"Polygon","coordinates":[[[18.8294,48.4805],[18.8673,48.4576],[18.843,48.4347],[18.8058,48.4287],[18.776,48.4344],[18.6891,48.3659],[18.6587,48.3507],[18.5975,48.3371],[18.5597,48.3406],[18.5615,48.4003],[18.5396,48.4173],[18.532,48.5062],[18.4743,48.5471],[18.495,48.5728],[18.5602,48.5716],[18.6608,48.6337],[18.6693,48.6054],[18.7275,48.4986],[18.7532,48.4878],[18.8294,48.4805]]]}},{"type":"Feature","properties":{"code":"SK613","name":"Žiar nad Hronom"},"geometry":{"type":"Polygon","coordinates":[[[18.989,48.7441],[19.0045,48.708],[19.027,48.6852],[19.0023,48.6655],[18.994,48.5852],[18.9817,48.557],[18.9517,48.5638],[18.9204,48.5499],[18.856,48.5083],[18.8294,48.4805],[18.7532,48.4878],[18.7275,48.4986],[18.6693,48.6054],[18.6608,48.6337],[18.7227,48.6542],[18.8065,48.7258],[18.8249,48.747],[18.989,48.7441]]]}},{"type":"Feature","properties":{"code":"SK701","name":"Bardejov"},"geometry":{"type":"Polygon","coordinates":[[[21.3962,49.4406],[21.4242,49.4265],[21.4597,49.4184],[21.4119,49.3776],[21.3937,49.3522],[21.484,49.2482],[21.5032,49.2153],[21.4836,49.1909],[21.5087,49.152],[21.4911,49.1327],[21.4596,49.1485],[21.432,49.1436],[21.368,49.1179],[21.2043,49.1678],[21.175,49.1658],[21.1394,49.1873],[21.0176,49.2239],[20.9877,49.2268],[21.0014,49.258],[21.0036,49.2889],[20.9841,49.3118],[21.0414,49.3607],[21.0479,49.3904],[21.048,49.4224],[21.0781,49.4233],[21.2689,49.4564],[21.3962,49.4406]]]}},{"type":"Feature","properties":{"code":"SK702","name":"Humenné"},"geometry":{"type":"Polygon","coordinates":[[[22.1501,49.1789],[22.1177,49.1302],[22.1183,49.1009],[22.1274,49.0698],[22.0578,48.9967],[22.0357,48.9592],[22.0931,48.9377],[22.1284,48.9331],[22.1592,48.9384],[22.1831,48.9241],[22.1333,48.8903],[22.1266,48.8546],[22.0889,48.8428],[21.987,48.8426],[21.8966,48.8844],[21.8497,48.8915],[21.8016,48.8893],[21.7831,48.9273],[21.7522,49.1185],[21.7435,49.1463],[21.7886,49.1826],[21.8097,49.1511],[21.8385,49.1298],[21.8809,49.1079],[21.9202,49.1054],[22.0137,49.1285],[22.0438,49.1402],[22.0748,49.156],[22.0958,49.194],[22.1228,49.1941],[22.1501,49.1789]]]}},{"type":"Feature","properties":{"code":"SK703","name":"Kežmarok"},"geometry":{"type":"Polygon","coordinates":[[[20.436,49.4012],[20.4191,49.3363],[20.4165,49.307],[20.4583,49.3109],[20.4904,49.306],[20.4994,49.2695],[20.5408,49.2352],[20.5703,49.234],[20.6652,49.2453],[20.758,49.2135],[20.8103,49.167],[20.796,49.1454],[20.773,49.116],[20.7419,49.1141],[20.4412,49.0387],[20.2846,49.1246],[20.3097,49.1492],[20.3496,49.1679],[20.3646,49.1978],[20.3584,49.2342],[20.3228,49.2777],[20.2936,49.2845],[20.2202,49.2854],[20.1947,49.3117],[20.2314,49.3393],[20.4047,49.4066],[20.436,49.4012]]]}},{"type":"Feature","properties":{"code":"SK704","name":"Levoèa"},"geometry":{"type":"Polygon","coordinates":[[[20.9015,49.0681],[20.8878,49.0067],[20.8857,48.9722],[20.857,48.9711],[20.7891,48.9941],[20.6504,48.9558],[20.5511,48.9874],[20.4556,48.9978],[20.4412,49.0387],[20.7419,49.1141],[20.773,49.116],[20.8218,49.0823],[20.9015,49.0681]]]}},{"type":"Feature","properties":{"code":"SK705","name":"Medzilaborce"},"geometry":{"type":"Polygon","coordinates":[[[21.9648,49.3398],[22.0476,49.222],[22.0958,49.194],[22.0748,49.156],[22.0438,49.1402],[22.0137,49.1285],[21.9202,49.1054],[21.8809,49.1079],[21.8385,49.1298],[21.8097,49.1511],[21.7886,49.1826],[21.7979,49.2083],[21.8615,49.2857],[21.8463,49.3148],[21.8263,49.3334],[21.8171,49.3583],[21.854,49.3571],[21.9648,49.3398]]]}},{"type":"Feature","properties":{"code":"SK706","name":"Poprad"},"geometry":{"type":"Polygon","coordinates":[[[20.4412,49.0387],[20.4556,48.9978],[20.4169,48.9886],[20.3459,48.9615],[20.3138,48.9423],[20.3346,48.9204],[20.2639,48.8735],[20.025,48.9024],[20.0498,48.9285],[20.0309,48.9561],[19.9977,48.9827],[19.9812,49.0105],[20.0196,49.0304],[20.0307,49.0733],[20.0319,49.1072],[19.9445,49.1278],[19.9128,49.145],[19.8929,49.1691],[19.8844,49.1985],[19.925,49.2191],[19.9525,49.2169],[20.0598,49.1874],[20.0921,49.1871],[20.1296,49.2799],[20.1485,49.3069],[20.1947,49.3117],[20.2202,49.2854],[20.2936,49.2845],[20.3228,49.2777],[20.3584,49.2342],[20.3646,49.1978],[20.3496,49.1679],[20.3097,49.1492],[20.2846,49.1246],[20.4412,49.0387]]]}},{"type":"Feature","properties":{"code":"SK707","name":"Prešov"},"geometry":{"type":"Polygon","coordinates":[[[21.368,49.1179],[21.4574,49.079],[21.4452,49.0552],[21.4251,49.0394],[21.4111,49.0051],[21.4231,48.9737],[21.4615,48.916],[21.4723,48.8833],[21.3954,48.8845],[21.3859,48.8606],[21.3642,48.8437],[21.3009,48.8182],[21.2703,48.8241],[21.2448,48.8347],[21.2346,48.8598],[21.2167,48.8799],[21.0549,48.9001],[21.0197,48.9106],[20.9931,48.9387],[20.9613,48.9616],[20.8857,48.9722],[20.8878,49.0067],[20.9015,49.0681],[20.9464,49.0763],[20.9971,49.0759],[21.0295,49.0586],[21.0557,49.0357],[21.093,49.0435],[21.1751,49.0795],[21.2104,49.1034],[21.175,49.1658],[21.2043,49.1678],[21.368,49.1179]]]}},{"type":"Feature","properties":{"code":"SK708","name":"Sabinov"},"geometry":{"type":"Polygon","coordinates":[[[20.9877,49.2268],[21.0176,49.2239],[21.1394,49.1873],[21.175,49.1658],[21.2104,49.1034],[21.1751,49.0795],[21.093,49.0435],[21.0557,49.0357],[21.0295,49.0586],[20.9971,49.0759],[20.9464,49.0763],[20.9015,49.0681],[20.8218,49.0823],[20.773,49.116],[20.8103,49.167],[20.758,49.2135],[20.7836,49.2284],[20.955,49.2118],[20.9877,49.2268]]]}},{"type":"Feature","properties":{"code":"SK709","name":"Snina"},"geometry":{"type":"Polygon","coordinates":[[[22.1784,49.1768],[22.3361,49.1275],[22.4892,49.0879],[22.5583,49.0856],[22.5391,49.0501],[22.4212,48.874],[22.401,48.8584],[22.3685,48.8682],[22.2889,48.8662],[22.2556,48.8731],[22.2417,48.9036],[22.2234,48.9278],[22.1831,48.9241],[22.1592,48.9384],[22.1284,48.9331],[22.0931,48.9377],[22.0357,48.9592],[22.0578,48.9967],[22.1274,49.0698],[22.1183,49.1009],[22.1177,49.1302],[22.1501,49.1789],[22.1784,49.1768]]]}},{"type":"Feature","properties":{"code":"SK710","name":"Stará Ľubovňa"},"geometry":{"type":"Polygon","coordinates":[[[20.9841,49.3118],[21.0036,49.2889],[21.0014,49.258],[20.9877,49.2268],[20.955,49.2118],[20.7836,49.2284],[20.758,49.2135],[20.6652,49.2453],[20.5703,49.234],[20.5408,49.2352],[20.4994,49.2695],[20.4904,49.306],[20.4583,49.3109],[20.4165,49.307],[20.4191,49.3363],[20.436,49.4012],[20.477,49.4006],[20.5595,49.3774],[20.6852,49.4169],[20.7157,49.4081],[20.9218,49.3005],[20.9512,49.3026],[20.9841,49.3118]]]}},{"type":"Feature","properties":{"code":"SK711","name":"Stropkov"},"geometry":{"type":"Polygon","coordinates":[[[21.8171,49.3583],[21.8263,49.3334],[21.8463,49.3148],[21.8615,49.2857],[21.7979,49.2083],[21.7886,49.1826],[21.7435,49.1463],[21.6708,49.0631],[21.6395,49.0555],[21.6122,49.0805],[21.5786,49.1027],[21.5988,49.1529],[21.6272,49.2749],[21.6427,49.3016],[21.7828,49.3643],[21.8171,49.3583]]]}},{"type":"Feature","properties":{"code":"SK712","name":"Svidník"},"geometry":{"type":"Polygon","coordinates":[[[21.7828,49.3643],[21.6427,49.3016],[21.6272,49.2749],[21.5988,49.1529],[21.5786,49.1027],[21.5508,49.0832],[21.5255,49.0683],[21.4574,49.079],[21.368,49.1179],[21.432,49.1436],[21.4596,49.1485],[21.4911,49.1327],[21.5087,49.152],[21.4836,49.1909],[21.5032,49.2153],[21.484,49.2482],[21.3937,49.3522],[21.4119,49.3776],[21.4597,49.4184],[21.4979,49.4223],[21.5516,49.4192],[21.5765,49.4252],[21.6048,49.4161],[21.6939,49.4071],[21.7577,49.3801],[21.7828,49.3643]]]}},{"type":"Feature","properties":{"code":"SK713","name":"Vranov nad Topľou"},"geometry":{"type":"Polygon","coordinates":[[[21.8016,48.8893],[21.7995,48.804],[21.7738,48.7809],[21.7378,48.7624],[21.5398,48.7979],[21.4962,48.8637],[21.4723,48.8833],[21.4615,48.916],[21.4231,48.9737],[21.4111,49.0051],[21.4251,49.0394],[21.4452,49.0552],[21.4574,49.079],[21.5255,49.0683],[21.5786,49.1027],[21.6122,49.0805],[21.6395,49.0555],[21.6708,49.0631],[21.7435,49.1463],[21.7522,49.1185],[21.7831,48.9273],[21.8016,48.8893]]]}}]}